     0.02500000      -12345.00      -12345.00   7.595560e+09      -12345.00
       0.000000       3900.000      -391.0000      -12345.00      -12345.00
      -12345.00      -12345.00      -12345.00      -12345.00      -12345.00
      -12345.00      -12345.00      -12345.00      -12345.00      -12345.00
      -12345.00      -12345.00      -12345.00      -12345.00      -12345.00
      -12345.00      -12345.00      -12345.00      -12345.00      -12345.00
      -12345.00      -25.01510       25.59665       1028.000       100.0000
       3.412500       95.90120      -12345.00       26.10000      -12345.00
      -12345.00      -12345.00      -12345.00      -12345.00      -12345.00
      -12345.00      -12345.00      -12345.00      -12345.00      -12345.00
       8196.658       242.8599       78.27137       73.71758      -12345.00
      -12345.00      -12345.00       0.000000       0.000000      -12345.00
      -12345.00      -12345.00      -12345.00      -12345.00      -12345.00
      -12345.00      -12345.00      -12345.00      -12345.00      -12345.00
      2004       361         1         5        23
         0         6    -12345    -12345    156001
    -12345    -12345    -12345    -12345    -12345
         1    -12345    -12345    -12345    -12345
    -12345    -12345    -12345    -12345    -12345
    -12345    -12345    -12345    -12345    -12345
    -12345    -12345    -12345    -12345    -12345
         1    -12345    -12345    -12345    -12345
LBTB    Off W Coast Of N
00      -12345  -12345  
-12345  -12345  -12345  
-12345  -12345  -12345  
-12345  -12345  -12345  
-12345  -12345  -12345  
-12345  -12345  BHZ     
GT      -12345  Geotech 
[...]
       665156.0       616036.0       566936.0       517847.0       468757.0
       419692.0       370642.0       321596.0       272574.0       223581.0
       174614.0       125678.0       76775.00       27916.00      -20892.00
      -69662.00      -118396.0      -167106.0      -215801.0      -264479.0
      -313160.0      -361813.0      -410433.0      -459036.0      -507601.0
      -556121.0      -604598.0      -653019.0      -701384.0      -749699.0
      -797946.0      -846125.0      -894239.0      -942269.0      -990233.0
      -1038143.      -1085988.      -1133785.      -1181546.      -1229275.
      -1276974.      -1324628.      -1372231.      -1419786.      -1467284.
      -1514737.      -1562134.      -1609476.      -1656776.      -1704014.
      -1751205.      -1798351.      -1845440.      -1892480.      -1939470.
      -1986413.      -2033297.      -2080115.      -2126862.      -2173533.
      -2220122.      -2266626.      -2313067.      -2359446.      -2405771.
      -2452069.      -2498320.      -2544511.      -2590632.      -2636684.
      -2682664.      -2728552.      -2774354.      -2820068.      -2865693.
      -2911222.      -2956636.      -3001937.      -3047118.      -3092181.
      -3137133.      -3181981.      -3226730.      -3271375.      -3315910.
      -3360327.      -3404620.      -3448786.      -3492820.      -3536722.
      -3580490.      -3624117.      -3667591.      -3710922.      -3754111.
      -3797127.      -3839970.      -3882644.      -3925142.      -3967472.
      -4009638.      -4051651.      -4093523.      -4135245.      -4176826.
      -4218277.      -4259592.      -4300783.      -4341842.      -4382760.
      -4423554.      -4464164.      -4504635.      -4544970.      -4585131.
      -4625204.      -4665020.      -4704807.      -4744351.      -4783739.
      -4823098.      -4862002.      -4901194.      -4939669.      -4978483.
      -5016818.      -5054754.      -5093712.      -5119086.      -5128137.
      -5132965.      -5134180.      -5134213.      -5134599.      -5134362.
      -5134601.      -5134504.      -5134528.      -5134628.      -5134594.
      -5134659.      -5134651.      -5134701.      -5134712.      -5134712.
      -5134755.      -5134754.      -5134746.      -5134752.      -5134772.
      -5134813.      -5134829.      -5134860.      -5134897.      -5134897.
      -5134915.      -5134946.      -5134961.      -5134981.      -5134996.
      -5134995.      -5135007.      -5135024.      -5135053.      -5135069.
      -5135064.      -5135081.      -5135098.      -5135135.      -5135137.
      -5135121.      -5135128.      -5135152.      -5135205.      -5135197.
      -5135224.      -5135227.      -5135145.      -5135193.      -5135263.
      -5135266.      -5135272.      -5135301.      -5135339.      -5135354.
      -5135373.      -5135372.      -5135370.      -5135389.      -5135386.
      -5135390.      -5135406.      -5135411.      -5135421.      -5135417.
      -5135424.      -5135454.      -5135436.      -5135437.      -5135471.
      -5135474.      -5135472.      -5135469.      -5135478.      -5135481.
      -5135487.      -5135509.      -5135498.      -5135516.      -5135540.
      -5135520.      -5135528.      -5135543.      -5135561.      -5135586.
      -5135598.      -5135594.      -5135573.      -5135589.      -5135591.
      -5135568.      -5135601.      -5135635.      -5135634.      -5135632.
      -5135632.      -5135635.      -5135655.      -5135664.      -5135652.
      -5135647.      -5135637.      -5135643.      -5135661.      -5135656.
      -5135642.      -5135659.      -5135697.      -5135692.      -5135692.
      -5135737.      -5135746.      -5135728.      -5135719.      -5135731.
      -5135751.      -5135727.      -5135726.      -5135765.      -5135766.
      -5135756.      -5135786.      -5135796.      -5135778.      -5135773.
      -5135700.      -5135657.      -5135661.      -5135642.      -5135667.
      -5135626.      -5135605.      -5135634.      -5135621.      -5135652.
      -5135648.      -5135640.      -5135680.      -5135675.      -5135697.
      -5135768.      -5135787.      -5135804.      -5135846.      -5135875.
      -5135901.      -5135897.      -5135896.      -5135901.      -5135900.
      -5135919.      -5135918.      -5135944.      -5135961.      -5135933.
      -5135936.      -5135911.      -5135888.      -5135926.      -5135976.
      -5135974.      -5135933.      -5135940.      -5135953.      -5135965.
      -5135976.      -5135942.      -5135932.      -5135950.      -5135953.
      -5135939.      -5135951.      -5135952.      -5135893.      -5135935.
      -5135993.      -5135958.      -5135952.      -5135955.      -5135969.
      -5135971.      -5135954.      -5135945.      -5135922.      -5135934.
      -5135932.      -5135925.      -5135947.      -5135944.      -5135947.
      -5135947.      -5135945.      -5135934.      -5135899.      -5135892.
      -5135907.      -5135924.      -5135923.      -5135938.      -5135955.
      -5135931.      -5135935.      -5135949.      -5135955.      -5135958.
      -5135942.      -5135938.      -5135958.      -5135986.      -5135970.
      -5135949.      -5135944.      -5135912.      -5135872.      -5135872.
      -5135940.      -5135946.      -5135911.      -5135942.      -5135943.
      -5135917.      -5135902.      -5135906.      -5135923.      -5135917.
      -5135909.      -5135910.      -5135906.      -5135906.      -5135915.
      -5135893.      -5135890.      -5135901.      -5135897.      -5135902.
      -5135864.      -5135870.      -5135894.      -5135867.      -5135875.
      -5135860.      -5135862.      -5135868.      -5135862.      -5135912.
      -5135884.      -5135877.      -5135919.      -5135873.      -5135864.
      -5135853.      -5135851.      -5135879.      -5135856.      -5135860.
      -5135866.      -5135868.      -5135848.      -5135812.      -5135841.
      -5135848.      -5135852.      -5135874.      -5135870.      -5135885.
      -5135875.      -5135911.      -5135913.      -5135923.      -5135951.
      -5135893.      -5135984.      -5135887.      -5135965.      -5135927.
      -5135903.      -5136068.      -5135648.      -5135836.      -5133284.
      -5127685.      -5113847.      -5080873.      -5040568.      -5002247.
      -4962467.      -4923086.      -4883316.      -4843183.      -4803076.
      -4762427.      -4721795.      -4680759.      -4639557.      -4598135.
      -4556442.      -4514576.      -4472424.      -4430071.      -4387470.
      -4344643.      -4301591.      -4258302.      -4214798.      -4171076.
      -4127155.      -4083037.      -4038735.      -3994255.      -3949572.
      -3904702.      -3859657.      -3814418.      -3768992.      -3723393.
      -3677623.      -3631697.      -3585620.      -3539391.      -3493017.
      -3446491.      -3399802.      -3352953.      -3305944.      -3258775.
      -3211451.      -3163968.      -3116315.      -3068495.      -3020521.
      -2972409.      -2924157.      -2875769.      -2827253.      -2778602.
      -2729816.      -2680896.      -2631841.      -2582663.      -2533354.
      -2483912.      -2434349.      -2384656.      -2334833.      -2284889.
      -2234828.      -2184651.      -2134351.      -2083920.      -2033352.
      -1982664.      -1931861.      -1880929.      -1829876.      -1778707.
      -1727441.      -1676093.      -1624664.      -1573171.      -1521630.
      -1470048.      -1418437.      -1366798.      -1315128.      -1263425.
      -1211689.      -1159925.      -1108130.      -1056297.      -1004430.
      -952523.0      -900562.0      -848557.0      -796518.0      -744445.0
      -692337.0      -640207.0      -588050.0      -535858.0      -483625.0
      -431345.0      -379018.0      -326645.0      -274222.0      -221741.0
      -169199.0      -116608.0      -63968.00      -11281.00       41450.00
       94221.00       147002.0       199773.0       252549.0       305316.0
       358061.0       410784.0       463476.0       516142.0       568778.0
       621379.0       673953.0       726506.0       779063.0       831630.0
       884192.0       936738.0       989252.0       1041739.       1094204.
       1146640.       1199055.       1251444.       1303814.       1356151.
       1408441.       1460683.       1512863.       1564974.       1617003.
       1668951.       1720818.       1772590.       1824289.       1875919.
       1927479.       1978977.       2030422.       2081811.       2133133.
       2184398.       2235598.       2286720.       2337759.       2388700.
       2439539.       2490263.       2540874.       2591379.       2641776.
       2692070.       2742263.       2792344.       2842312.       2892180.
       2941953.       2991622.       3041193.       3090659.       3140012.
       3189251.       3238366.       3287363.       3336235.       3384978.
       3433575.       3482007.       3530275.       3578376.       3626323.
       3674116.       3721736.       3769193.       3816494.       3863650.
       3910659.       3957504.       4004195.       4050732.       4097117.
       4143351.       4189441.       4235385.       4281179.       4326794.
       4372221.       4417482.       4462562.       4507458.       4552181.
       4596723.       4641088.       4685268.       4729267.       4773081.
       4816702.       4860130.       4903353.       4946371.       4989181.
       5031771.       5074151.       5116316.       5158250.       5199944.
       5241408.       5282643.       5323637.       5364416.       5404966.
       5445273.       5485368.       5525222.       5564861.       5604236.
       5643362.       5682272.       5720855.       5759295.       5797379.
       5835289.       5872980.       5910287.       5947656.       5984326.
       6021266.       6057572.       6093136.       6130297.       6165481.
       6200307.       6235463.       6268147.       6300201.       6323556.
       6338007.       6349574.       6356256.       6362793.       6366853.
       6368159.       6371686.       6372738.       6371493.       6370498.
       6369591.       6367281.       6364502.       6362405.       6358791.
       6355668.       6353240.       6349279.       6345693.       6342641.
       6338519.       6335455.       6332346.       6328397.       6324908.
       6321098.       6320183.       6320417.       6319670.       6320429.
       6320401.       6320126.       6320411.       6320225.       6320433.
       6319940.       6320083.       6320487.       6319470.       6320237.
       6320785.       6319672.       6320365.       6320395.       6319496.
       6320264.       6320266.       6319474.       6320054.       6320486.
       6319690.       6319911.       6319881.       6319649.       6320948.
       6320682.       6320030.       6319283.       6319882.       6321098.
       6318997.       6319686.       6320975.       6320137.       6320348.
       6319984.       6320277.       6320054.       6319489.       6319807.
       6320388.       6320453.       6319865.       6320358.       6320089.
       6320149.       6319986.       6319366.       6320489.       6320241.
       6320048.       6320117.       6319856.       6320382.       6319970.
       6320073.       6320055.       6319918.       6319901.       6319612.
       6320410.       6319923.       6319785.       6320311.       6319963.
       6319926.       6319789.       6320329.       6319733.       6320120.
       6320250.       6318698.       6320523.       6320469.       6319470.
       6320147.       6319581.       6320479.       6319935.       6318832.
       6320262.       6320417.       6319547.       6319739.       6320200.
       6319772.       6319799.       6319773.       6319428.       6320332.
       6320070.       6319624.       6319983.       6319905.       6319992.
       6319779.       6320155.       6319792.       6319509.       6320206.
       6319788.       6320062.       6320031.       6319636.       6320111.
       6320202.       6319509.       6319318.       6320261.       6320204.
       6319765.       6319720.       6319559.       6319940.       6320140.
       6319450.       6319805.       6320436.       6319932.       6320043.
       6319861.       6319740.       6320423.       6319663.       6319262.
       6320199.       6319727.       6319549.       6320261.       6319888.
       6319811.       6320042.       6319746.       6319910.       6319743.
       6319618.       6319914.       6319916.       6319895.       6319629.
       6322187.       6325911.       6328110.       6332686.       6336298.
       6338342.       6343348.       6347046.       6349728.       6353279.
       6356098.       6360055.       6362423.       6365711.       6368478.
       6367317.       6371376.       6373228.       6370438.       6371018.
       6368502.       6364475.       6361043.       6353511.       6343274.
       6331524.       6311219.       6280469.       6246998.       6212213.
       6176165.       6139871.       6102891.       6065879.       6028403.
       5990596.       5952528.       5914089.       5875440.       5836410.
       5797095.       5757469.       5717520.       5677256.       5636661.
       5595752.       5554495.       5512914.       5471029.       5428846.
       5386377.       5343615.       5300557.       5257203.       5213563.
       5169636.       5125425.       5080949.       5036204.       4991192.
       4945928.       4900421.       4854653.       4808613.       4762325.
       4715783.       4668982.       4621934.       4574632.       4527074.
       4479248.       4431158.       4382822.       4334225.       4285374.
       4236281.       4186940.       4137356.       4087526.       4037453.
       3987141.       3936582.       3885780.       3834722.       3783405.
       3731853.       3680087.       3628125.       3575960.       3523590.
       3471028.       3418263.       3365293.       3312125.       3258765.
       3205209.       3151456.       3097515.       3043384.       2989063.
       2934556.       2879860.       2824975.       2769919.       2714705.
       2659330.       2603792.       2548090.       2492212.       2436155.
       2379915.       2323504.       2266931.       2210192.       2153285.
       2096200.       2038927.       1981469.       1923837.       1866044.
       1808096.       1749985.       1691705.       1633284.       1574758.
       1516122.       1457355.       1398476.       1339493.       1280382.
       1221153.       1161807.       1102343.       1042760.       983051.0
       923241.0       863325.0       803303.0       743186.0       682975.0
       622676.0       562256.0       501710.0       441039.0       380228.0
       319292.0       258221.0       197039.0       135761.0       74372.00
       12886.00      -48694.00      -110372.0      -172136.0      -233994.0
      -295968.0      -358047.0      -420220.0      -482493.0      -544877.0
      -607391.0      -669996.0      -732674.0      -795439.0      -858275.0
      -921204.0      -984217.0      -1047321.      -1110529.      -1173804.
      -1237155.      -1300591.      -1364099.      -1427687.      -1491352.
      -1555092.      -1618904.      -1682783.      -1746712.      -1810666.
      -1874643.      -1938630.      -2002615.      -2066593.      -2130550.
      -2194489.      -2258412.      -2322309.      -2386188.      -2450052.
      -2513899.      -2577739.      -2641573.      -2705392.      -2769206.
      -2833014.      -2896816.      -2960617.      -3024394.      -3088154.
      -3151895.      -3215591.      -3279246.      -3342853.      -3406415.
      -3469936.      -3533399.      -3596803.      -3660145.      -3723424.
      -3786623.      -3849754.      -3912819.      -3975800.      -4038731.
      -4101545.      -4164324.      -4226994.      -4289579.      -4352160.
      -4414516.      -4477022.      -4539223.      -4601531.      -4663751.
      -4725635.      -4788031.      -4849414.      -4911901.      -4973041.
      -5035145.      -5095900.      -5127872.      -5133423.      -5135109.
      -5134919.      -5134984.      -5135262.      -5135027.      -5135300.
      -5135137.      -5135261.      -5135238.      -5135208.      -5135319.
      -5135318.      -5135378.      -5135363.      -5135369.      -5135404.
      -5135395.      -5135400.      -5135446.      -5135441.      -5135440.
      -5135455.      -5135455.      -5135520.      -5135549.      -5135566.
      -5135621.      -5135637.      -5135662.      -5135666.      -5135681.
      -5135709.      -5135694.      -5135727.      -5135737.      -5135745.
      -5135809.      -5135827.      -5135839.      -5135869.      -5135886.
      -5135895.      -5135926.      -5135950.      -5135924.      -5135938.
      -5135979.      -5135953.      -5135956.      -5136005.      -5135989.
      -5135996.      -5136038.      -5136037.      -5136043.      -5136048.
      -5136058.      -5136086.      -5136115.      -5136145.      -5136155.
      -5136173.      -5136198.      -5136207.      -5136226.      -5136250.
      -5136273.      -5136267.      -5136249.      -5136280.      -5136271.
      -5136254.      -5136312.      -5136307.      -5136308.      -5136332.
      -5136287.      -5136268.      -5136232.      -5136226.      -5136216.
      -5136191.      -5136268.      -5136228.      -5136223.      -5136336.
      -5136369.      -5136420.      -5136430.      -5136428.      -5136446.
      -5136449.      -5136477.      -5136462.      -5136490.      -5136506.
      -5136474.      -5136502.      -5136505.      -5136531.      -5136562.
      -5136542.      -5136567.      -5136576.      -5136572.      -5136585.
      -5136575.      -5136576.      -5136580.      -5136583.      -5136599.
      -5136620.      -5136653.      -5136662.      -5136658.      -5136678.
      -5136676.      -5136662.      -5136677.      -5136689.      -5136671.
      -5136659.      -5136645.      -5136626.      -5136680.      -5136711.
      -5136679.      -5136691.      -5136710.      -5136717.      -5136739.
      -5136745.      -5136734.      -5136746.      -5136744.      -5136749.
      -5136788.      -5136800.      -5136820.      -5136812.      -5136784.
      -5136793.      -5136789.      -5136790.      -5136794.      -5136802.
