     0.05000000      -12345.00      -12345.00   1.379420e+09      -12345.00
   0.0001440000       3899.950      -160.0231      -12345.00      -12345.00
      -12345.00      -12345.00      -12345.00      -12345.00      -12345.00
      -12345.00      -12345.00      -12345.00      -12345.00      -12345.00
      -12345.00      -12345.00      -12345.00      -12345.00      -12345.00
      -12345.00      -12345.00      -12345.00      -12345.00      -12345.00
      -12345.00       40.01907       116.1716       197.0000       23.00000
       3.412500       95.90120      -12345.00       26.10000      -12345.00
      -12345.00      -12345.00      -12345.00      -12345.00      -12345.00
      -12345.00      -12345.00      -12345.00      -12345.00      -12345.00
       4536.482       24.02796       211.9576       40.79937      -12345.00
      -12345.00      -12345.00       0.000000       0.000000      -12345.00
      -12345.00      -12345.00      -12345.00      -12345.00      -12345.00
      -12345.00      -12345.00      -12345.00      -12345.00      -12345.00
      2004       361         1         1        32
        23         6    -12345    -12345     78000
    -12345    -12345    -12345    -12345    -12345
         1    -12345    -12345    -12345    -12345
    -12345    -12345    -12345    -12345    -12345
    -12345    -12345    -12345    -12345    -12345
    -12345    -12345    -12345    -12345    -12345
         1    -12345    -12345    -12345    -12345
BJT     Off W Coast Of N
00      -12345  -12345  
-12345  -12345  -12345  
-12345  -12345  -12345  
-12345  -12345  -12345  
-12345  -12345  -12345  
-12345  -12345  BHZ     
IC      -12345  Streckei
[...]
       7589178.       7559286.       7528049.       7495477.       7461529.
       7426258.       7389740.       7351948.       7312962.       7272815.
       7231417.       7188807.       7145068.       7100193.       7054153.
       7007108.       6959102.       6910022.       6859988.       6809090.
       6757262.       6704564.       6651020.       6596629.       6541441.
       6485523.       6428885.       6371529.       6313595.       6255041.
       6195799.       6136010.       6075724.       6014895.       5953577.
       5891894.       5829777.       5767191.       5704273.       5640996.
       5577341.       5513368.       5449060.       5384437.       5319538.
       5254353.       5188840.       5123000.       5056858.       4990400.
       4923609.       4856594.       4789274.       4721557.       4653605.
       4585285.       4516642.       4447617.       4378308.       4308745.
       4238799.       4169108.       4098875.       4028105.       3957475.
       3886412.       3815278.       3743698.       3671615.       3599615.
       3527741.       3455773.       3382855.       3309492.       3236510.
       3163277.       3089451.       3015349.       2941070.       2866592.
       2792025.       2717057.       2641266.       2565166.       2489141.
       2412822.       2335983.       2258763.       2181236.       2103452.
       2025119.       1946137.       1866992.       1787361.       1707173.
       1626520.       1545249.       1463484.       1381175.       1298470.
       1215447.       1131945.       1047816.       963344.0       878344.0
       792648.0       706509.0       620178.0       534265.0       447402.0
       358535.0       269248.0       180457.0       91990.00       3294.000
      -86251.00      -176474.0      -266699.0      -356866.0      -447601.0
      -539013.0      -630847.0      -722642.0      -814143.0      -906010.0
      -998308.0      -1090524.      -1182812.      -1275385.      -1367996.
      -1460297.      -1552782.      -1645670.      -1738075.      -1830289.
      -1922553.      -2014606.      -2107005.      -2199129.      -2290943.
      -2382757.      -2474024.      -2565246.      -2656219.      -2746710.
      -2837244.      -2927300.      -3016871.      -3106585.      -3195753.
      -3284304.      -3372554.      -3460236.      -3547991.      -3635277.
      -3722067.      -3808550.      -3893935.      -3979759.      -4065311.
      -4149341.      -4233031.      -4316981.      -4400769.      -4483331.
      -4565686.      -4648021.      -4729788.      -4810996.      -4891420.
      -4971192.      -5050481.      -5129798.      -5208353.      -5285748.
      -5362584.      -5439445.      -5516226.      -5592643.      -5668731.
      -5743526.      -5817181.      -5890826.      -5964170.      -6036528.
      -6107447.      -6177752.      -6248113.      -6316992.      -6385311.
      -6454030.      -6521528.      -6587922.      -6653714.      -6718525.
      -6782385.      -6845661.      -6907802.      -6968534.      -7029005.
      -7089199.      -7147911.      -7205188.      -7261743.      -7316982.
      -7371063.      -7424741.      -7477115.      -7527958.      -7577221.
      -7625034.      -7672841.      -7719874.      -7764791.      -7808209.
      -7850127.      -7890763.      -7930429.      -7969002.      -8006657.
      -8042409.      -8076023.      -8108178.      -8139074.      -8168763.
      -8196701.      -8223112.      -8247702.      -8269901.      -8290878.
      -8310653.      -8328334.      -8344194.      -8358609.      -8371603.
      -8383050.      -8392986.      -8401304.      -8408003.      -8412845.
      -8415597.      -8417151.      -8417263.      -8415478.      -8412224.
      -8407145.      -8400331.      -8391992.      -8382382.      -8371591.
      -8358942.      -8344929.      -8329783.      -8313090.      -8294899.
      -8275237.      -8254502.      -8232721.      -8209532.      -8185138.
      -8159881.      -8133235.      -8105149.      -8076273.      -8046155.
      -8014557.      -7982256.      -7949168.      -7914939.      -7879710.
      -7843520.      -7806689.      -7769128.      -7730682.      -7691370.
      -7650886.      -7609598.      -7567519.      -7524512.      -7480871.
      -7436472.      -7391596.      -7345931.      -7299471.      -7252575.
      -7204889.      -7156707.      -7107890.      -7058293.      -7007990.
      -6956997.      -6905606.      -6853523.      -6800772.      -6747604.
      -6693851.      -6639348.      -6584069.      -6528318.      -6472332.
      -6415837.      -6358697.      -6300997.      -6242768.      -6184157.
      -6125025.      -6065268.      -6004960.      -5944244.      -5883133.
      -5821431.      -5759270.      -5696598.      -5633509.      -5570136.
      -5506488.      -5442516.      -5377761.      -5312571.      -5247018.
      -5180911.      -5114479.      -5047644.      -4980418.      -4912539.
      -4844277.      -4775673.      -4706426.      -4636730.      -4566493.
      -4495886.      -4424817.      -4353218.      -4280984.      -4208133.
      -4134865.      -4060825.      -3986268.      -3911164.      -3835362.
      -3759075.      -3682124.      -3604533.      -3526349.      -3447561.
      -3368136.      -3288042.      -3207372.      -3126097.      -3044154.
      -2961554.      -2878609.      -2795143.      -2710951.      -2626374.
      -2541201.      -2455505.      -2369397.      -2282645.      -2195430.
      -2107802.      -2019720.      -1931272.      -1842409.      -1753226.
      -1663703.      -1573825.      -1483810.      -1393352.      -1302655.
      -1212042.      -1121148.      -1030041.      -938719.0      -847291.0
      -755868.0      -664313.0      -572836.0      -481271.0      -389667.0
      -298395.0      -207293.0      -116231.0      -25424.00       65083.00
       155445.0       245512.0       335203.0       424477.0       513482.0
       602167.0       690300.0       777976.0       865090.0       951712.0
       1037915.       1123592.       1208643.       1293126.       1377033.
       1460268.       1542924.       1624967.       1706405.       1787068.
       1867042.       1946524.       2025135.       2102998.       2180208.
       2256528.       2332148.       2407011.       2481183.       2554678.
       2627342.       2699331.       2770508.       2840946.       2910795.
       2979959.       3048420.       3116151.       3183234.       3249692.
       3315476.       3380688.       3445329.       3509313.       3572760.
       3635550.       3697615.       3759162.       3820117.       3880346.
       3939912.       3998914.       4057337.       4115073.       4172098.
       4228494.       4284245.       4339213.       4393464.       4447216.
       4500352.       4552892.       4604749.       4655784.       4706238.
       4755916.       4804890.       4853135.       4900565.       4947330.
       4993192.       5038353.       5082758.       5126273.       5169085.
       5211127.       5252338.       5292716.       5332324.       5371017.
       5408783.       5445801.       5481930.       5517162.       5551528.
       5584933.       5617546.       5649351.       5680305.       5710409.
       5739494.       5767714.       5795176.       5821844.       5847586.
       5872413.       5896564.       5919784.       5942008.       5963435.
       5983833.       6003409.       6022355.       6040359.       6057525.
       6073808.       6089382.       6104273.       6117983.       6130927.
       6143171.       6154549.       6165091.       6174886.       6184280.
       6192857.       6200560.       6207639.       6214085.       6219979.
       6225208.       6229780.       6233718.       6237120.       6239873.
       6241928.       6243566.       6244888.       6245758.       6245844.
       6245416.       6244593.       6243053.       6240971.       6238582.
       6235774.       6232313.       6228457.       6224156.       6219354.
       6214383.       6209047.       6203222.       6196962.       6190364.
       6183541.       6176346.       6168738.       6160669.       6152116.
       6143310.       6134190.       6124616.       6114517.       6103992.
       6093384.       6082434.       6070915.       6059062.       6046840.
       6034441.       6021822.       6008647.       5995079.       5981165.
       5967072.       5952437.       5936880.       5921289.       5905817.
       5889943.       5873496.       5856428.       5838907.       5820916.
       5802531.       5783986.       5765202.       5745900.       5725854.
       5705355.       5684629.       5663634.       5642438.       5620713.
       5598348.       5575443.       5552351.       5529006.       5504958.
       5480764.       5456391.       5431566.       5406510.       5381086.
       5355284.       5329178.       5302861.       5276268.       5249326.
       5222047.       5194384.       5166412.       5138210.       5109915.
       5081314.       5052254.       5022989.       4993409.       4963522.
       4933316.       4902723.       4872107.       4841355.       4810185.
       4778630.       4746801.       4715001.       4683055.       4650812.
       4618304.       4585398.       4552425.       4519305.       4486044.
       4452792.       4419080.       4385079.       4350992.       4316754.
       4282491.       4247920.       4213176.       4178373.       4143234.
       4108037.       4072748.       4037226.       4001555.       3965700.
       3929745.       3893730.       3857698.       3821509.       3785268.
       3748990.       3712345.       3675360.       3638200.       3601149.
       3564017.       3526614.       3489077.       3451288.       3413465.
       3375623.       3337470.       3299180.       3260712.       3221974.
       3183220.       3144353.       3105191.       3065750.       3026086.
       2986270.       2946245.       2905968.       2865351.       2824357.
       2783096.       2741544.       2699632.       2657371.       2614751.
       2571700.       2528186.       2484181.       2439786.       2395021.
       2349672.       2303830.       2257603.       2210936.       2163716.
       2115867.       2067441.       2018509.       1969112.       1919188.
       1868639.       1817345.       1765539.       1713339.       1660420.
       1606867.       1552695.       1497963.       1442807.       1386922.
       1330320.       1273110.       1215151.       1156490.       1097147.
       1036967.       976215.0       914807.0       852540.0       789650.0
       725953.0       661483.0       596312.0       530399.0       463695.0
       396117.0       327964.0       259006.0       189167.0       118715.0
       47315.00      -24794.00      -97435.00      -170971.0      -245210.0
      -320181.0      -395887.0      -472108.0      -549053.0      -626665.0
      -704939.0      -783930.0      -863500.0      -943616.0      -1024247.
      -1105709.      -1187818.      -1270132.      -1352882.      -1436104.
      -1519954.      -1604327.      -1688921.      -1774069.      -1859610.
      -1945497.      -2031885.      -2118426.      -2205225.      -2292313.
      -2379545.      -2467215.      -2555136.      -2643144.      -2731405.
      -2819728.      -2908158.      -2996658.      -3085329.      -3174166.
      -3262872.      -3351664.      -3440719.      -3529744.      -3618494.
      -3707265.      -3796066.      -3884625.      -3972891.      -4061040.
      -4149236.      -4237126.      -4324655.      -4412102.      -4499269.
      -4586104.      -4672589.      -4758809.      -4844823.      -4930373.
      -5015640.      -5100495.      -5184954.      -5269160.      -5352925.
      -5436160.      -5518925.      -5601391.      -5683370.      -5764779.
      -5845591.      -5925965.      -6005857.      -6085022.      -6163662.
      -6241657.      -6318882.      -6395532.      -6471561.      -6546877.
      -6621550.      -6695441.      -6768701.      -6841259.      -6912812.
      -6983617.      -7053490.      -7122376.      -7190513.      -7257758.
      -7324122.      -7389587.      -7453999.      -7517415.      -7579864.
      -7641235.      -7701643.      -7761053.      -7819294.      -7876329.
      -7932072.      -7986817.      -8040474.      -8092711.      -8143714.
      -8193403.      -8241839.      -8289039.      -8334895.      -8379352.
      -8422390.      -8463982.      -8503904.      -8542610.      -8579846.
      -8615555.      -8650215.      -8683178.      -8714560.      -8744553.
      -8773102.      -8800159.      -8825580.      -8849685.      -8872227.
      -8893107.      -8912552.      -8930458.      -8946822.      -8961676.
      -8974968.      -8986598.      -8996540.      -9005026.      -9011980.
      -9017404.      -9021307.      -9023530.      -9024296.      -9023378.
      -9020744.      -9016598.      -9010898.      -9003650.      -8994651.
      -8984067.      -8971990.      -8958219.      -8942815.      -8925738.
      -8907033.      -8886654.      -8864426.      -8840693.      -8815535.
      -8788571.      -8760002.      -8729833.      -8697875.      -8664299.
      -8629011.      -8592044.      -8553399.      -8513080.      -8471087.
      -8427325.      -8381877.      -8334802.      -8286303.      -8236045.
      -8183861.      -8130164.      -8074813.      -8017681.      -7958788.
      -7898186.      -7836004.      -7771913.      -7705924.      -7638482.
      -7569379.      -7498470.      -7425899.      -7351587.      -7275541.
      -7197808.      -7118422.      -7037337.      -6954643.      -6870370.
      -6784363.      -6696825.      -6607813.      -6517130.      -6424908.
      -6331249.      -6236012.      -6139228.      -6041156.      -5941646.
      -5840802.      -5738765.      -5635090.      -5530095.      -5423891.
      -5316333.      -5207631.      -5097640.      -4986488.      -4874254.
      -4760815.      -4646280.      -4530771.      -4414102.      -4296301.
      -4177705.      -4058079.      -3937547.      -3816226.      -3693955.
      -3571002.      -3447259.      -3322887.      -3198001.      -3072375.
      -2946145.      -2819400.      -2692308.      -2564835.      -2436824.
      -2308473.      -2179818.      -2050976.      -1922094.      -1792821.
      -1663432.      -1534088.      -1404474.      -1274958.      -1145577.
      -1016075.      -886566.0      -757354.0      -628440.0      -499682.0
      -371105.0      -242746.0      -114829.0       12815.00       140094.0
       266726.0       393082.0       518927.0       644063.0       768760.0
       892850.0       1016287.       1139175.       1261384.       1382797.
       1503649.       1623864.       1743278.       1861966.       1979764.
       2096765.       2212996.       2328307.       2442698.       2556373.
       2669166.       2780684.       2891335.       3001168.       3109869.
       3217734.       3324530.       3430105.       3534815.       3638304.
       3740682.       3842117.       3942380.       4041510.       4139411.
       4236326.       4332127.       4426595.       4519914.       4612032.
       4702832.       4792368.       4880691.       4967734.       5053404.
       5137737.       5220900.       5302681.       5383073.       5462061.
       5539482.       5615516.       5690149.       5763269.       5834776.
       5904795.       5973401.       6040438.       6105847.       6169780.
       6232177.       6292903.       6352194.       6409857.       6465822.
       6520174.       6572933.       6624285.       6673868.       6721752.
       6768210.       6813039.       6856220.       6897789.       6937857.
       6976405.       7013419.       7048877.       7082670.       7114951.
       7145757.       7175075.       7202923.       7229203.       7254017.
       7277441.       7299355.       7319877.       7338995.       7356751.
       7373234.       7388210.       7401822.       7414136.       7425091.
       7434705.       7442976.       7450117.       7455985.       7460504.
       7463923.       7466236.       7467439.       7467540.       7466549.
       7464466.       7461242.       7457001.       7451827.       7445716.
       7438643.       7430650.       7421684.       7411800.       7401170.
       7389691.       7377401.       7364282.       7350392.       7335769.
       7320304.       7304101.       7287035.       7269225.       7250791.
       7231511.       7211585.       7191039.       7169778.       7147948.
       7125471.       7102310.       7078461.       7053942.       7028774.
       7002862.       6976404.       6949406.       6921771.       6893585.
       6864769.       6835442.       6805710.       6775396.       6744445.
       6712991.       6681020.       6648475.       6615483.       6582028.
       6548133.       6513763.       6478887.       6443596.       6407799.
       6371596.       6334978.       6297912.       6260480.       6222572.
       6184263.       6145526.       6106319.       6066725.       6026751.
       5986442.       5945718.       5904568.       5863014.       5821033.
       5778725.       5736081.       5693008.       5649497.       5605526.
       5561118.       5516340.       5471145.       5425546.       5379643.
       5333363.       5286718.       5239776.       5192555.       5145134.
       5097416.       5049377.       5000965.       4952188.       4903169.
       4853828.       4804181.       4754285.       4704139.       4653716.
       4603073.       4552198.       4500997.       4449599.       4398028.
       4346194.       4294152.       4241923.       4189508.       4136914.
       4084146.       4031249.       3978169.       3924918.       3871521.
       3818019.       3764464.       3710804.       3657034.       3603179.
       3549242.       3495262.       3441303.       3387328.       3333274.
       3279136.       3225012.       3170915.       3116810.       3062788.
       3008832.       2954925.       2901103.       2847361.       2793733.
       2740218.       2686780.       2633398.       2580119.       2526945.
       2473774.       2420678.       2367635.       2314626.       2261671.
       2208704.       2155763.       2102815.       2049792.       1996657.
       1943486.       1890202.       1836790.       1783278.       1729523.
