     0.05000000      -12345.00      -12345.00   1.072000e+09      -12345.00
   0.0001450000       3899.950      -232.0481      -12345.00      -12345.00
      -12345.00      -12345.00      -12345.00      -12345.00      -12345.00
      -12345.00      -12345.00      -12345.00      -12345.00      -12345.00
      -12345.00      -12345.00      -12345.00      -12345.00      -12345.00
      -12345.00      -12345.00      -12345.00      -12345.00      -12345.00
      -12345.00       49.27012       119.7414       620.0000       5.000000
       3.412500       95.90120      -12345.00       26.10000      -12345.00
      -12345.00      -12345.00      -12345.00      -12345.00      -12345.00
      -12345.00      -12345.00      -12345.00      -12345.00      -12345.00
       5559.812       20.21760       211.7816       50.00280      -12345.00
      -12345.00      -12345.00       0.000000       0.000000      -12345.00
      -12345.00      -12345.00      -12345.00      -12345.00      -12345.00
      -12345.00      -12345.00      -12345.00      -12345.00      -12345.00
      2004       361         1         2        44
        48         6    -12345    -12345     78000
    -12345    -12345    -12345    -12345    -12345
         1    -12345    -12345    -12345    -12345
    -12345    -12345    -12345    -12345    -12345
    -12345    -12345    -12345    -12345    -12345
    -12345    -12345    -12345    -12345    -12345
         1    -12345    -12345    -12345    -12345
HIA     Off W Coast Of N
00      -12345  -12345  
-12345  -12345  -12345  
-12345  -12345  -12345  
-12345  -12345  -12345  
-12345  -12345  -12345  
-12345  -12345  BHZ     
IC      -12345  Streckei
[...]
       2560340.       2605944.       2651094.       2695803.       2740029.
       2783773.       2827056.       2869807.       2912053.       2953764.
       2994883.       3035424.       3075373.       3114796.       3153700.
       3192012.       3229729.       3266870.       3303423.       3339370.
       3374729.       3409492.       3443626.       3477119.       3509965.
       3542186.       3573790.       3604756.       3635102.       3664831.
       3693928.       3722390.       3750192.       3777268.       3803589.
       3829210.       3854155.       3878439.       3902048.       3924947.
       3947148.       3968650.       3989502.       4009737.       4029328.
       4048218.       4066386.       4083922.       4100871.       4117181.
       4132811.       4147716.       4161871.       4175349.       4188145.
       4200225.       4211629.       4222372.       4232498.       4241989.
       4250779.       4258877.       4266314.       4273130.       4279320.
       4284833.       4289684.       4293883.       4297432.       4300395.
       4302791.       4304631.       4305899.       4306565.       4306624.
       4306060.       4304937.       4303298.       4301080.       4298247.
       4294831.       4290873.       4286350.       4281198.       4275400.
       4269001.       4261968.       4254325.       4246104.       4237223.
       4227747.       4217734.       4207170.       4196041.       4184251.
       4171820.       4158797.       4145167.       4130941.       4116082.
       4100598.       4084530.       4067873.       4050605.       4032702.
       4014217.       3995151.       3975461.       3955165.       3934281.
       3912820.       3890776.       3868136.       3844913.       3821100.
       3796691.       3771719.       3746178.       3720028.       3693269.
       3665855.       3637779.       3609121.       3579843.       3549921.
       3519379.       3488197.       3456418.       3424017.       3391002.
       3357393.       3323125.       3288247.       3252807.       3216777.
       3180088.       3142736.       3104829.       3066409.       3027431.
       2987864.       2947756.       2907114.       2865873.       2824112.
       2781825.       2738969.       2695639.       2651802.       2607398.
       2562439.       2516960.       2470954.       2424373.       2377283.
       2329690.       2281555.       2232932.       2183859.       2134300.
       2084241.       2033717.       1982704.       1931183.       1879168.
       1826670.       1773658.       1720143.       1666181.       1611745.
       1556831.       1501422.       1445490.       1389037.       1332119.
       1274753.       1216911.       1158637.       1099919.       1040760.
       981195.0       921199.0       860787.0       799969.0       738747.0
       677161.0       615221.0       552927.0       490291.0       427291.0
       363929.0       300228.0       236176.0       171750.0       106953.0
       41804.00      -23663.00      -89426.00      -155520.0      -221933.0
      -288685.0      -355700.0      -422954.0      -490555.0      -558288.0
      -626175.0      -694345.0      -762542.0      -830807.0      -899219.0
      -967718.0      -1036328.      -1104965.      -1173729.      -1242558.
      -1311447.      -1380527.      -1449602.      -1518631.      -1587606.
      -1656580.      -1725486.      -1794218.      -1862906.      -1931439.
      -1999738.      -2067793.      -2135629.      -2203188.      -2270417.
      -2337365.      -2403933.      -2470141.      -2535951.      -2601258.
      -2666077.      -2730412.      -2794210.      -2857426.      -2920095.
      -2982187.      -3043600.      -3104374.      -3164562.      -3224099.
      -3282996.      -3341184.      -3398610.      -3455311.      -3511186.
      -3566238.      -3620494.      -3673913.      -3726471.      -3778103.
      -3828797.      -3878574.      -3927439.      -3975374.      -4022355.
      -4068356.      -4113345.      -4157331.      -4200318.      -4242286.
      -4283187.      -4323018.      -4361787.      -4399444.      -4435986.
      -4471403.      -4505668.      -4538813.      -4570827.      -4601683.
      -4631402.      -4660012.      -4687514.      -4713895.      -4739082.
      -4763049.      -4785826.      -4807437.      -4827921.      -4847049.
      -4864845.      -4881520.      -4897045.      -4911469.      -4924737.
      -4936841.      -4947765.      -4957466.      -4965957.      -4973195.
      -4979132.      -4983747.      -4987183.      -4989407.      -4990321.
      -4989957.      -4988300.      -4985353.      -4981095.      -4975556.
      -4968772.      -4960716.      -4951375.      -4940741.      -4928734.
      -4915401.      -4900798.      -4884919.      -4867759.      -4849213.
      -4829304.      -4808141.      -4785769.      -4762116.      -4737125.
      -4710870.      -4683357.      -4654513.      -4624317.      -4592750.
      -4559829.      -4525604.      -4490030.      -4453106.      -4414862.
      -4375204.      -4334109.      -4291586.      -4247660.      -4202378.
      -4155655.      -4107496.      -4057920.      -4006949.      -3954634.
      -3900908.      -3845803.      -3789354.      -3731535.      -3672337.
      -3611760.      -3549839.      -3486598.      -3422065.      -3356245.
      -3289154.      -3220829.      -3151260.      -3080457.      -3008467.
      -2935299.      -2860933.      -2785369.      -2708661.      -2630862.
      -2551975.      -2472012.      -2390957.      -2308826.      -2225651.
      -2141465.      -2056334.      -1970292.      -1883392.      -1795649.
      -1707099.      -1617782.      -1527684.      -1436895.      -1345469.
      -1253357.      -1160591.      -1067243.      -973349.0      -878924.0
      -784025.0      -688704.0      -592981.0      -496910.0      -400519.0
      -303840.0      -206855.0      -109623.0      -12248.00       85231.00
       182787.0       280390.0       378009.0       475618.0       573190.0
       670712.0       768122.0       865399.0       962506.0       1059379.
       1156002.       1252339.       1348349.       1443960.       1539168.
       1633995.       1728387.       1822310.       1915768.       2008762.
       2101211.       2193031.       2284256.       2374835.       2464751.
       2553990.       2642476.       2730192.       2817079.       2903111.
       2988242.       3072404.       3155583.       3237772.       3318924.
       3398990.       3477976.       3555828.       3632483.       3707917.
       3782116.       3855071.       3926774.       3997173.       4066206.
       4133833.       4200029.       4264837.       4328165.       4389929.
       4450149.       4508774.       4565828.       4621290.       4675094.
       4727240.       4777715.       4826463.       4873471.       4918770.
       4962276.       5003959.       5043839.       5081888.       5118098.
       5152409.       5184805.       5215294.       5243856.       5270469.
       5295132.       5317852.       5338577.       5357312.       5374040.
       5388736.       5401400.       5411944.       5420403.       5426824.
       5431146.       5433386.       5433527.       5431572.       5427556.
       5421468.       5413323.       5403113.       5390818.       5376464.
       5360043.       5341569.       5321090.       5298627.       5274168.
       5247718.       5219311.       5188953.       5156688.       5122489.
       5086382.       5048379.       5008481.       4966737.       4923059.
       4877572.       4830278.       4781091.       4730164.       4677546.
       4623195.       4567128.       4509362.       4449897.       4388881.
       4326287.       4262069.       4196309.       4128990.       4060170.
       3989849.       3918060.       3844836.       3770164.       3694075.
       3616612.       3537859.       3457806.       3376472.       3293884.
       3210032.       3124987.       3038784.       2951467.       2863053.
       2773567.       2683105.       2591723.       2499489.       2406437.
       2312588.       2217969.       2122598.       2026548.       1929809.
       1832428.       1734497.       1635984.       1536873.       1437276.
       1337225.       1236658.       1135712.       1034389.       932602.0
       830509.0       728146.0       625462.0       522550.0       419456.0
       316194.0       212803.0       109326.0       5824.000      -97655.00
      -201072.0      -304406.0      -407597.0      -510675.0      -613595.0
      -716317.0      -818854.0      -921101.0      -1023050.      -1124709.
      -1226073.      -1327060.      -1427654.      -1527851.      -1627555.
      -1726811.      -1825555.      -1923746.      -2021416.      -2118495.
      -2215007.      -2310941.      -2406274.      -2500983.      -2594996.
      -2688430.      -2781261.      -2873345.      -2964669.      -3055202.
      -3144954.      -3233895.      -3321999.      -3409290.      -3495748.
      -3581347.      -3666087.      -3750001.      -3833046.      -3915142.
      -3996307.      -4076518.      -4155707.      -4233844.      -4310871.
      -4386835.      -4461672.      -4535259.      -4607690.      -4678937.
      -4748978.      -4817795.      -4885386.      -4951785.      -5016912.
      -5080745.      -5143254.      -5204409.      -5264322.      -5322952.
      -5380135.      -5435967.      -5490442.      -5543465.      -5595076.
      -5645242.      -5693929.      -5741136.      -5786842.      -5831013.
      -5873645.      -5914717.      -5954225.      -5992181.      -6028540.
      -6063303.      -6096506.      -6128138.      -6158097.      -6186357.
      -6213034.      -6238112.      -6261553.      -6283357.      -6303474.
      -6321923.      -6338703.      -6353808.      -6367255.      -6379006.
      -6389042.      -6397353.      -6403934.      -6408763.      -6411841.
      -6413185.      -6412783.      -6410611.      -6406656.      -6400938.
      -6393460.      -6384217.      -6373223.      -6360481.      -6345981.
      -6329709.      -6311682.      -6291922.      -6270419.      -6247146.
      -6222087.      -6195216.      -6166531.      -6136083.      -6103863.
      -6069863.      -6034110.      -5996629.      -5957456.      -5916610.
      -5874081.      -5829844.      -5783911.      -5736284.      -5686921.
      -5635816.      -5582997.      -5528495.      -5472334.      -5414493.
      -5355030.      -5293968.      -5231282.      -5166993.      -5101092.
      -5033661.      -4964675.      -4894105.      -4821986.      -4748270.
      -4673026.      -4596265.      -4518028.      -4438315.      -4357084.
      -4274450.      -4190409.      -4104981.      -4018197.      -3930078.
      -3840626.      -3749794.      -3657623.      -3564167.      -3469488.
      -3373619.      -3276565.      -3178316.      -3078900.      -2978424.
      -2876898.      -2774305.      -2670665.      -2566002.      -2460330.
      -2353684.      -2246095.      -2137589.      -2028176.      -1917880.
      -1806767.      -1694782.      -1581973.      -1468398.      -1354027.
      -1238904.      -1123036.      -1006472.      -889210.0      -771334.0
      -652926.0      -533956.0      -414496.0      -294578.0      -174194.0
      -53366.00       67836.00       189430.0       311419.0       433757.0
       556376.0       679253.0       802376.0       925648.0       1049090.
       1172662.       1296284.       1419955.       1543634.       1667301.
       1790920.       1914426.       2037795.       2160992.       2283991.
       2406811.       2529368.       2651611.       2773558.       2895177.
       3016408.       3137177.       3257549.       3377535.       3497012.
       3615963.       3734372.       3852225.       3969510.       4086125.
       4202052.       4317272.       4431744.       4545437.       4658310.
       4770339.       4881473.       4991686.       5100940.       5209177.
       5316374.       5422497.       5527497.       5631349.       5734015.
       5835473.       5935661.       6034558.       6132186.       6228445.
       6323285.       6416686.       6508674.       6599224.       6688200.
       6775564.       6861303.       6945418.       7027863.       7108560.
       7187525.       7264757.       7340222.       7413862.       7485648.
       7555573.       7623615.       7689689.       7753754.       7815823.
       7875831.       7933738.       7989474.       8042986.       8094298.
       8143392.       8190244.       8234827.       8277132.       8317156.
       8354901.       8390355.       8423510.       8454327.       8482772.
       8508863.       8532595.       8553969.       8572951.       8589503.
       8603657.       8615458.       8624874.       8631881.       8636490.
       8638718.       8638578.       8636026.       8631057.       8623703.
       8614004.       8601950.       8587549.       8570837.       8551796.
       8530471.       8506845.       8480879.       8452630.       8422129.
       8389415.       8354489.       8317344.       8278020.       8236545.
       8192884.       8147039.       8099093.       8049058.       7996956.
       7942764.       7886500.       7828252.       7768008.       7705822.
       7641708.       7575634.       7507640.       7437724.       7365934.
       7292258.       7216678.       7139259.       7060011.       6978975.
       6896123.       6811483.       6725103.       6636994.       6547230.
       6455805.       6362743.       6268125.       6171972.       6074251.
       5974982.       5874239.       5772069.       5668488.       5563479.
       5457028.       5349232.       5240128.       5129647.       5017890.
       4904838.       4790474.       4674917.       4558126.       4440131.
       4321047.       4200862.       4079537.       3957087.       3833543.
       3708991.       3583448.       3456893.       3329334.       3200831.
       3071430.       2941127.       2809991.       2678044.       2545342.
       2411910.       2277832.       2143083.       2007636.       1871679.
       1735083.       1597922.       1460371.       1322310.       1183820.
       1044948.       905717.0       766214.0       626391.0       486311.0
       346046.0       205554.0       64926.00      -75758.00      -216472.0
      -357261.0      -498111.0      -638921.0      -779646.0      -920212.0
      -1060595.      -1200757.      -1340680.      -1480331.      -1619614.
      -1758541.      -1897012.      -2035003.      -2172558.      -2309557.
      -2445986.      -2581827.      -2716983.      -2851464.      -2985268.
      -3118362.      -3250663.      -3382086.      -3512719.      -3642363.
      -3770871.      -3898518.      -4025196.      -4150693.      -4275076.
      -4398412.      -4520600.      -4641422.      -4761029.      -4879518.
      -4996605.      -5112360.      -5226832.      -5339804.      -5451419.
      -5561605.      -5670150.      -5777105.      -5882540.      -5986457.
      -6088677.      -6189249.      -6288183.      -6385360.      -6480832.
      -6574553.      -6666452.      -6756496.      -6844743.      -6931165.
      -7015597.      -7098142.      -7178838.      -7257523.      -7334294.
      -7409115.      -7481761.      -7552294.      -7620856.      -7687348.
      -7751696.      -7813976.      -7874134.      -7932162.      -7988094.
      -8041796.      -8093289.      -8142636.      -8189730.      -8234505.
      -8276989.      -8317170.      -8354985.      -8390468.      -8423588.
      -8454242.      -8482487.      -8508305.      -8531621.      -8552458.
      -8570810.      -8586658.      -8600020.      -8610887.      -8619248.
      -8625122.      -8628477.      -8629244.      -8627427.      -8623096.
      -8616243.      -8606823.      -8594844.      -8580335.      -8563294.
      -8543720.      -8521641.      -8497033.      -8469870.      -8440171.
      -8407953.      -8373255.      -8336064.      -8296401.      -8254263.
      -8209647.      -8162609.      -8113146.      -8061310.      -8007064.
      -7950439.      -7891510.      -7830238.      -7766688.      -7700862.
      -7632765.      -7562498.      -7490069.      -7415458.      -7338743.
      -7259966.      -7179100.      -7096182.      -7011233.      -6924338.
      -6835540.      -6744806.      -6652177.      -6557709.      -6461451.
      -6363407.      -6263672.      -6162305.      -6059292.      -5954716.
      -5848638.      -5741101.      -5632135.      -5521806.      -5410165.
      -5297221.      -5183040.      -5067683.      -4951244.      -4833758.
      -4715232.      -4595745.      -4475359.      -4354112.      -4232044.
      -4109230.      -3985744.      -3861634.      -3736969.      -3611816.
      -3486200.      -3360187.      -3233832.      -3107141.      -2980159.
      -2852973.      -2725649.      -2598154.      -2470540.      -2342937.
      -2215382.      -2087895.      -1960481.      -1833227.      -1706235.
      -1579456.      -1452961.      -1326818.      -1201046.      -1075724.
      -950851.0      -826471.0      -702678.0      -579506.0      -457003.0
      -335217.0      -214163.0      -93875.00       25614.00       144272.0
       262014.0       378815.0       494650.0       609471.0       723270.0
       835999.0       947573.0       1057987.       1167221.       1275223.
       1381969.       1487419.       1591566.       1694381.       1795824.
       1895855.       1994458.       2091626.       2187302.       2281500.
       2374213.       2465449.       2555211.       2643419.       2730054.
       2815075.       2898503.       2980304.       3060415.       3138829.
       3215486.       3290456.       3363757.       3435307.       3505071.
       3573005.       3639180.       3703571.       3766108.       3826855.
       3885755.       3942829.       3998041.       4051318.       4102752.
       4152359.       4200125.       4245948.       4289833.       4331855.
       4371982.       4410207.       4446533.       4481001.       4513609.
       4544329.       4573198.       4600238.       4625468.       4648904.
       4670508.       4690297.       4708324.       4724633.       4739214.
       4752003.       4763048.       4772428.       4780135.       4786144.
       4790465.       4793174.       4794289.       4793767.       4791622.
