     0.05000000      -12345.00      -12345.00   9.193360e+08      -12345.00
   0.0003860000       3899.950      -237.0354      -12345.00      -12345.00
      -12345.00      -12345.00      -12345.00      -12345.00      -12345.00
      -12345.00      -12345.00      -12345.00      -12345.00      -12345.00
      -12345.00      -12345.00      -12345.00      -12345.00      -12345.00
      -12345.00      -12345.00      -12345.00      -12345.00      -12345.00
      -12345.00       44.61763       129.5934       240.0000       50.00000
       3.412500       95.90120      -12345.00       26.10000      -12345.00
      -12345.00      -12345.00      -12345.00      -12345.00      -12345.00
      -12345.00      -12345.00      -12345.00      -12345.00      -12345.00
       5627.669       30.83647       225.7656       50.61309      -12345.00
      -12345.00      -12345.00       0.000000       0.000000      -12345.00
      -12345.00      -12345.00      -12345.00      -12345.00      -12345.00
      -12345.00      -12345.00      -12345.00      -12345.00      -12345.00
      2004       361         1         2        49
        35         6    -12345    -12345     78000
    -12345    -12345    -12345    -12345    -12345
         1    -12345    -12345    -12345    -12345
    -12345    -12345    -12345    -12345    -12345
    -12345    -12345    -12345    -12345    -12345
    -12345    -12345    -12345    -12345    -12345
         1    -12345    -12345    -12345    -12345
MDJ     Off W Coast Of N
00      -12345  -12345  
-12345  -12345  -12345  
-12345  -12345  -12345  
-12345  -12345  -12345  
-12345  -12345  -12345  
-12345  -12345  BHZ     
IC      -12345  Streckei
[...]
       2732951.       2731422.       2729005.       2725548.       2721091.
       2715663.       2709284.       2701977.       2693679.       2684364.
       2674063.       2662777.       2650536.       2637324.       2623076.
       2607884.       2591793.       2574806.       2556874.       2537991.
       2518318.       2497739.       2476294.       2454099.       2431081.
       2407318.       2382806.       2357600.       2331630.       2304933.
       2277570.       2249388.       2220627.       2191247.       2161160.
       2130551.       2099225.       2067290.       2034831.       2001718.
       1968064.       1933759.       1898819.       1863311.       1827278.
       1790772.       1753665.       1716094.       1678010.       1639425.
       1600435.       1560987.       1521237.       1481156.       1440769.
       1400129.       1359275.       1318159.       1276792.       1235310.
       1193472.       1151415.       1109305.       1066902.       1024237.
       981440.0       938429.0       895160.0       851697.0       808034.0
       764242.0       720335.0       676302.0       632169.0       587918.0
       543635.0       499278.0       454910.0       410569.0       366083.0
       321685.0       277342.0       232957.0       188596.0       144171.0
       99819.00       55484.00       11193.00      -33076.00      -77264.00
      -121264.0      -165235.0      -208991.0      -252547.0      -296000.0
      -339191.0      -382081.0      -424686.0      -467001.0      -508979.0
      -550612.0      -591877.0      -632757.0      -673335.0      -713556.0
      -753379.0      -792931.0      -832057.0      -870812.0      -909309.0
      -947352.0      -985020.0      -1022271.      -1059058.      -1095424.
      -1131314.      -1166714.      -1201529.      -1235800.      -1269540.
      -1302659.      -1335166.      -1367020.      -1398293.      -1428903.
      -1458815.      -1488255.      -1517032.      -1545132.      -1572679.
      -1599628.      -1625936.      -1651672.      -1676826.      -1701279.
      -1725250.      -1748648.      -1771383.      -1793561.      -1815132.
      -1836111.      -1856436.      -1876102.      -1895177.      -1913564.
      -1931299.      -1948402.      -1964822.      -1980552.      -1995652.
      -2010116.      -2023819.      -2036944.      -2049403.      -2061298.
      -2072644.      -2083225.      -2093391.      -2102941.      -2111828.
      -2120228.      -2128013.      -2135217.      -2141803.      -2147916.
      -2153421.      -2158339.      -2162783.      -2166615.      -2169909.
      -2172641.      -2174819.      -2176402.      -2177490.      -2178025.
      -2177859.      -2177221.      -2175927.      -2174088.      -2171829.
      -2168855.      -2165464.      -2161550.      -2157046.      -2152139.
      -2146631.      -2140691.      -2134250.      -2127321.      -2119949.
      -2112028.      -2103680.      -2094763.      -2085433.      -2075625.
      -2065218.      -2054441.      -2043139.      -2031278.      -2018961.
      -2006135.      -1992781.      -1978942.      -1964656.      -1949897.
      -1934669.      -1919085.      -1903025.      -1886501.      -1869520.
      -1852056.      -1834223.      -1815881.      -1797153.      -1777945.
      -1758318.      -1738392.      -1718002.      -1697247.      -1676047.
      -1654522.      -1632631.      -1610354.      -1587812.      -1564865.
      -1541610.      -1518021.      -1494093.      -1469831.      -1445233.
      -1420363.      -1395105.      -1369576.      -1343778.      -1317635.
      -1291244.      -1264567.      -1237567.      -1210272.      -1182696.
      -1154905.      -1126873.      -1098565.      -1070149.      -1041523.
      -1012609.      -983564.0      -954314.0      -924839.0      -895182.0
      -865327.0      -835282.0      -805044.0      -774608.0      -744029.0
      -713305.0      -682420.0      -651308.0      -619997.0      -588567.0
      -556894.0      -525092.0      -493122.0      -460964.0      -428668.0
      -396189.0      -363646.0      -330906.0      -298021.0      -265043.0
      -231914.0      -198680.0      -165281.0      -131791.0      -98156.00
      -64387.00      -30552.00       3445.000       37494.00       71596.00
       105864.0       140121.0       174397.0       208715.0       243047.0
       277451.0       311880.0       346300.0       380640.0       415015.0
       449332.0       483570.0       517773.0       551825.0       585829.0
       619743.0       653535.0       687185.0       720734.0       754095.0
       787204.0       820221.0       853006.0       885528.0       917836.0
       949876.0       981660.0       1013161.       1044318.       1075166.
       1105726.       1135897.       1165712.       1195185.       1224252.
       1252945.       1281204.       1309037.       1336508.       1363533.
       1390066.       1416165.       1441800.       1466948.       1491589.
       1515675.       1539217.       1562243.       1584660.       1606401.
       1627617.       1648213.       1668121.       1687470.       1706247.
       1724365.       1741827.       1758724.       1774901.       1790384.
       1805246.       1819360.       1832830.       1845586.       1857668.
       1869102.       1879702.       1889664.       1898953.       1907384.
       1914990.       1921887.       1928065.       1933405.       1938025.
       1941880.       1944970.       1947359.       1948930.       1949724.
       1949747.       1948992.       1947455.       1945144.       1942097.
       1938256.       1933698.       1928378.       1922263.       1915484.
       1907937.       1899693.       1890801.       1881152.       1870914.
       1860038.       1848459.       1836256.       1823421.       1809998.
       1795895.       1781213.       1765966.       1750061.       1733695.
       1716799.       1699326.       1681348.       1662851.       1643881.
       1624414.       1604508.       1584207.       1563508.       1542414.
       1520931.       1499080.       1476917.       1454558.       1431900.
       1409001.       1385879.       1362560.       1339106.       1315416.
       1291707.       1267860.       1243844.       1219786.       1195632.
       1171389.       1147032.       1122742.       1098420.       1074064.
       1049805.       1025556.       1001401.       977352.0       953498.0
       929798.0       906206.0       882910.0       859782.0       836878.0
       814217.0       791742.0       769572.0       747581.0       725864.0
       704450.0       683291.0       662477.0       641929.0       621706.0
       601817.0       582218.0       563070.0       544264.0       525807.0
       507772.0       490068.0       472837.0       455943.0       439439.0
       423447.0       407771.0       392469.0       377536.0       363012.0
       348797.0       334975.0       321634.0       308547.0       295913.0
       283574.0       271576.0       260106.0       248958.0       238230.0
       227876.0       217920.0       208346.0       199167.0       190378.0
       181850.0       173734.0       165999.0       158555.0       151420.0
       144667.0       138170.0       131876.0       125933.0       120222.0
       114768.0       109560.0       104567.0       99761.00       95112.00
       90722.00       86466.00       82344.00       78339.00       74484.00
       70803.00       67243.00       63794.00       60332.00       57035.00
       53811.00       50574.00       47399.00       44222.00       41049.00
       37822.00       34661.00       31440.00       28087.00       24737.00
       21288.00       17742.00       14169.00       10494.00       6668.000
       2746.000      -1266.000      -5477.000      -9846.000      -14300.00
      -19009.00      -23845.00      -28782.00      -34008.00      -39342.00
      -44888.00      -50743.00      -56768.00      -63064.00      -69573.00
      -76324.00      -83349.00      -90633.00      -98204.00      -105979.0
      -114066.0      -122375.0      -130940.0      -139876.0      -148955.0
      -158302.0      -167994.0      -177940.0      -188091.0      -198408.0
      -209032.0      -219868.0      -230967.0      -242334.0      -253845.0
      -265640.0      -277621.0      -289835.0      -302318.0      -314950.0
      -327883.0      -341040.0      -354355.0      -367912.0      -381632.0
      -395595.0      -409809.0      -424193.0      -438772.0      -453485.0
      -468384.0      -483545.0      -498847.0      -514249.0      -529866.0
      -545698.0      -561626.0      -577664.0      -593805.0      -610107.0
      -626537.0      -643056.0      -659759.0      -676515.0      -693449.0
      -710523.0      -727643.0      -744917.0      -762201.0      -779608.0
      -797148.0      -814753.0      -832461.0      -850182.0      -868049.0
      -885942.0      -903813.0      -921922.0      -940040.0      -958112.0
      -976295.0      -994489.0      -1012663.      -1030846.      -1049119.
      -1067359.      -1085545.      -1103823.      -1122057.      -1140233.
      -1158479.      -1176716.      -1194909.      -1213141.      -1231295.
      -1249382.      -1267522.      -1285588.      -1303565.      -1321540.
      -1339417.      -1357159.      -1374935.      -1392606.      -1410039.
      -1427468.      -1444796.      -1461938.      -1478979.      -1495906.
      -1512701.      -1529319.      -1545799.      -1562113.      -1578277.
      -1594304.      -1610193.      -1625935.      -1641424.      -1656737.
      -1671863.      -1686722.      -1701412.      -1715905.      -1730107.
      -1744094.      -1757878.      -1771307.      -1784475.      -1797500.
      -1810166.      -1822470.      -1834530.      -1846205.      -1857527.
      -1868590.      -1879277.      -1889547.      -1899510.      -1909107.
      -1918293.      -1927109.      -1935465.      -1943455.      -1951056.
      -1958178.      -1964839.      -1971022.      -1976748.      -1981972.
      -1986728.      -1990971.      -1994742.      -1998042.      -2000796.
      -2003060.      -2004755.      -2005933.      -2006579.      -2006607.
      -2006150.      -2005047.      -2003323.      -2001109.      -1998244.
      -1994767.      -1990645.      -1985986.      -1980745.      -1974787.
      -1968305.      -1961191.      -1953425.      -1945108.      -1936202.
      -1926687.      -1916550.      -1905917.      -1894665.      -1882743.
      -1870348.      -1857348.      -1843716.      -1829559.      -1814792.
      -1799421.      -1783509.      -1766999.      -1749913.      -1732320.
      -1714123.      -1695337.      -1676064.      -1656229.      -1635819.
      -1614921.      -1593476.      -1571501.      -1549005.      -1525977.
      -1502472.      -1478377.      -1453806.      -1428721.      -1403065.
      -1377014.      -1350420.      -1323283.      -1295672.      -1267569.
      -1238978.      -1209886.      -1180324.      -1150256.      -1119684.
      -1088708.      -1057318.      -1025416.      -993073.0      -960305.0
      -927084.0      -893359.0      -859183.0      -824656.0      -789667.0
      -754271.0      -718423.0      -682091.0      -645448.0      -608365.0
      -570793.0      -532906.0      -494638.0      -455903.0      -416813.0
      -377357.0      -337435.0      -297144.0      -256568.0      -215629.0
      -174297.0      -132732.0      -90844.00      -48599.00      -6172.000
       36612.00       79666.00       122909.0       166448.0       210173.0
       254085.0       298203.0       342470.0       386860.0       431477.0
       476200.0       520928.0       565861.0       610915.0       655968.0
       701079.0       746241.0       791388.0       836538.0       881618.0
       926599.0       971610.0       1016497.       1061295.       1105996.
       1150458.       1194855.       1239057.       1282996.       1326713.
       1370159.       1413396.       1456344.       1499005.       1541390.
       1583426.       1625068.       1666320.       1707220.       1747722.
       1787809.       1827459.       1866643.       1905359.       1943549.
       1981231.       2018419.       2055057.       2091159.       2126651.
       2161518.       2195819.       2229435.       2262442.       2294823.
       2326458.       2357452.       2387794.       2417430.       2446324.
       2474542.       2501989.       2528619.       2554495.       2579546.
       2603843.       2627310.       2649910.       2671709.       2692697.
       2712796.       2732024.       2750467.       2768054.       2784737.
       2800521.       2815476.       2829531.       2842666.       2854990.
       2866381.       2876865.       2886485.       2895087.       2902774.
       2909592.       2915468.       2920429.       2924482.       2927662.
       2929869.       2931190.       2931658.       2931084.       2929688.
       2927467.       2924325.       2920345.       2915481.       2909815.
       2903324.       2896057.       2887954.       2879001.       2869368.
       2858876.       2847588.       2835527.       2822659.       2809099.
       2794730.       2779633.       2763809.       2747164.       2729832.
       2711833.       2693079.       2673630.       2653534.       2632785.
       2611379.       2589279.       2566587.       2543195.       2519208.
       2494697.       2469377.       2443542.       2417177.       2390109.
       2362573.       2334411.       2305689.       2276453.       2246574.
       2216224.       2185360.       2153991.       2122107.       2089754.
       2056952.       2023537.       1989725.       1955520.       1920832.
       1885747.       1850194.       1814220.       1777887.       1741130.
       1703978.       1666493.       1628628.       1590442.       1551986.
       1513182.       1474118.       1434787.       1395168.       1355362.
       1315294.       1274985.       1234459.       1193747.       1152792.
       1111604.       1070331.       1028864.       987221.0       945402.0
       903471.0       861441.0       819230.0       776999.0       734647.0
       692229.0       649823.0       607290.0       564792.0       522229.0
       479589.0       437076.0       394509.0       351961.0       309507.0
       267051.0       224644.0       182283.0       140062.0       97902.00
       55806.00       13883.00      -27982.00      -69644.00      -111183.0
      -152577.0      -193706.0      -234730.0      -275485.0      -316105.0
      -356507.0      -396626.0      -436608.0      -476204.0      -515664.0
      -554916.0      -593850.0      -632644.0      -671115.0      -709340.0
      -747247.0      -784868.0      -822250.0      -859275.0      -896037.0
      -932457.0      -968529.0      -1004307.      -1039729.      -1074726.
      -1109352.      -1143685.      -1177617.      -1211178.      -1244407.
      -1277231.      -1309650.      -1341729.      -1373434.      -1404708.
      -1435654.      -1466146.      -1496237.      -1525926.      -1555145.
      -1584010.      -1612417.      -1640447.      -1667979.      -1695115.
      -1721926.      -1748249.      -1774238.      -1799736.      -1824785.
      -1849449.      -1873703.      -1897495.      -1920781.      -1943718.
      -1966103.      -1988023.      -2009567.      -2030592.      -2051165.
      -2071243.      -2090867.      -2109968.      -2128644.      -2146982.
      -2164784.      -2182179.      -2199103.      -2215485.      -2231541.
      -2247088.      -2262101.      -2276728.      -2290903.      -2304652.
      -2317880.      -2330595.      -2342890.      -2354667.      -2365966.
      -2376801.      -2387138.      -2396982.      -2406312.      -2415203.
      -2423601.      -2431460.      -2438871.      -2445765.      -2452157.
      -2458118.      -2463508.      -2468363.      -2472807.      -2476636.
      -2479915.      -2482799.      -2485016.      -2486694.      -2487950.
      -2488509.      -2488614.      -2488246.      -2487182.      -2485646.
      -2483562.      -2480926.      -2477712.      -2473913.      -2469682.
      -2464778.      -2459294.      -2453325.      -2446731.      -2439618.
      -2431955.      -2423735.      -2414894.      -2405490.      -2395608.
      -2385071.      -2374012.      -2362383.      -2350147.      -2337437.
      -2324021.      -2310107.      -2295688.      -2280592.      -2264997.
      -2248652.      -2231735.      -2214344.      -2196246.      -2177628.
      -2158441.      -2138647.      -2118284.      -2097316.      -2075820.
      -2053756.      -2031099.      -2007905.      -1984141.      -1959817.
      -1934896.      -1909395.      -1883422.      -1856824.      -1829657.
      -1801921.      -1773631.      -1744858.      -1715431.      -1685517.
      -1655065.      -1624091.      -1592568.      -1560495.      -1528001.
      -1494957.      -1461491.      -1427512.      -1393132.      -1358320.
      -1323007.      -1287349.      -1251210.      -1214677.      -1177700.
      -1140340.      -1102642.      -1064509.      -1026026.      -987197.0
      -948006.0      -908475.0      -868633.0      -828479.0      -788026.0
      -747295.0      -706344.0      -665146.0      -623706.0      -582050.0
      -540129.0      -498046.0      -455864.0      -413466.0      -370853.0
      -328137.0      -285256.0      -242278.0      -199258.0      -156114.0
      -112950.0      -69737.00      -26450.00       16869.00       60227.00
       103493.0       146696.0       189911.0       233050.0       276138.0
       319138.0       361968.0       404732.0       447370.0       489787.0
       532137.0       574305.0       616277.0       658092.0       699666.0
       741088.0       782175.0       823020.0       863744.0       904100.0
       944132.0       983898.0       1023335.       1062453.       1101263.
       1139688.       1177755.       1215544.       1252896.       1289792.
       1326330.       1362417.       1398088.       1433312.       1468074.
       1502415.       1536251.       1569627.       1602475.       1634746.
       1666540.       1697786.       1728466.       1758566.       1788037.
       1816963.       1845321.       1873017.       1900056.       1926521.
       1952308.       1977386.       2001873.       2025615.       2048665.
       2071036.       2092672.       2113667.       2133853.       2153299.
