     0.02500000      -12345.00      -12345.00   8.206060e+09      -12345.00
   0.0001550000       3899.975      -123.0232      -12345.00      -12345.00
      -12345.00      -12345.00      -12345.00      -12345.00      -12345.00
      -12345.00      -12345.00      -12345.00      -12345.00      -12345.00
      -12345.00      -12345.00      -12345.00      -12345.00      -12345.00
      -12345.00      -12345.00      -12345.00      -12345.00      -12345.00
      -12345.00       31.09455       121.1886       20.00000       0.000000
       3.412500       95.90120      -12345.00       26.10000      -12345.00
      -12345.00      -12345.00      -12345.00      -12345.00      -12345.00
      -12345.00      -12345.00      -12345.00      -12345.00      -12345.00
       4049.704       38.11097       225.9064       36.42147      -12345.00
      -12345.00      -12345.00       0.000000       0.000000      -12345.00
      -12345.00      -12345.00      -12345.00      -12345.00      -12345.00
      -12345.00      -12345.00      -12345.00      -12345.00      -12345.00
      2004       361         1         0        55
        23         6    -12345    -12345    156000
    -12345    -12345    -12345    -12345    -12345
         1    -12345    -12345    -12345    -12345
    -12345    -12345    -12345    -12345    -12345
    -12345    -12345    -12345    -12345    -12345
    -12345    -12345    -12345    -12345    -12345
         1    -12345    -12345    -12345    -12345
SSE     Off W Coast Of N
10      -12345  -12345  
-12345  -12345  -12345  
-12345  -12345  -12345  
-12345  -12345  -12345  
-12345  -12345  -12345  
-12345  -12345  BHZ     
IC      -12345  Streckei
[...]
       110042.0       277458.0       444620.0       610464.0       775146.0
       939705.0       1102273.       1263567.       1423847.       1582670.
       1740691.       1897773.       2053930.       2208240.       2360609.
       2511861.       2662229.       2810681.       2957632.       3103552.
       3247363.       3389845.       3531010.       3670020.       3807426.
       3943290.       4076472.       4207333.       4336869.       4464366.
       4589583.       4712953.       4834892.       4954812.       5070856.
       5183904.       5295803.       5406169.       5514509.       5620601.
       5724041.       5824435.       5922539.       6018105.       6110688.
       6201676.       6290174.       6375775.       6459462.       6540469.
       6618773.       6694560.       6767111.       6836742.       6904171.
       6969796.       7032601.       7092029.       7149016.       7202463.
       7252503.       7300557.       7345682.       7387784.       7426839.
       7462707.       7497413.       7529595.       7558027.       7583829.
       7605772.       7624357.       7640948.       7654933.       7666136.
       7674323.       7679677.       7682909.       7682568.       7679029.
       7672892.       7663975.       7652512.       7637681.       7620804.
       7601705.       7578942.       7552472.       7522659.       7491033.
       7456885.       7419601.       7380009.       7337338.       7292629.
       7246387.       7197304.       7144738.       7089400.       7031100.
       6969911.       6907180.       6841500.       6772803.       6701803.
       6628254.       6552300.       6473716.       6391997.       6308121.
       6222034.       6131902.       6040152.       5946936.       5850452.
       5751837.       5650728.       5547306.       5440251.       5330731.
       5220997.       5108608.       4993963.       4876479.       4756467.
       4635118.       4510409.       4384177.       4255926.       4124968.
       3992456.       3857561.       3721382.       3581669.       3439192.
       3296401.       3150891.       3002147.       2850652.       2697546.
       2544038.       2389564.       2232687.       2073669.       1912233.
       1748089.       1582468.       1414682.       1245221.       1074794.
       901967.0       727310.0       551600.0       374311.0       195730.0
       15022.00      -166743.0      -349265.0      -533842.0      -719623.0
      -907519.0      -1096906.      -1286921.      -1478522.      -1671620.
      -1865630.      -2061516.      -2259001.      -2456311.      -2655247.
      -2854588.      -3052986.      -3253636.      -3456347.      -3659182.
      -3862190.      -4066307.      -4272548.      -4478693.      -4684190.
      -4891022.      -5098385.      -5306518.      -5514471.      -5722308.
      -5930979.      -6140018.      -6350990.      -6552589.      -6763569.
      -6986726.      -7114680.      -7392193.      -7607984.      -7758095.
      -8127433.      -8085593.      -8589661.      -8452844.      -8986541.
      -8978357.      -9215324.      -9903384.      -7181523.  -1.057395e+07
      -7712127.      -356161.0      -5865257.      -8580235.      -6729334.
  -1.131038e+07      -7564354.      -3492693.      -7626215.       297167.0
      -4215460.  -1.083713e+07      -9658617.      -9616640.       1095047.
      -3617073.  -1.059302e+07      -9414578.  -1.006550e+07      -9922154.
      -9583352.      -6186583.      -8930020.  -1.037607e+07      -9326797.
  -1.006874e+07      -9739787.      -9897930.  -1.007666e+07      -7819651.
       1018975.      -1309903.  -1.023155e+07      -9097136.  -1.103989e+07
      -7659094.      -6738636.  -1.049406e+07      -5590637.      -9698215.
      -9167263.      -5962107.      -9393121.      -8034486.  -1.053012e+07
      -8174409.      -3732268.      -8786575.      -8686948.      -8283466.
  -1.111528e+07      -6520333.      -7921453.      -9980283.      -9879881.
      -9946691.      -9428695.  -1.097560e+07      -150900.0      -5308452.
  -1.105650e+07      -647303.0      -5272301.      -6993122.      -8892859.
  -1.060279e+07      -5558916.      -5809719.      -9436327.      -9368404.
      -5708347.  -1.037919e+07      -9836669.      -9351511.  -1.110674e+07
      -944532.0      -5630181.      -5824369.      -1933374.  -1.128425e+07
      -9227191.  -1.037269e+07      -8170719.      -6075151.  -1.152678e+07
      -7711721.      -7144246.      -7339924.      -7348478.  -1.045959e+07
      -9813211.      -9371612.  -1.070632e+07      -7703226.      -6723809.
  -1.036406e+07      -9506646.  -1.037699e+07      -7914370.      -5168236.
      -7004872.      -6391292.      -9337408.  -1.029974e+07      -9381555.
  -1.023347e+07      -9462407.  -1.004042e+07      -9701802.      -9671603.
  -1.023019e+07      -7905655.      -9418176.      -8950910.      -5222774.
      -6566109.      -7150305.      -6103762.      -7795146.  -1.014837e+07
      -9694838.      -9951524.      -9749353.      -7525151.      -5674350.
  -1.005667e+07  -1.022934e+07      -153631.0      -5577221.  -1.136120e+07
      -8978037.      -7810003.      -5497197.      -9034816.      -1269719.
       135720.0  -1.104564e+07      -9794518.      -9257289.  -1.130560e+07
      -5395975.      -4200383.  -1.062570e+07      -9422479.      -9999063.
      -9964543.      -9311148.  -1.100768e+07      -5830454.      -9415097.
      -4991890.      -238189.0      -9800820.      -6357594.      -7429889.
  -1.170677e+07      -6546404.      -7885750.      -9339057.      -8589739.
      -7969425.      -6898439.      -9749307.  -1.058504e+07      -8779081.
  -1.148341e+07      -6673102.       499141.0      -2583821.      -5507930.
  -1.187309e+07      -6927293.      -3087452.  -1.035942e+07      -5867161.
      -9154013.  -1.055291e+07      -5460824.      -9453909.      -9985100.
      -9596450.      -9856780.      -9055243.      -9170665.      -8640485.
      -8535578.      -8182520.      -7841086.      -7657805.      -7274405.
      -7048810.      -6731919.      -6415640.      -6137969.      -5835625.
      -5531368.      -5224242.      -4913491.      -4602798.      -4290610.
      -3974681.      -3658570.      -3341139.      -3021715.      -2700774.
      -2377438.      -2052681.      -1726696.      -1397602.      -1067434.
      -736891.0      -403523.0      -68278.00       267251.0       603321.0
       942748.0       1283363.       1624202.       1967040.       2309563.
       2653981.       3000717.       3348071.       3696376.       4045577.
       4396083.       4746296.       5095707.       5446089.       5796534.
       6150043.       6503101.       6855365.       7211994.       7563393.
       7922182.       8274003.       8634433.       8993171.       9354356.
       9722213.       9868092.       9849041.       9858423.       9853966.
       9857073.       9860504.       9860394.       9864863.       9864643.
       9868247.       9869240.       9871593.       9873592.       9875359.
       9877656.       9878175.       9878211.       9878164.       9878126.
       9878146.       9878119.       9878106.       9878102.       9878100.
       9878088.       9878052.       9878042.       9878036.       9877990.
       9878012.       9877991.       9877943.       9877959.       9877948.
       9877933.       9877919.       9877941.       9877912.       9877918.
       9877908.       9877843.       9877947.       9877922.       9877874.
       9877910.       9877854.       9877873.       9877873.       9877860.
       9877868.       9877851.       9877868.       9877846.       9877889.
       9877875.       9877810.       9877875.       9877800.       9877834.
       9877839.       9877807.       9877964.       9877858.       9877797.
       9877841.       9877835.       9877836.       9877809.       9877824.
       9877850.       9877764.       9877806.       9877878.       9877782.
       9877834.       9877816.       9877818.       9877821.       9877801.
       9877844.       9877805.       9877814.       9877817.       9877789.
       9877798.       9877834.       9877785.       9877802.       9877847.
       9877792.       9877861.       9877733.       9877733.       9877943.
       9877820.       9877813.       9877819.       9877762.       9877858.
       9877698.       9877833.       9877909.       9877629.       9877905.
       9877891.       9877757.       9877873.       9877797.       9877840.
       9877857.       9877806.       9877873.       9877830.       9877799.
       9877881.       9877823.       9877847.       9877865.       9877824.
       9877849.       9877820.       9877814.       9877859.       9877791.
       9877875.       9877837.       9877747.       9877915.       9877806.
       9877813.       9877865.       9877811.       9877845.       9877815.
       9877824.       9877841.       9877824.       9877836.       9877856.
       9877820.       9877826.       9877813.       9877815.       9877787.
       9877820.       9877821.       9877795.       9877862.       9877795.
       9877896.       9877741.       9877894.       9877706.       9877385.
       9878231.       9878002.       9877715.       9877940.       9877760.
       9877878.       9877836.       9877848.       9877861.       9877835.
       9877908.       9877764.       9877856.       9877974.       9877810.
       9877858.       9877866.       9877837.       9877886.       9877852.
       9877876.       9877888.       9877892.       9877950.       9877893.
       9878003.       9878039.       9877939.       9878003.       9877956.
       9878032.       9877987.       9878090.       9878041.       9878028.
       9877295.       9874329.       9873356.       9871256.       9868738.
       9867512.       9864167.       9864119.       9859395.       9860409.
       9854948.       9854716.       9855496.       9850357.       9860367.
       9671402.       9294694.       8937761.       8571992.       8210323.
       7853244.       7490475.       7133771.       6771656.       6413389.
       6053934.       5694413.       5335188.       4976503.       4619296.
       4259422.       3898600.       3539124.       3180209.       2822174.
       2464963.       2108640.       1753072.       1397284.       1042006.
       686991.0       333089.0      -19105.00      -371011.0      -722226.0
      -1072926.      -1422932.      -1771518.      -2118844.      -2465501.
      -2811101.      -3155141.      -3498480.      -3841399.      -4183070.
      -4522809.      -4861720.      -5197350.      -5532223.      -5846262.
      -6150022.      -6564811.      -6749484.      -7146258.      -7544520.
      -7698806.      -8358516.      -8174533.      -9076642.      -8880073.
      -9494346.  -1.003166e+07      -9038816.  -1.130307e+07      -3382959.
      -6267076.  -1.011794e+07       4194991.      -2420564.      -7151358.
      -7204886.      -9522848.      -2391697.      -8880637.      -6449075.
      -4173404.  -1.297435e+07      -2394611.      -2333744.  -1.055760e+07
      -5747362.      -9360712.  -1.064650e+07      -6582741.      -7645305.
  -1.111944e+07      -8260232.      -6609244.      -9305887.      -4830083.
      -6663366.      -7226715.      -7576328.  -1.123187e+07      -7386771.
      -9451481.      -9907773.      -9549583.  -1.055860e+07      -8664510.
  -1.198851e+07      -1008439.       139798.0  -1.060029e+07      -9665516.
      -9988728.      -1068154.      -4911299.  -1.125535e+07      -6905146.
  -1.046058e+07      -9656108.      -9640806.  -1.003319e+07      -9506951.
  -1.005915e+07      -9520230.      -9938165.      -9576829.      -9969249.
      -9494245.  -1.006204e+07      -9451141.      -8037069.      -9729668.
      -7442509.      -5681565.      -3224886.      -2286178.  -1.005996e+07
      -7802469.      -6817230.  -1.125263e+07      -2141617.       606100.0
       236167.0      -7560441.  -1.122227e+07       1712388.      -5871808.
      -9208530.      -6830764.      -6376384.      -3645908.  -1.147161e+07
      -7977434.      -5151303.      -9168181.  -1.122227e+07      -4703642.
      -947739.0  -1.002063e+07  -1.030547e+07      -6019247.      -7083942.
      -9957131.      -7453017.      -7294050.      -9981198.  -1.048701e+07
      -8126438.      -6870510.      -9497208.  -1.054159e+07      -9282758.
      -1725272.      -3006194.      -912972.0       2046121.      -8836821.
      -5378379.      -4231611.  -1.167360e+07      -8875943.  -1.027069e+07
  -1.001054e+07      -5421734.      -9978619.      -7693639.      -6683240.
  -1.122735e+07      -6456337.      -8008026.      -9480807.      -6501026.
      -4202628.      -2429171.      -4086559.      -9240225.      -9907851.
      -296679.0       1496145.      -3031038.  -1.174176e+07      -7352505.
       278486.0      -8671077.       1412837.      -3096853.  -1.370706e+07
       378391.0      -4592780.      -6491517.      -7571226.  -1.042463e+07
      -2288123.      -8480032.  -1.009927e+07  -1.063491e+07      -3107490.
       173766.0  -1.178713e+07      -7551249.      -6918365.      -9871173.
  -1.095229e+07      -4564828.      -1419624.      -9752341.  -1.024038e+07
      -9395895.      -9908778.  -1.085966e+07      -5693594.      -4950667.
      -1029144.       719311.0      -5642422.      -5548537.  -1.053973e+07
      -9695742.  -1.006803e+07      -9621463.  -1.031214e+07      -8190203.
       4377950.      -3475253.      -9754670.      -8127803.  -1.071850e+07
      -9437454.      -9748862.      -9938459.      -9646805.      -9746012.
  -1.035845e+07      -8428131.      -9399336.      -6509974.      -3653604.
      -9883077.  -1.076927e+07      -6846046.      -7659719.  -1.034121e+07
      -6634214.      -7878588.  -1.114917e+07      -7463205.      -9265377.
  -1.058997e+07      -6940199.      -7775196.      -6509046.      -8772357.
  -1.013894e+07      -5695936.      -8958096.      -9460337.      -8281987.
      -8727049.      -7687377.      -7842536.      -7188447.      -6967597.
      -6630018.      -6186961.      -5937867.      -5495096.      -5219483.
      -4843294.      -4480278.      -4149151.      -3796984.      -3445579.
      -3093423.      -2741016.      -2389855.      -2039166.      -1688754.
      -1338518.      -988004.0      -637389.0      -288104.0       59514.00
       405548.0       750643.0       1094131.       1436144.       1777654.
       2117140.       2455285.       2792696.       3129189.       3464081.
       3796997.       4128356.       4458295.       4786128.       5111215.
       5434448.       5756169.       6077264.       6394512.       6710000.
       7023757.       7333984.       7643644.       7947892.       8256471.
       8556040.       8859640.       9157348.       9455715.       9754113.
       9867090.       9851486.       9860019.       9856571.       9859903.
       9862806.       9863180.       9866924.       9867002.       9870046.
       9870931.       9872950.       9874563.       9876082.       9877899.
       9878341.       9878346.       9878301.       9878301.       9878287.
       9878280.       9878276.       9878257.       9878237.       9878249.
       9878234.       9878220.       9878222.       9878209.       9878199.
       9878180.       9878204.       9878179.       9878149.       9878152.
       9878147.       9878116.       9878108.       9878143.       9878076.
       9878078.       9878096.       9878057.       9878072.       9878061.
       9878061.       9878063.       9878054.       9878052.       9878058.
       9878041.       9878030.       9878023.       9878017.       9878034.
       9878004.       9878018.       9877985.       9878008.       9877966.
       9877950.       9878006.       9877832.       9878083.       9878044.
       9877864.       9878106.       9877961.       9877939.       9877981.
       9877906.       9877958.       9877944.       9877925.       9877952.
       9877871.       9877918.       9877976.       9877895.       9877941.
       9877937.       9877931.       9877946.       9877928.       9877921.
       9877918.       9877891.       9877921.       9877880.       9877874.
       9877987.       9877881.       9877880.       9877931.       9877877.
       9877881.       9877863.       9877879.       9877877.       9877864.
       9877878.       9877862.       9877876.       9877887.       9877855.
       9877858.       9877867.       9877864.       9877872.       9877850.
       9877884.       9877859.       9877882.       9877870.       9877771.
       9877941.       9877913.       9877821.       9877903.       9877859.
       9877870.       9877875.       9877856.       9877949.       9877860.
       9877842.       9877968.       9877873.       9877883.       9877900.
       9877867.       9877903.       9877897.       9877891.       9877919.
       9877920.       9877921.       9877921.       9877929.       9877925.
       9877930.       9877936.       9877909.       9877983.       9877867.
       9877899.       9878035.       9877963.       9877902.       9877912.
       9878031.       9877968.       9877939.       9878016.       9877993.
       9877966.       9878017.       9878005.       9877995.       9878019.
       9878000.       9878010.       9878012.       9878010.       9878006.
       9878000.       9877966.       9878015.       9878050.       9878019.
       9878056.       9878058.       9878046.       9878053.       9878036.
       9878046.       9878021.       9878019.       9878018.       9877977.
       9878022.       9877956.       9877981.       9877528.       9876319.
       9875707.       9874431.       9873220.       9872514.       9870518.
       9870288.       9867585.       9867236.       9864536.       9862639.
       9863424.       9858854.       9865969.       9789041.       9610973.
       9438793.       9265498.       9090354.       8919192.       8744785.
       8573047.       8399557.       8227144.       8054274.       7881408.
       7707242.       7533532.       7360874.       7186682.       7011982.
       6837741.       6663508.       6488618.       6314685.       6140757.
       5966658.       5792929.       5618705.       5445880.       5273693.
       5101136.       4929120.       4756831.       4585169.       4413732.
       4242770.       4072185.       3900625.       3730326.       3560436.
