     0.02500000      -12345.00      -12345.00   8.206060e+09      -12345.00
   0.0005500000       3899.976      -160.0036      -12345.00      -12345.00
      -12345.00      -12345.00      -12345.00      -12345.00      -12345.00
      -12345.00      -12345.00      -12345.00      -12345.00      -12345.00
      -12345.00      -12345.00      -12345.00      -12345.00      -12345.00
      -12345.00      -12345.00      -12345.00      -12345.00      -12345.00
      -12345.00       43.81411       87.70448       844.0000       6.000000
       3.412500       95.90120      -12345.00       26.10000      -12345.00
      -12345.00      -12345.00      -12345.00      -12345.00      -12345.00
      -12345.00      -12345.00      -12345.00      -12345.00      -12345.00
       4545.746       350.9272       167.4408       40.88269      -12345.00
      -12345.00      -12345.00       0.000000       0.000000      -12345.00
      -12345.00      -12345.00      -12345.00      -12345.00      -12345.00
      -12345.00      -12345.00      -12345.00      -12345.00      -12345.00
      2004       361         1         1        32
         3         6    -12345    -12345    156000
    -12345    -12345    -12345    -12345    -12345
         1    -12345    -12345    -12345    -12345
    -12345    -12345    -12345    -12345    -12345
    -12345    -12345    -12345    -12345    -12345
    -12345    -12345    -12345    -12345    -12345
         1    -12345    -12345    -12345    -12345
WMQ     Off W Coast Of N
10      -12345  -12345  
-12345  -12345  -12345  
-12345  -12345  -12345  
-12345  -12345  -12345  
-12345  -12345  -12345  
-12345  -12345  BHZ     
IC      -12345  Streckei
[...]
   1.023963e+07   1.023961e+07   1.023960e+07   1.023959e+07   1.023957e+07
   1.023955e+07   1.023955e+07   1.023954e+07   1.023952e+07   1.023951e+07
   1.023950e+07   1.023950e+07   1.023948e+07   1.023945e+07   1.023945e+07
   1.023945e+07   1.023944e+07   1.023944e+07   1.023944e+07   1.023942e+07
   1.023940e+07   1.023938e+07   1.023938e+07   1.023936e+07   1.023935e+07
   1.023935e+07   1.023932e+07   1.023932e+07   1.023932e+07   1.023931e+07
   1.023930e+07   1.023928e+07   1.023928e+07   1.023929e+07   1.023927e+07
   1.023927e+07   1.023927e+07   1.023927e+07   1.023927e+07   1.023927e+07
   1.023927e+07   1.023926e+07   1.023925e+07   1.023925e+07   1.023924e+07
   1.023923e+07   1.023923e+07   1.023923e+07   1.023922e+07   1.023922e+07
   1.023921e+07   1.023920e+07   1.023921e+07   1.023921e+07   1.023921e+07
   1.023922e+07   1.023921e+07   1.023920e+07   1.023920e+07   1.023920e+07
   1.023919e+07   1.023918e+07   1.023917e+07   1.023918e+07   1.023918e+07
   1.023918e+07   1.023919e+07   1.023919e+07   1.023918e+07   1.023917e+07
   1.023917e+07   1.023917e+07   1.023918e+07   1.023918e+07   1.023917e+07
   1.023916e+07   1.023916e+07   1.023917e+07   1.023916e+07   1.023916e+07
   1.023916e+07   1.023914e+07   1.023914e+07   1.023915e+07   1.023915e+07
   1.023915e+07   1.023914e+07   1.023914e+07   1.023916e+07   1.023916e+07
   1.023915e+07   1.023914e+07   1.023914e+07   1.023915e+07   1.023916e+07
   1.023915e+07   1.023915e+07   1.023916e+07   1.023915e+07   1.023914e+07
   1.023913e+07   1.023912e+07   1.023913e+07   1.023913e+07   1.023915e+07
   1.023915e+07   1.023915e+07   1.023914e+07   1.023914e+07   1.023915e+07
   1.023915e+07   1.023914e+07   1.023915e+07   1.023915e+07   1.023915e+07
   1.023915e+07   1.023915e+07   1.023914e+07   1.023914e+07   1.023915e+07
   1.023914e+07   1.023913e+07   1.023914e+07   1.023914e+07   1.023914e+07
   1.023913e+07   1.023913e+07   1.023914e+07   1.023913e+07   1.023913e+07
   1.023913e+07   1.023913e+07   1.023914e+07   1.023915e+07   1.023915e+07
   1.023915e+07   1.023916e+07   1.023916e+07   1.023915e+07   1.023916e+07
   1.023916e+07   1.023916e+07   1.023916e+07   1.023916e+07   1.023917e+07
   1.023917e+07   1.023917e+07   1.023918e+07   1.023919e+07   1.023918e+07
   1.023917e+07   1.023918e+07   1.023918e+07   1.023917e+07   1.023916e+07
   1.023917e+07   1.023918e+07   1.023917e+07   1.023916e+07   1.023916e+07
   1.023917e+07   1.023917e+07   1.023916e+07   1.023918e+07   1.023919e+07
   1.023918e+07   1.023918e+07   1.023918e+07   1.023917e+07   1.023918e+07
   1.023917e+07   1.023917e+07   1.023917e+07   1.023917e+07   1.023918e+07
   1.023918e+07   1.023919e+07   1.023919e+07   1.023918e+07   1.023919e+07
   1.023919e+07   1.023919e+07   1.023919e+07   1.023919e+07   1.023918e+07
   1.023920e+07   1.023921e+07   1.023922e+07   1.023922e+07   1.023923e+07
   1.023924e+07   1.023922e+07   1.023922e+07   1.023923e+07   1.023923e+07
   1.023924e+07   1.023922e+07   1.023921e+07   1.023921e+07   1.023921e+07
   1.023923e+07   1.023922e+07   1.023922e+07   1.023922e+07   1.023921e+07
   1.023921e+07   1.023921e+07   1.023921e+07   1.023922e+07   1.023922e+07
   1.023921e+07   1.023920e+07   1.023920e+07   1.023921e+07   1.023921e+07
   1.023921e+07   1.023921e+07   1.023920e+07   1.023921e+07   1.023921e+07
   1.023920e+07   1.023920e+07   1.023921e+07   1.023920e+07   1.023920e+07
   1.023920e+07   1.023921e+07   1.023922e+07   1.023922e+07   1.023922e+07
   1.023921e+07   1.023921e+07   1.023922e+07   1.023923e+07   1.023920e+07
   1.023919e+07   1.023921e+07   1.023921e+07   1.023921e+07   1.023920e+07
   1.023920e+07   1.023920e+07   1.023918e+07   1.023918e+07   1.023920e+07
   1.023918e+07   1.023919e+07   1.023920e+07   1.023920e+07   1.023920e+07
   1.023920e+07   1.023921e+07   1.023920e+07   1.023920e+07   1.023919e+07
   1.023919e+07   1.023921e+07   1.023919e+07   1.023919e+07   1.023919e+07
   1.023918e+07   1.023918e+07   1.023919e+07   1.023919e+07   1.023919e+07
   1.023920e+07   1.023920e+07   1.023920e+07   1.023920e+07   1.023919e+07
   1.023919e+07   1.023918e+07   1.023918e+07   1.023919e+07   1.023920e+07
   1.023920e+07   1.023919e+07   1.023919e+07   1.023919e+07   1.023918e+07
   1.023918e+07   1.023918e+07   1.023919e+07   1.023918e+07   1.023919e+07
   1.023919e+07   1.023918e+07   1.023918e+07   1.023919e+07   1.023919e+07
   1.023920e+07   1.023920e+07   1.023919e+07   1.023920e+07   1.023922e+07
   1.023922e+07   1.023922e+07   1.023921e+07   1.023922e+07   1.023922e+07
   1.023922e+07   1.023924e+07   1.023925e+07   1.023927e+07   1.023928e+07
   1.023927e+07   1.023927e+07   1.023928e+07   1.023929e+07   1.023930e+07
   1.023931e+07   1.023932e+07   1.023933e+07   1.023932e+07   1.023932e+07
   1.023935e+07   1.023937e+07   1.023937e+07   1.023901e+07   1.023715e+07
   1.023535e+07   1.023376e+07   1.023137e+07   1.023058e+07   1.022738e+07
   1.022705e+07   1.022380e+07   1.022246e+07   1.022097e+07   1.021581e+07
   1.022089e+07   1.021096e+07   1.022741e+07   1.013304e+07       9820875.
       9488141.       9165400.       8834209.       8513376.       8184319.
       7860507.       7533008.       7206591.       6880134.       6552577.
       6225909.       5897929.       5570509.       5241585.       4911503.
       4580955.       4250299.       3919624.       3588987.       3258641.
       2928058.       2597629.       2267215.       1936809.       1606839.
       1276733.       946711.0       616587.0       286491.0      -43165.00
      -372798.0      -702179.0      -1031411.      -1360178.      -1688272.
      -2016113.      -2343508.      -2670780.      -2997699.      -3324079.
      -3650038.      -3975403.      -4300894.      -4626103.      -4950765.
      -5275029.      -5597405.      -5918560.      -6240998.      -6561307.
      -6882197.      -7201941.      -7520520.      -7840933.      -8155837.
      -8477100.      -8789056.      -9111374.      -9426948.      -9747660.
  -1.005514e+07  -1.010495e+07  -1.007163e+07  -1.016035e+07  -1.018227e+07
  -1.017633e+07  -1.018371e+07  -1.017969e+07  -1.018523e+07  -1.018440e+07
  -1.018744e+07  -1.018877e+07  -1.019016e+07  -1.019259e+07  -1.019356e+07
  -1.019575e+07  -1.019561e+07  -1.019552e+07  -1.019594e+07  -1.019594e+07
  -1.019590e+07  -1.019582e+07  -1.019576e+07  -1.019570e+07  -1.019566e+07
  -1.019560e+07  -1.019555e+07  -1.019551e+07  -1.019545e+07  -1.019540e+07
  -1.019534e+07  -1.019528e+07  -1.019520e+07  -1.019515e+07  -1.019510e+07
  -1.019505e+07  -1.019500e+07  -1.019494e+07  -1.019489e+07  -1.019484e+07
  -1.019479e+07  -1.019473e+07  -1.019468e+07  -1.019465e+07  -1.019464e+07
  -1.019462e+07  -1.019461e+07  -1.019458e+07  -1.019455e+07  -1.019453e+07
  -1.019451e+07  -1.019448e+07  -1.019445e+07  -1.019444e+07  -1.019443e+07
  -1.019441e+07  -1.019438e+07  -1.019436e+07  -1.019433e+07  -1.019432e+07
  -1.019430e+07  -1.019427e+07  -1.019425e+07  -1.019424e+07  -1.019423e+07
  -1.019422e+07  -1.019420e+07  -1.019417e+07  -1.019417e+07  -1.019414e+07
  -1.019412e+07  -1.019412e+07  -1.019409e+07  -1.019409e+07  -1.019407e+07
  -1.019405e+07  -1.019405e+07  -1.019403e+07  -1.019403e+07  -1.019400e+07
  -1.019399e+07  -1.019398e+07  -1.019396e+07  -1.019396e+07  -1.019395e+07
  -1.019394e+07  -1.019393e+07  -1.019392e+07  -1.019392e+07  -1.019390e+07
  -1.019390e+07  -1.019389e+07  -1.019389e+07  -1.019387e+07  -1.019385e+07
  -1.019385e+07  -1.019384e+07  -1.019384e+07  -1.019382e+07  -1.019381e+07
  -1.019381e+07  -1.019379e+07  -1.019379e+07  -1.019380e+07  -1.019378e+07
  -1.019377e+07  -1.019376e+07  -1.019374e+07  -1.019375e+07  -1.019374e+07
  -1.019371e+07  -1.019371e+07  -1.019371e+07  -1.019370e+07  -1.019368e+07
  -1.019367e+07  -1.019366e+07  -1.019365e+07  -1.019365e+07  -1.019365e+07
  -1.019364e+07  -1.019364e+07  -1.019362e+07  -1.019362e+07  -1.019365e+07
  -1.019360e+07  -1.019359e+07  -1.019359e+07  -1.019357e+07  -1.019360e+07
  -1.019359e+07  -1.019358e+07  -1.019356e+07  -1.019357e+07  -1.019357e+07
  -1.019353e+07  -1.019360e+07  -1.019350e+07  -1.019360e+07  -1.019350e+07
  -1.019337e+07  -1.019374e+07  -1.019356e+07  -1.019347e+07  -1.019354e+07
  -1.019346e+07  -1.019352e+07  -1.019350e+07  -1.019351e+07  -1.019349e+07
  -1.019351e+07  -1.019352e+07  -1.019350e+07  -1.019352e+07  -1.019349e+07
  -1.019351e+07  -1.019349e+07  -1.019346e+07  -1.019353e+07  -1.019348e+07
  -1.019346e+07  -1.019346e+07  -1.019343e+07  -1.019348e+07  -1.019345e+07
  -1.019345e+07  -1.019352e+07  -1.019345e+07  -1.019347e+07  -1.019351e+07
  -1.019334e+07  -1.019340e+07  -1.019352e+07  -1.019342e+07  -1.019356e+07
  -1.019357e+07  -1.019344e+07  -1.019350e+07  -1.019347e+07  -1.019352e+07
  -1.019348e+07  -1.019354e+07  -1.019344e+07  -1.019333e+07  -1.019367e+07
  -1.019352e+07  -1.019347e+07  -1.019354e+07  -1.019349e+07  -1.019355e+07
  -1.019351e+07  -1.019354e+07  -1.019354e+07  -1.019354e+07  -1.019354e+07
  -1.019353e+07  -1.019354e+07  -1.019356e+07  -1.019356e+07  -1.019356e+07
  -1.019359e+07  -1.019359e+07  -1.019358e+07  -1.019361e+07  -1.019361e+07
  -1.019361e+07  -1.019363e+07  -1.019364e+07  -1.019365e+07  -1.019366e+07
  -1.019364e+07  -1.019364e+07  -1.019365e+07  -1.019365e+07  -1.019366e+07
  -1.019367e+07  -1.019369e+07  -1.019370e+07  -1.019370e+07  -1.019369e+07
  -1.019369e+07  -1.019371e+07  -1.019372e+07  -1.019374e+07  -1.019376e+07
  -1.019375e+07  -1.019375e+07  -1.019376e+07  -1.019378e+07  -1.019377e+07
  -1.019378e+07  -1.019380e+07  -1.019380e+07  -1.019382e+07  -1.019384e+07
  -1.019385e+07  -1.019386e+07  -1.019387e+07  -1.019388e+07  -1.019388e+07
  -1.019389e+07  -1.019391e+07  -1.019393e+07  -1.019394e+07  -1.019393e+07
  -1.019394e+07  -1.019395e+07  -1.019397e+07  -1.019398e+07  -1.019398e+07
  -1.019400e+07  -1.019402e+07  -1.019403e+07  -1.019404e+07  -1.019406e+07
  -1.019407e+07  -1.019408e+07  -1.019409e+07  -1.019410e+07  -1.019410e+07
  -1.019412e+07  -1.019414e+07  -1.019416e+07  -1.019416e+07  -1.019416e+07
  -1.019418e+07  -1.019419e+07  -1.019421e+07  -1.019422e+07  -1.019423e+07
  -1.019423e+07  -1.019424e+07  -1.019427e+07  -1.019428e+07  -1.019429e+07
  -1.019431e+07  -1.019433e+07  -1.019434e+07  -1.019436e+07  -1.019438e+07
  -1.019440e+07  -1.019442e+07  -1.019442e+07  -1.019444e+07  -1.019444e+07
  -1.019447e+07  -1.019451e+07  -1.019452e+07  -1.019454e+07  -1.019454e+07
  -1.019456e+07  -1.019459e+07  -1.019460e+07  -1.019463e+07  -1.019463e+07
  -1.019466e+07  -1.019468e+07  -1.019469e+07  -1.019472e+07  -1.019474e+07
  -1.019478e+07  -1.019480e+07  -1.019479e+07  -1.019483e+07  -1.019485e+07
  -1.019486e+07  -1.019490e+07  -1.019492e+07  -1.019496e+07  -1.019497e+07
  -1.019499e+07  -1.019508e+07  -1.019508e+07  -1.019520e+07  -1.019520e+07
  -1.019526e+07  -1.019536e+07  -1.019521e+07  -1.019551e+07  -1.019556e+07
  -1.019553e+07  -1.019548e+07  -1.019556e+07  -1.019583e+07  -1.019568e+07
  -1.019580e+07  -1.019585e+07  -1.019587e+07  -1.019597e+07  -1.019598e+07
  -1.019607e+07  -1.019610e+07  -1.019616e+07  -1.019622e+07  -1.019628e+07
  -1.019633e+07  -1.019637e+07  -1.019644e+07  -1.019652e+07  -1.019655e+07
  -1.019593e+07  -1.019443e+07  -1.019308e+07  -1.019142e+07  -1.019002e+07
  -1.018858e+07  -1.018684e+07  -1.018587e+07  -1.018361e+07  -1.018310e+07
  -1.018047e+07  -1.018069e+07  -1.018062e+07  -1.018330e+07  -1.017851e+07
  -1.004766e+07      -9782133.      -9500310.      -9221780.      -8942786.
      -8666410.      -8388001.      -8111282.      -7833345.      -7555904.
      -7278369.      -7000789.      -6723718.      -6446428.      -6169621.
      -5892272.      -5614256.      -5336438.      -5058872.      -4781532.
      -4504529.      -4227798.      -3951241.      -3675035.      -3399311.
      -3123780.      -2848569.      -2573971.      -2299677.      -2025761.
      -1752308.      -1479312.      -1206792.      -934792.0      -663442.0
      -392401.0      -121810.0       148309.0       418006.0       687254.0
       956168.0       1224417.       1491947.       1758843.       2025195.
       2290921.       2555976.       2820357.       3083882.       3346839.
       3609022.       3870224.       4130761.       4390587.       4649733.
       4907950.       5165203.       5421576.       5676941.       5931327.
       6184679.       6437120.       6688141.       6937044.       7185464.
       7432532.       7678601.       7924304.       8167121.       8411365.
       8651386.       8893635.       9131719.       9370018.       9610837.
       9843640.   1.009259e+07   1.022446e+07   1.021890e+07   1.022207e+07
   1.022272e+07   1.022284e+07   1.022728e+07   1.022669e+07   1.023027e+07
   1.023040e+07   1.023264e+07   1.023376e+07   1.023503e+07   1.023664e+07
   1.023764e+07   1.023926e+07   1.023983e+07   1.023986e+07   1.023984e+07
   1.023981e+07   1.023981e+07   1.023980e+07   1.023979e+07   1.023979e+07
   1.023978e+07   1.023977e+07   1.023976e+07   1.023976e+07   1.023974e+07
   1.023973e+07   1.023972e+07   1.023971e+07   1.023971e+07   1.023970e+07
   1.023968e+07   1.023967e+07   1.023967e+07   1.023965e+07   1.023964e+07
   1.023964e+07   1.023963e+07   1.023964e+07   1.023961e+07   1.023961e+07
   1.023961e+07   1.023960e+07   1.023958e+07   1.023958e+07   1.023957e+07
   1.023957e+07   1.023956e+07   1.023955e+07   1.023954e+07   1.023953e+07
   1.023952e+07   1.023952e+07   1.023951e+07   1.023951e+07   1.023951e+07
   1.023949e+07   1.023948e+07   1.023949e+07   1.023948e+07   1.023948e+07
   1.023948e+07   1.023947e+07   1.023946e+07   1.023944e+07   1.023944e+07
   1.023944e+07   1.023942e+07   1.023942e+07   1.023942e+07   1.023942e+07
   1.023942e+07   1.023942e+07   1.023942e+07   1.023942e+07   1.023940e+07
   1.023938e+07   1.023938e+07   1.023940e+07   1.023939e+07   1.023937e+07
   1.023937e+07   1.023936e+07   1.023936e+07   1.023937e+07   1.023937e+07
   1.023938e+07   1.023938e+07   1.023937e+07   1.023937e+07   1.023935e+07
   1.023935e+07   1.023935e+07   1.023935e+07   1.023935e+07   1.023934e+07
   1.023936e+07   1.023936e+07   1.023936e+07   1.023935e+07   1.023934e+07
   1.023936e+07   1.023936e+07   1.023934e+07   1.023933e+07   1.023933e+07
   1.023934e+07   1.023933e+07   1.023932e+07   1.023932e+07   1.023931e+07
   1.023932e+07   1.023932e+07   1.023931e+07   1.023930e+07   1.023931e+07
   1.023931e+07   1.023930e+07   1.023930e+07   1.023930e+07   1.023930e+07
   1.023931e+07   1.023929e+07   1.023928e+07   1.023929e+07   1.023929e+07
   1.023930e+07   1.023929e+07   1.023930e+07   1.023930e+07   1.023928e+07
   1.023927e+07   1.023926e+07   1.023926e+07   1.023926e+07   1.023928e+07
   1.023927e+07   1.023925e+07   1.023926e+07   1.023927e+07   1.023928e+07
   1.023927e+07   1.023926e+07   1.023925e+07   1.023925e+07   1.023925e+07
   1.023926e+07   1.023926e+07   1.023925e+07   1.023926e+07   1.023926e+07
   1.023926e+07   1.023925e+07   1.023924e+07   1.023925e+07   1.023925e+07
   1.023926e+07   1.023927e+07   1.023926e+07   1.023927e+07   1.023927e+07
   1.023927e+07   1.023926e+07   1.023927e+07   1.023927e+07   1.023925e+07
   1.023926e+07   1.023927e+07   1.023927e+07   1.023928e+07   1.023928e+07
   1.023926e+07   1.023927e+07   1.023927e+07   1.023927e+07   1.023928e+07
   1.023928e+07   1.023928e+07   1.023929e+07   1.023928e+07   1.023927e+07
   1.023928e+07   1.023926e+07   1.023926e+07   1.023928e+07   1.023928e+07
   1.023928e+07   1.023929e+07   1.023930e+07   1.023929e+07   1.023930e+07
   1.023931e+07   1.023930e+07   1.023930e+07   1.023932e+07   1.023931e+07
   1.023929e+07   1.023930e+07   1.023929e+07   1.023929e+07   1.023930e+07
   1.023930e+07   1.023928e+07   1.023927e+07   1.023928e+07   1.023928e+07
   1.023928e+07   1.023927e+07   1.023927e+07   1.023926e+07   1.023927e+07
   1.023928e+07   1.023929e+07   1.023929e+07   1.023929e+07   1.023930e+07
   1.023931e+07   1.023929e+07   1.023929e+07   1.023929e+07   1.023929e+07
   1.023931e+07   1.023932e+07   1.023930e+07   1.023932e+07   1.023933e+07
   1.023932e+07   1.023931e+07   1.023932e+07   1.023932e+07   1.023932e+07
   1.023932e+07   1.023932e+07   1.023934e+07   1.023934e+07   1.023935e+07
   1.023935e+07   1.023933e+07   1.023932e+07   1.023932e+07   1.023934e+07
   1.023936e+07   1.023936e+07   1.023935e+07   1.023937e+07   1.023938e+07
   1.023936e+07   1.023937e+07   1.023937e+07   1.023936e+07   1.023938e+07
   1.023938e+07   1.023939e+07   1.023941e+07   1.023941e+07   1.023940e+07
   1.023941e+07   1.023943e+07   1.023942e+07   1.023942e+07   1.023943e+07
   1.023943e+07   1.023944e+07   1.023944e+07   1.023944e+07   1.023944e+07
   1.023944e+07   1.023944e+07   1.023942e+07   1.023943e+07   1.023942e+07
   1.023940e+07   1.023939e+07   1.023935e+07   1.023891e+07   1.023772e+07
   1.023692e+07   1.023570e+07   1.023465e+07   1.023374e+07   1.023198e+07
   1.023164e+07   1.022889e+07   1.022881e+07   1.022548e+07   1.022472e+07
   1.022410e+07   1.022139e+07   1.022503e+07   1.013427e+07       9957769.
       9791372.       9621086.       9452570.       9285492.       9116231.
       8949674.       8780767.       8613331.       8445183.       8277737.
       8110096.       7941866.       7773887.       7605002.       7435790.
       7266675.       7097403.       6928037.       6758857.       6589895.
       6420979.       6251979.       6083102.       5914289.       5745406.
       5576722.       5408067.       5239514.       5071122.       4902632.
       4734429.       4566419.       4398383.       4230522.       4062801.
       3895143.       3727564.       3560279.       3393224.       3226235.
       3059407.       2892698.       2725974.       2559413.       2393258.
       2227582.       2062126.       1896838.       1732097.       1567564.
       1403202.       1239228.       1075428.       911851.0       748491.0
       585424.0       422688.0       260094.0       97704.00      -64207.00
      -225674.0      -386687.0      -547132.0      -707104.0      -866654.0
      -1025992.      -1185302.      -1344153.      -1502431.      -1660473.
      -1817891.      -1974695.      -2131261.      -2287371.      -2443083.
      -2598450.      -2753177.      -2907184.      -3060707.      -3213948.
      -3366703.      -3519046.      -3670900.      -3822134.      -3972938.
