     0.05000000      -12345.00      -12345.00   2.268720e+10      -12345.00
   0.0005000000       3899.950      -457.0095      -12345.00      -12345.00
      -12345.00      -12345.00      -12345.00      -12345.00      -12345.00
      -12345.00      -12345.00      -12345.00      -12345.00      -12345.00
      -12345.00      -12345.00      -12345.00      -12345.00      -12345.00
      -12345.00      -12345.00      -12345.00      -12345.00      -12345.00
      -12345.00       48.33010       8.329600       638.0000       160.0000
       3.412500       95.90120      -12345.00       26.10000      -12345.00
      -12345.00      -12345.00      -12345.00      -12345.00      -12345.00
      -12345.00      -12345.00      -12345.00      -12345.00      -12345.00
       9546.341       318.0505       89.54296       85.85611      -12345.00
      -12345.00      -12345.00       0.000000       0.000000      -12345.00
      -12345.00      -12345.00      -12345.00      -12345.00      -12345.00
      -12345.00      -12345.00      -12345.00      -12345.00      -12345.00
      2004       361         1         6        29
         9         6    -12345    -12345     78000
    -12345    -12345    -12345    -12345    -12345
         1    -12345    -12345    -12345    -12345
    -12345    -12345    -12345    -12345    -12345
    -12345    -12345    -12345    -12345    -12345
    -12345    -12345    -12345    -12345    -12345
         1    -12345    -12345    -12345    -12345
BFO     Off W Coast Of N
00      -12345  -12345  
-12345  -12345  -12345  
-12345  -12345  -12345  
-12345  -12345  -12345  
-12345  -12345  -12345  
-12345  -12345  BHZ     
II      -12345  Streckei
[...]
      -9958155.      -9966624.      -9972264.      -9975093.      -9975125.
      -9972340.      -9966721.      -9958273.      -9947033.      -9933031.
      -9916217.      -9896546.      -9874056.      -9848797.      -9820775.
      -9790019.      -9756564.      -9720397.      -9681521.      -9639979.
      -9595808.      -9548999.      -9499548.      -9447513.      -9392961.
      -9335911.      -9276358.      -9214290.      -9149712.      -9082646.
      -9013129.      -8941205.      -8866906.      -8790248.      -8711234.
      -8629879.      -8546233.      -8460345.      -8372235.      -8281946.
      -8189530.      -8094962.      -7998220.      -7899374.      -7798450.
      -7695442.      -7590461.      -7483590.      -7374819.      -7264185.
      -7151732.      -7037469.      -6921470.      -6803806.      -6684504.
      -6563638.      -6441318.      -6317619.      -6192601.      -6066326.
      -5938841.      -5810194.      -5680468.      -5549715.      -5417985.
      -5285397.      -5152070.      -5018085.      -4883516.      -4748406.
      -4612811.      -4476819.      -4340479.      -4203806.      -4066815.
      -3929532.      -3791991.      -3654269.      -3516426.      -3378420.
      -3240224.      -3101920.      -2963579.      -2825249.      -2687009.
      -2548880.      -2410876.      -2273126.      -2135765.      -1998788.
      -1862147.      -1725862.      -1589963.      -1454484.      -1319480.
      -1184944.      -1050806.      -917076.0      -783825.0      -651101.0
      -518937.0      -387346.0      -256354.0      -126062.0       3447.000
       132190.0       260157.0       387281.0       513522.0       638827.0
       763153.0       886500.0       1008836.       1130093.       1250244.
       1369257.       1487071.       1603670.       1719058.       1833202.
       1946088.       2057755.       2168212.       2277415.       2385334.
       2491961.       2597301.       2701361.       2804115.       2905510.
       3005569.       3104388.       3202014.       3298432.       3393619.
       3487547.       3580221.       3671689.       3761918.       3850856.
       3938553.       4025047.       4110265.       4194152.       4276666.
       4357697.       4437211.       4515281.       4591865.       4666887.
       4740424.       4812515.       4883089.       4952141.       5019702.
       5085771.       5150364.       5213495.       5275158.       5335359.
       5394103.       5451401.       5507311.       5561914.       5615244.
       5667258.       5717915.       5767205.       5815164.       5861868.
       5907307.       5951416.       5994249.       6035885.       6076298.
       6115480.       6153439.       6190155.       6225669.       6260037.
       6293264.       6325384.       6356422.       6386336.       6415096.
       6442734.       6469320.       6494949.       6519696.       6543590.
       6566582.       6588598.       6609623.       6629666.       6648716.
       6666794.       6683935.       6700150.       6715466.       6729894.
       6743415.       6756032.       6767740.       6778507.       6788333.
       6797230.       6805167.       6812112.       6818099.       6823154.
       6827249.       6830372.       6832559.       6833878.       6834364.
       6833983.       6832739.       6830711.       6827955.       6824503.
       6820448.       6815868.       6810786.       6805224.       6799164.
       6792567.       6785508.       6778102.       6770330.       6762162.
       6753692.       6745028.       6736180.       6727117.       6717872.
       6708495.       6698992.       6689351.       6679586.       6669728.
       6659752.       6649588.       6639268.       6628876.       6618377.
       6607760.       6597081.       6586304.       6575364.       6564247.
       6552930.       6541417.       6529753.       6517931.       6505901.
       6493654.       6481189.       6468472.       6455502.       6442311.
       6428907.       6415305.       6401508.       6387501.       6373309.
       6358984.       6344528.       6329921.       6315158.       6300181.
       6284910.       6269339.       6253457.       6237172.       6220450.
       6203321.       6185751.       6167706.       6149187.       6130122.
       6110409.       6090037.       6069021.       6047324.       6024909.
       6001778.       5977928.       5953338.       5927972.       5901812.
       5874878.       5847198.       5818753.       5789549.       5759630.
       5728954.       5697440.       5665093.       5631919.       5597882.
       5562957.       5527117.       5490337.       5452606.       5413890.
       5374126.       5333312.       5291491.       5248660.       5204779.
       5159859.       5113872.       5066721.       5018386.       4968909.
       4918278.       4866481.       4813585.       4759638.       4704605.
       4648479.       4591318.       4533162.       4474002.       4413797.
       4352558.       4290360.       4227220.       4163103.       4098017.
       4031939.       3964810.       3896633.       3827473.       3757374.
       3686284.       3614099.       3540814.       3466507.       3391213.
       3314903.       3237558.       3159211.       3079909.       2999617.
       2918291.       2835956.       2752605.       2668171.       2582611.
       2495899.       2408016.       2318930.       2228588.       2137008.
       2044237.       1950246.       1855011.       1758555.       1660880.
       1561957.       1461766.       1360302.       1257557.       1153518.
       1048166.       941449.0       833332.0       723803.0       612824.0
       500400.0       386599.0       271404.0       154759.0       36690.00
      -82819.00      -203847.0      -326403.0      -450452.0      -575971.0
      -702900.0      -831191.0      -960848.0      -1091859.      -1224213.
      -1357902.      -1492889.      -1629138.      -1766629.      -1905343.
      -2045233.      -2186237.      -2328362.      -2471675.      -2616178.
      -2761801.      -2908495.      -3056282.      -3205182.      -3355168.
      -3506200.      -3658247.      -3811293.      -3965303.      -4120225.
      -4276026.      -4432667.      -4590119.      -4748396.      -4907497.
      -5067361.      -5227912.      -5389128.      -5551053.      -5713679.
      -5876910.      -6040674.      -6204940.      -6369654.      -6534763.
      -6700238.      -6866020.      -7032038.      -7198243.      -7364576.
      -7530959.      -7697350.      -7863687.      -8029886.      -8195932.
      -8361831.      -8527540.      -8693002.      -8858147.      -9022905.
      -9187250.      -9351167.      -9514600.      -9677475.      -9839757.
  -1.000143e+07  -1.016244e+07  -1.032264e+07  -1.048194e+07  -1.064026e+07
  -1.079747e+07  -1.095350e+07  -1.110829e+07  -1.126180e+07  -1.141395e+07
  -1.156459e+07  -1.171358e+07  -1.186086e+07  -1.200636e+07  -1.215001e+07
  -1.229177e+07  -1.243164e+07  -1.256956e+07  -1.270544e+07  -1.283919e+07
  -1.297072e+07  -1.309997e+07  -1.322681e+07  -1.335123e+07  -1.347321e+07
  -1.359268e+07  -1.370958e+07  -1.382386e+07  -1.393540e+07  -1.404411e+07
  -1.414997e+07  -1.425296e+07  -1.435307e+07  -1.445025e+07  -1.454442e+07
  -1.463552e+07  -1.472344e+07  -1.480812e+07  -1.488949e+07  -1.496753e+07
  -1.504221e+07  -1.511348e+07  -1.518126e+07  -1.524550e+07  -1.530616e+07
  -1.536314e+07  -1.541639e+07  -1.546589e+07  -1.551165e+07  -1.555360e+07
  -1.559172e+07  -1.562597e+07  -1.565630e+07  -1.568268e+07  -1.570511e+07
  -1.572354e+07  -1.573794e+07  -1.574832e+07  -1.575474e+07  -1.575721e+07
  -1.575572e+07  -1.575025e+07  -1.574080e+07  -1.572741e+07  -1.571003e+07
  -1.568861e+07  -1.566309e+07  -1.563346e+07  -1.559969e+07  -1.556177e+07
  -1.551969e+07  -1.547341e+07  -1.542291e+07  -1.536818e+07  -1.530919e+07
  -1.524586e+07  -1.517813e+07  -1.510599e+07  -1.502941e+07  -1.494841e+07
  -1.486301e+07  -1.477320e+07  -1.467888e+07  -1.458005e+07  -1.447670e+07
  -1.436883e+07  -1.425641e+07  -1.413947e+07  -1.401804e+07  -1.389214e+07
  -1.376177e+07  -1.362700e+07  -1.348786e+07  -1.334427e+07  -1.319619e+07
  -1.304369e+07  -1.288682e+07  -1.272558e+07  -1.255996e+07  -1.239003e+07
  -1.221578e+07  -1.203714e+07  -1.185418e+07  -1.166696e+07  -1.147552e+07
  -1.127991e+07  -1.108020e+07  -1.087643e+07  -1.066864e+07  -1.045692e+07
  -1.024132e+07  -1.002186e+07      -9798603.      -9571603.      -9340884.
      -9106547.      -8868724.      -8627467.      -8382803.      -8134813.
      -7883558.      -7629066.      -7371394.      -7110614.      -6846791.
      -6580003.      -6310307.      -6037748.      -5762448.      -5484509.
      -5203933.      -4920754.      -4635063.      -4346915.      -4056361.
      -3763445.      -3468204.      -3170735.      -2871155.      -2569521.
      -2265899.      -1960403.      -1653105.      -1344074.      -1033458.
      -721387.0      -407935.0      -93228.00       222606.0       539471.0
       857236.0       1175775.       1495047.       1815017.       2135562.
       2456516.       2777752.       3099177.       3420725.       3742338.
       4063892.       4385269.       4706409.       5027229.       5347615.
       5667495.       5986773.       6305293.       6622930.       6939583.
       7255175.       7569648.       7882866.       8194623.       8504796.
       8813280.       9119929.       9424642.       9727325.   1.002786e+07
   1.032622e+07   1.062234e+07   1.091611e+07   1.120745e+07   1.149628e+07
   1.178244e+07   1.206584e+07   1.234639e+07   1.262398e+07   1.289861e+07
   1.317019e+07   1.343860e+07   1.370371e+07   1.396549e+07   1.422386e+07
   1.447865e+07   1.472972e+07   1.497704e+07   1.522058e+07   1.546030e+07
   1.569614e+07   1.592799e+07   1.615570e+07   1.637918e+07   1.659847e+07
   1.677722e+07   1.677722e+07   1.677722e+07   1.677722e+07   1.677722e+07
   1.677722e+07   1.677722e+07   1.677722e+07   1.677722e+07   1.677722e+07
   1.677722e+07   1.677722e+07   1.677722e+07   1.677722e+07   1.677722e+07
   1.677722e+07   1.677722e+07   1.677722e+07   1.677722e+07   1.677722e+07
   1.677722e+07   1.677722e+07   1.677722e+07   1.677722e+07   1.677722e+07
   1.677722e+07   1.677722e+07   1.677722e+07   1.677722e+07   1.677722e+07
   1.677722e+07   1.677722e+07   1.677722e+07   1.677722e+07   1.677722e+07
   1.677722e+07   1.677722e+07   1.677722e+07   1.677722e+07   1.677722e+07
   1.677722e+07   1.677722e+07   1.677722e+07   1.677722e+07   1.677722e+07
   1.677722e+07   1.677722e+07   1.677722e+07   1.677722e+07   1.677722e+07
   1.677722e+07   1.677722e+07   1.677722e+07   1.677722e+07   1.677722e+07
   1.677722e+07   1.677722e+07   1.677722e+07   1.677722e+07   1.677722e+07
   1.677722e+07   1.677722e+07   1.677722e+07   1.677722e+07   1.677722e+07
   1.677722e+07   1.677722e+07   1.677722e+07   1.677722e+07   1.677722e+07
   1.677722e+07   1.677722e+07   1.677722e+07   1.677722e+07   1.677722e+07
   1.677722e+07   1.677722e+07   1.677722e+07   1.670525e+07   1.647590e+07
   1.624191e+07   1.600310e+07   1.575956e+07   1.551136e+07   1.525858e+07
   1.500131e+07   1.473964e+07   1.447368e+07   1.420350e+07   1.392916e+07
   1.365075e+07   1.336835e+07   1.308198e+07   1.279175e+07   1.249780e+07
   1.220017e+07   1.189892e+07   1.159416e+07   1.128604e+07   1.097472e+07
   1.066033e+07   1.034293e+07   1.002262e+07       9699513.       9373772.
       9045528.       8714867.       8381852.       8046614.       7709325.
       7370093.       7029017.       6686261.       6341979.       5996250.
       5649193.       5300999.       4951803.       4601646.       4250628.
       3898932.       3546695.       3194002.       2840941.       2487634.
       2134234.       1780829.       1427458.       1074273.       721456.0
       369056.0       17111.00      -334244.0      -684920.0      -1034900.
      -1384091.      -1732338.      -2079541.      -2425605.      -2770444.
      -3114039.      -3456301.      -3797083.      -4136354.      -4474063.
      -4810032.      -5144171.      -5476475.      -5806863.      -6135192.
      -6461329.      -6785145.      -7106519.      -7425357.      -7741582.
      -8055104.      -8365835.      -8673678.      -8978491.      -9280117.
      -9578449.      -9873407.  -1.016487e+07  -1.045269e+07  -1.073676e+07
  -1.101704e+07  -1.129344e+07  -1.156576e+07  -1.183393e+07  -1.209797e+07
  -1.235777e+07  -1.261319e+07  -1.286418e+07  -1.311068e+07  -1.335266e+07
  -1.359007e+07  -1.382278e+07  -1.405062e+07  -1.427355e+07  -1.449156e+07
  -1.470457e+07  -1.491258e+07  -1.511556e+07  -1.531339e+07  -1.550597e+07
  -1.569336e+07  -1.587549e+07  -1.605227e+07  -1.622368e+07  -1.638966e+07
  -1.655018e+07  -1.670519e+07  -1.677722e+07  -1.677722e+07  -1.677722e+07
  -1.677722e+07  -1.677722e+07  -1.677722e+07  -1.677722e+07  -1.677722e+07
  -1.677722e+07  -1.677722e+07  -1.677722e+07  -1.677722e+07  -1.677722e+07
  -1.677722e+07  -1.677722e+07  -1.677722e+07  -1.677722e+07  -1.677722e+07
  -1.677722e+07  -1.677722e+07  -1.677722e+07  -1.677722e+07  -1.677722e+07
  -1.677722e+07  -1.677722e+07  -1.677722e+07  -1.677722e+07  -1.677722e+07
  -1.677722e+07  -1.677722e+07  -1.677722e+07  -1.677722e+07  -1.677722e+07
  -1.677722e+07  -1.677722e+07  -1.677722e+07  -1.677722e+07  -1.677722e+07
  -1.677722e+07  -1.677722e+07  -1.677722e+07  -1.677722e+07  -1.677722e+07
  -1.677722e+07  -1.677722e+07  -1.677722e+07  -1.677722e+07  -1.677722e+07
  -1.677722e+07  -1.677722e+07  -1.677722e+07  -1.677722e+07  -1.677722e+07
  -1.677722e+07  -1.677722e+07  -1.672833e+07  -1.658960e+07  -1.644688e+07
  -1.630027e+07  -1.614985e+07  -1.599575e+07  -1.583794e+07  -1.567638e+07
  -1.551116e+07  -1.534238e+07  -1.517015e+07  -1.499453e+07  -1.481560e+07
  -1.463348e+07  -1.444829e+07  -1.426012e+07  -1.406902e+07  -1.387512e+07
  -1.367851e+07  -1.347924e+07  -1.327738e+07  -1.307308e+07  -1.286644e+07
  -1.265753e+07  -1.244637e+07  -1.223297e+07  -1.201740e+07  -1.179977e+07
  -1.158016e+07  -1.135862e+07  -1.113528e+07  -1.091020e+07  -1.068342e+07
  -1.045497e+07  -1.022503e+07      -9993675.      -9760959.      -9526960.
      -9291718.      -9055244.      -8817662.      -8579087.      -8339510.
      -8098960.      -7857542.      -7615337.      -7372425.      -7128903.
      -6884859.      -6640400.      -6395658.      -6150726.      -5905654.
      -5660511.      -5415423.      -5170516.      -4925890.      -4681646.
      -4437857.      -4194608.      -3952061.      -3710351.      -3469566.
      -3229806.      -2991134.      -2753613.      -2517383.      -2282571.
      -2049202.      -1817269.      -1586809.      -1357886.      -1130565.
      -904894.0      -680913.0      -458691.0      -238349.0      -19963.00
       196465.0       410882.0       623180.0       833294.0       1041216.
       1246922.       1450353.       1651417.       1850028.       2046156.
       2239768.       2430813.       2619261.       2805004.       2987867.
       3167809.       3344872.       3519004.       3690119.       3858191.
       4023230.       4185231.       4344154.       4499939.       4652528.
       4801905.       4948070.       5090999.       5230664.       5367043.
       5500085.       5629707.       5755887.       5878662.       5997999.
       6113805.       6226056.       6334792.       6440016.       6541664.
       6639663.       6733983.       6824626.       6911644.       6995087.
       7074891.       7150989.       7223439.       7292307.       7357590.
       7419309.       7477508.       7532223.       7583526.       7631482.
       7676105.       7717462.       7755664.       7790748.       7822713.
       7851575.       7877320.       7899927.       7919424.       7935857.
       7949273.       7959701.       7967123.       7971514.       7972940.
       7971496.       7967185.       7960023.       7950142.       7937653.
       7922579.       7904918.       7884674.       7861880.       7836632.
       7809028.       7779143.       7747065.       7712898.       7676739.
       7638643.       7598612.       7556670.       7512908.       7467412.
       7420223.       7371365.       7320914.       7268963.       7215571.
       7160800.       7104714.       7047356.       6988779.       6929081.
       6868359.       6806693.       6744169.       6680878.       6616881.
       6552222.       6486984.       6421274.       6355170.       6288727.
       6222013.       6155106.       6088070.       6020968.       5953900.
       5886973.       5820275.       5753863.       5687766.       5622041.
       5556805.       5492153.       5428123.       5364740.       5302044.
       5240089.       5178907.       5118506.       5058923.       5000270.
       4942658.       4886136.       4830747.       4776547.       4723566.
       4671835.       4621413.       4572362.       4524736.       4478570.
       4433889.       4390710.       4349024.       4308839.       4270181.
       4233046.       4197434.       4163388.       4130956.       4100137.
       4070899.       4043277.       4017361.       3993182.       3970731.
       3950019.       3931055.       3913877.       3898531.       3885024.
       3873388.       3863684.       3855939.       3850137.       3846252.
       3844302.       3844335.       3846321.       3850200.       3856019.
       3863841.       3873620.       3885290.       3898825.       3914183.
       3931314.       3950210.       3970887.       3993338.       4017507.
       4043354.       4070870.       4100020.       4130767.       4163113.
       4197016.       4232394.       4269238.       4307586.       4347365.
       4388447.       4430777.       4474294.       4518892.       4564530.
       4611207.       4658882.       4707506.       4757023.       4807341.
       4858372.       4910103.       4962510.       5015490.       5068975.
       5122951.       5177357.       5232127.       5287240.       5342681.
       5398409.       5454336.       5510341.       5566346.       5622283.
       5678080.       5733698.       5789078.       5844142.       5898857.
       5953203.       6007084.       6060377.       6113020.       6164990.
       6216276.       6266879.       6316753.       6365814.       6414022.
       6461326.       6507605.       6552773.       6596831.       6639727.
