     0.05000000      -12345.00      -12345.00   1.307340e+09      -12345.00
   0.0001170000       3899.950      -316.0211      -12345.00      -12345.00
      -12345.00      -12345.00      -12345.00      -12345.00      -12345.00
      -12345.00      -12345.00      -12345.00      -12345.00      -12345.00
      -12345.00      -12345.00      -12345.00      -12345.00      -12345.00
      -12345.00      -12345.00      -12345.00      -12345.00      -12345.00
      -12345.00       43.95530       42.68630       1054.000       20.00000
       3.412500       95.90120      -12345.00       26.10000      -12345.00
      -12345.00      -12345.00      -12345.00      -12345.00      -12345.00
      -12345.00      -12345.00      -12345.00      -12345.00      -12345.00
       6871.124       318.9794       114.8794       61.79623      -12345.00
      -12345.00      -12345.00       0.000000       0.000000      -12345.00
      -12345.00      -12345.00      -12345.00      -12345.00      -12345.00
      -12345.00      -12345.00      -12345.00      -12345.00      -12345.00
      2004       361         1         4         8
        21         6    -12345    -12345     78000
    -12345    -12345    -12345    -12345    -12345
         1    -12345    -12345    -12345    -12345
    -12345    -12345    -12345    -12345    -12345
    -12345    -12345    -12345    -12345    -12345
    -12345    -12345    -12345    -12345    -12345
         1    -12345    -12345    -12345    -12345
KIV     Off W Coast Of N
00      -12345  -12345  
-12345  -12345  -12345  
-12345  -12345  -12345  
-12345  -12345  -12345  
-12345  -12345  -12345  
-12345  -12345  BHZ     
II      -12345  Streckei
[...]
      -692749.0      -686058.0      -679204.0      -672215.0      -665116.0
      -657933.0      -650678.0      -643355.0      -635969.0      -628518.0
      -620996.0      -613399.0      -605732.0      -597994.0      -590164.0
      -582221.0      -574185.0      -566093.0      -557955.0      -549774.0
      -541561.0      -533316.0      -525012.0      -516635.0      -508194.0
      -499687.0      -491096.0      -482420.0      -473678.0      -464885.0
      -456028.0      -447088.0      -438052.0      -428934.0      -419764.0
      -410541.0      -401230.0      -391811.0      -382304.0      -372735.0
      -363097.0      -353376.0      -343585.0      -333742.0      -323849.0
      -313902.0      -303901.0      -293841.0      -283727.0      -273576.0
      -263393.0      -253161.0      -242873.0      -232536.0      -222147.0
      -211697.0      -201190.0      -190635.0      -180054.0      -169463.0
      -158870.0      -148288.0      -137749.0      -127278.0      -116895.0
      -106630.0      -96492.00      -86451.00      -76475.00      -66559.00
      -56701.00      -46868.00      -37030.00      -27195.00      -17382.00
      -7606.000       2117.000       11769.00       21356.00       30905.00
       40407.00       49827.00       59158.00       68423.00       77645.00
       86839.00       95993.00       105084.0       114113.0       123108.0
       132073.0       140987.0       149840.0       158630.0       167338.0
       175925.0       184351.0       192592.0       200650.0       208536.0
       216248.0       223775.0       231117.0       238292.0       245304.0
       252126.0       258740.0       265156.0       271382.0       277402.0
       283215.0       288858.0       294365.0       299742.0       304982.0
       310066.0       314984.0       319759.0       324422.0       328971.0
       333373.0       337599.0       341628.0       345451.0       349074.0
       352512.0       355771.0       358853.0       361748.0       364436.0
       366896.0       369139.0       371231.0       373210.0       375034.0
       376627.0       377949.0       378996.0       379779.0       380320.0
       380649.0       380795.0       380763.0       380539.0       380115.0
       379500.0       378709.0       377750.0       376620.0       375303.0
       373768.0       371994.0       370000.0       367828.0       365500.0
       363014.0       360369.0       357558.0       354558.0       351350.0
       347940.0       344345.0       340564.0       336569.0       332330.0
       327847.0       323142.0       318224.0       313103.0       307816.0
       302414.0       296922.0       291342.0       285673.0       279917.0
       274070.0       268109.0       261997.0       255714.0       249268.0
       242661.0       235891.0       228979.0       221947.0       214810.0
       207583.0       200280.0       192910.0       185476.0       177972.0
       170391.0       162742.0       155034.0       147261.0       139425.0
       131535.0       123604.0       115637.0       107639.0       99621.00
       91578.00       83480.00       75299.00       67049.00       58747.00
       50403.00       42026.00       33615.00       25152.00       16636.00
       8093.000      -458.0000      -9024.000      -17613.00      -26217.00
      -34822.00      -43411.00      -51990.00      -60586.00      -69202.00
      -77816.00      -86407.00      -94969.00      -103483.0      -111919.0
      -120280.0      -128593.0      -136878.0      -145127.0      -153320.0
      -161450.0      -169534.0      -177583.0      -185596.0      -193561.0
      -201474.0      -209332.0      -217124.0      -224833.0      -232450.0
      -239979.0      -247432.0      -254810.0      -262104.0      -269309.0
      -276439.0      -283513.0      -290534.0      -297487.0      -304349.0
      -311100.0      -317730.0      -324229.0      -330580.0      -336768.0
      -342784.0      -348628.0      -354302.0      -359800.0      -365126.0
      -370305.0      -375371.0      -380335.0      -385174.0      -389866.0
      -394417.0      -398833.0      -403082.0      -407119.0      -410929.0
      -414532.0      -417944.0      -421165.0      -424177.0      -426967.0
      -429538.0      -431914.0      -434105.0      -436089.0      -437846.0
      -439394.0      -440759.0      -441943.0      -442923.0      -443671.0
      -444180.0      -444456.0      -444492.0      -444277.0      -443816.0
      -443125.0      -442227.0      -441130.0      -439813.0      -438253.0
      -436458.0      -434465.0      -432287.0      -429894.0      -427262.0
      -424417.0      -421390.0      -418172.0      -414712.0      -410968.0
      -406939.0      -402649.0      -398099.0      -393262.0      -388128.0
      -382716.0      -377033.0      -371067.0      -364808.0      -358250.0
      -351386.0      -344218.0      -336746.0      -328947.0      -320806.0
      -312347.0      -303592.0      -294536.0      -285174.0      -275500.0
      -265510.0      -255205.0      -244576.0      -233614.0      -222322.0
      -210727.0      -198873.0      -186793.0      -174511.0      -162048.0
      -149407.0      -136555.0      -123468.0      -110163.0      -96670.00
      -83003.00      -69160.00      -55133.00      -40910.00      -26494.00
      -11898.00       2874.000       17813.00       32899.00       48119.00
       63493.00       79055.00       94820.00       110768.0       126853.0
       143042.0       159339.0       175768.0       192318.0       208951.0
       225645.0       242387.0       259164.0       275977.0       292833.0
       309726.0       326648.0       343602.0       360583.0       377572.0
       394541.0       411465.0       428326.0       445118.0       461829.0
       478458.0       495017.0       511508.0       527903.0       544174.0
       560312.0       576336.0       592278.0       608139.0       623900.0
       639532.0       655000.0       670289.0       685407.0       700363.0
       715170.0       729850.0       744405.0       758807.0       773040.0
       787129.0       801113.0       815010.0       828796.0       842435.0
       855916.0       869254.0       882459.0       895543.0       908518.0
       921386.0       934121.0       946689.0       959065.0       971264.0
       983311.0       995195.0       1006871.       1018295.       1029460.
       1040407.       1051186.       1061808.       1072250.       1082483.
       1092495.       1102293.       1111881.       1121258.       1130435.
       1139448.       1148302.       1156950.       1165333.       1173444.
       1181306.       1188915.       1196226.       1203196.       1209811.
       1216062.       1221934.       1227429.       1232572.       1237387.
       1241875.       1246024.       1249832.       1253302.       1256436.
       1259245.       1261746.       1263932.       1265770.       1267241.
       1268351.       1269111.       1269518.       1269562.       1269256.
       1268622.       1267647.       1266302.       1264582.       1262504.
       1260069.       1257276.       1254136.       1250664.       1246858.
       1242723.       1238272.       1233513.       1228431.       1223027.
       1217320.       1211312.       1204986.       1198332.       1191329.
       1183947.       1176168.       1167994.       1159432.       1150483.
       1141156.       1131456.       1121361.       1110847.       1099933.
       1088673.       1077105.       1065229.       1053016.       1040437.
       1027503.       1014241.       1000669.       986791.0       972593.0
       958030.0       943050.0       927646.0       911864.0       895762.0
       879377.0       862729.0       845802.0       828548.0       810928.0
       792952.0       774652.0       756049.0       737150.0       717964.0
       698480.0       678660.0       658490.0       637999.0       617226.0
       596201.0       574950.0       553470.0       531728.0       509704.0
       487398.0       464818.0       441983.0       418924.0       395651.0
       372147.0       348385.0       324334.0       299977.0       275336.0
       250450.0       225326.0       199922.0       174199.0       148159.0
       121841.0       95302.00       68588.00       41719.00       14694.00
      -12488.00      -39805.00      -67249.00      -94821.00      -122521.0
      -150333.0      -178246.0      -206249.0      -234321.0      -262438.0
      -290588.0      -318750.0      -346902.0      -375045.0      -403186.0
      -431322.0      -459460.0      -487619.0      -515794.0      -543966.0
      -572133.0      -600302.0      -628442.0      -656518.0      -684534.0
      -712505.0      -740412.0      -768233.0      -795957.0      -823580.0
      -851097.0      -878521.0      -905874.0      -933153.0      -960328.0
      -987378.0      -1014306.      -1041107.      -1067768.      -1094280.
      -1120623.      -1146777.      -1172749.      -1198561.      -1224219.
      -1249727.      -1275076.      -1300226.      -1325128.      -1349758.
      -1374092.      -1398097.      -1421750.      -1445050.      -1468008.
      -1490638.      -1512953.      -1534955.      -1556645.      -1578021.
      -1599073.      -1619778.      -1640115.      -1660070.      -1679614.
      -1698726.      -1717415.      -1735691.      -1753550.      -1770996.
      -1788069.      -1804811.      -1821226.      -1837297.      -1853014.
      -1868366.      -1883344.      -1897942.      -1912154.      -1925984.
      -1939443.      -1952537.      -1965267.      -1977627.      -1989600.
      -2001159.      -2012285.      -2022985.      -2033256.      -2043066.
      -2052395.      -2061252.      -2069631.      -2077480.      -2084751.
      -2091441.      -2097562.      -2103118.      -2108104.      -2112506.
      -2116315.      -2119556.      -2122250.      -2124400.      -2126001.
      -2127050.      -2127536.      -2127447.      -2126773.      -2125518.
      -2123711.      -2121387.      -2118556.      -2115227.      -2111422.
      -2107150.      -2102395.      -2097157.      -2091449.      -2085266.
      -2078590.      -2071415.      -2063745.      -2055568.      -2046887.
      -2037723.      -2028075.      -2017924.      -2007270.      -1996121.
      -1984467.      -1972285.      -1959545.      -1946226.      -1932327.
      -1917868.      -1902876.      -1887375.      -1871385.      -1854910.
      -1837950.      -1820503.      -1802561.      -1784113.      -1765150.
      -1745669.      -1725677.      -1705187.      -1684203.      -1662728.
      -1640754.      -1618265.      -1595262.      -1571753.      -1547740.
      -1523224.      -1498216.      -1472754.      -1446883.      -1420620.
      -1393942.      -1366833.      -1339311.      -1311404.      -1283108.
      -1254399.      -1225269.      -1195722.      -1165762.      -1135405.
      -1104683.      -1073615.      -1042204.      -1010456.      -978396.0
      -946042.0      -913401.0      -880474.0      -847261.0      -813760.0
      -779983.0      -745968.0      -711761.0      -677379.0      -642843.0
      -608194.0      -573445.0      -538561.0      -503522.0      -468342.0
      -433042.0      -397618.0      -362059.0      -326364.0      -290531.0
      -254559.0      -218469.0      -182282.0      -145995.0      -109617.0
      -73174.00      -36667.00      -79.00000       36587.00       73297.00
       110029.0       146772.0       183505.0       220196.0       256818.0
       293366.0       329833.0       366191.0       402397.0       438427.0
       474294.0       510038.0       545658.0       581094.0       616292.0
       651242.0       685962.0       720476.0       754785.0       788865.0
       822713.0       856343.0       889738.0       922884.0       955793.0
       988487.0       1020981.       1053281.       1085376.       1117236.
       1148842.       1180211.       1211373.       1242335.       1273062.
       1303511.       1333677.       1363564.       1393154.       1422426.
       1451366.       1479961.       1508197.       1536058.       1563550.
       1590705.       1617523.       1643957.       1669999.       1695675.
       1720953.       1745782.       1770181.       1794204.       1817851.
       1841077.       1863861.       1886215.       1908146.       1929645.
       1950707.       1971337.       1991531.       2011272.       2030548.
       2049353.       2067678.       2085522.       2102883.       2119750.
       2136100.       2151904.       2167133.       2181795.       2195925.
       2209537.       2222632.       2235201.       2247201.       2258598.
       2269402.       2279632.       2289271.       2298299.       2306717.
       2314547.       2321792.       2328432.       2334473.       2339954.
       2344890.       2349255.       2353018.       2356168.       2358706.
       2360623.       2361912.       2362566.       2362584.       2361978.
       2360767.       2358936.       2356441.       2353279.       2349479.
       2345045.       2339962.       2334236.       2327886.       2320915.
       2313323.       2305134.       2296380.       2287061.       2277164.
       2266689.       2255641.       2244021.       2231833.       2219108.
       2205874.       2192119.       2177823.       2162999.       2147674.
       2131853.       2115526.       2098693.       2081379.       2063600.
       2045347.       2026611.       2007407.       1987762.       1967686.
       1947161.       1926169.       1904710.       1882798.       1860442.
       1837644.       1814419.       1790789.       1766766.       1742358.
       1717568.       1692413.       1666923.       1641136.       1615069.
       1588702.       1561992.       1534926.       1507529.       1479839.
       1451865.       1423596.       1395030.       1366171.       1337030.
       1307610.       1277885.       1247834.       1217480.       1186857.
       1155958.       1124780.       1093354.       1061708.       1029849.
       997788.0       965545.0       933146.0       900629.0       868028.0
       835338.0       802532.0       769610.0       736602.0       703521.0
       670366.0       637141.0       603856.0       570506.0       537090.0
       503611.0       470081.0       436515.0       402934.0       369353.0
       335768.0       302176.0       268593.0       235054.0       201571.0
       168129.0       134709.0       101313.0       67957.00       34661.00
       1428.000      -31739.00      -64826.00      -97843.00      -130806.0
      -163706.0      -196524.0      -229222.0      -261752.0      -294116.0
      -326341.0      -358402.0      -390259.0      -421907.0      -453356.0
      -484599.0      -515620.0      -546421.0      -577024.0      -607439.0
      -637647.0      -667599.0      -697238.0      -726544.0      -755543.0
      -784265.0      -812706.0      -840848.0      -868683.0      -896211.0
      -923431.0      -950347.0      -976960.0      -1003247.      -1029183.
      -1054752.      -1079941.      -1104724.      -1129085.      -1153043.
      -1176613.      -1199772.      -1222491.      -1244777.      -1266652.
      -1288113.      -1309128.      -1329667.      -1349740.      -1369378.
      -1388588.      -1407361.      -1425697.      -1443605.      -1461095.
      -1478158.      -1494759.      -1510877.      -1526532.      -1541734.
      -1556454.      -1570666.      -1584387.      -1597636.      -1610398.
      -1622665.      -1634462.      -1645826.      -1656765.      -1667258.
      -1677271.      -1686792.      -1695833.      -1704402.      -1712493.
      -1720111.      -1727262.      -1733939.      -1740131.      -1745827.
      -1750995.      -1755623.      -1759749.      -1763418.      -1766644.
      -1769412.      -1771704.      -1773525.      -1774892.      -1775798.
      -1776222.      -1776163.      -1775635.      -1774640.      -1773175.
      -1771220.      -1768751.      -1765778.      -1762331.      -1758422.
      -1754039.      -1749182.      -1743878.      -1738159.      -1732023.
      -1725448.      -1718451.      -1711070.      -1703311.      -1695157.
      -1686603.      -1677644.      -1668269.      -1658487.      -1648303.
      -1637696.      -1626651.      -1615180.      -1603294.      -1590995.
      -1578288.      -1565185.      -1551713.      -1537899.      -1523742.
      -1509217.      -1494331.      -1479122.      -1463610.      -1447771.
      -1431579.      -1415037.      -1398162.      -1380950.      -1363386.
      -1345474.      -1327232.      -1308691.      -1289866.      -1270744.
      -1251311.      -1231580.      -1211594.      -1191387.      -1170955.
      -1150278.      -1129370.      -1108265.      -1086978.      -1065506.
      -1043859.      -1022054.      -1000107.      -978025.0      -955813.0
      -933481.0      -911045.0      -888513.0      -865871.0      -843101.0
      -820206.0      -797209.0      -774122.0      -750945.0      -727678.0
      -704315.0      -680862.0      -657346.0      -633795.0      -610213.0
      -586608.0      -563004.0      -539432.0      -515904.0      -492419.0
      -468980.0      -445590.0      -422254.0      -398983.0      -375782.0
      -352653.0      -329607.0      -306652.0      -283786.0      -261002.0
      -238292.0      -215660.0      -193127.0      -170717.0      -148449.0
      -126328.0      -104352.0      -82522.00      -60841.00      -39319.00
      -17975.00       3184.000       24150.00       44894.00       65396.00
       85666.00       105707.0       125494.0       145024.0       164332.0
       183451.0       202380.0       221100.0       239604.0       257908.0
       276021.0       293934.0       311627.0       329083.0       346289.0
       363239.0       379924.0       396323.0       412419.0       428206.0
       443691.0       458883.0       473793.0       488431.0       502800.0
       516904.0       530759.0       544378.0       557753.0       570870.0
       583728.0       596326.0       608657.0       620718.0       632504.0
       643989.0       655153.0       666000.0       676527.0       686727.0
       696610.0       706193.0       715477.0       724457.0       733141.0
       741545.0       749679.0       757531.0       765073.0       772291.0
       779193.0       785786.0       792056.0       797982.0       803557.0
       808791.0       813695.0       818274.0       822524.0       826436.0
