     0.05000000      -12345.00      -12345.00   8.958920e+08      -12345.00
   0.0003150000       3899.950      -377.0143      -12345.00      -12345.00
      -12345.00      -12345.00      -12345.00      -12345.00      -12345.00
      -12345.00      -12345.00      -12345.00      -12345.00      -12345.00
      -12345.00      -12345.00      -12345.00      -12345.00      -12345.00
      -12345.00      -12345.00      -12345.00      -12345.00      -12345.00
      -12345.00       8.801900       167.6130       0.000000       0.000000
       3.412500       95.90120      -12345.00       26.10000      -12345.00
      -12345.00      -12345.00      -12345.00      -12345.00      -12345.00
      -12345.00      -12345.00      -12345.00      -12345.00      -12345.00
       7941.411       81.90887       270.6541       71.42199      -12345.00
      -12345.00      -12345.00       0.000000       0.000000      -12345.00
      -12345.00      -12345.00      -12345.00      -12345.00      -12345.00
      -12345.00      -12345.00      -12345.00      -12345.00      -12345.00
      2004       361         1         5         9
        14         6    -12345    -12345     78000
    -12345    -12345    -12345    -12345    -12345
         1    -12345    -12345    -12345    -12345
    -12345    -12345    -12345    -12345    -12345
    -12345    -12345    -12345    -12345    -12345
    -12345    -12345    -12345    -12345    -12345
         1    -12345    -12345    -12345    -12345
KWAJ    Off W Coast Of N
00      -12345  -12345  
-12345  -12345  -12345  
-12345  -12345  -12345  
-12345  -12345  -12345  
-12345  -12345  -12345  
-12345  -12345  BHZ     
II      -12345  Streckei
[...]
       257643.0       247489.0       237102.0       226484.0       215729.0
       205116.0       194736.0       184361.0       173806.0       163024.0
       152007.0       140768.0       129269.0       117493.0       105592.0
       93750.00       81982.00       70266.00       58748.00       47528.00
       36400.00       25085.00       13530.00       1860.000      -9808.000
      -21437.00      -32989.00      -44370.00      -55531.00      -66515.00
      -77353.00      -88060.00      -98672.00      -109202.0      -119711.0
      -130277.0      -140878.0      -151496.0      -162134.0      -172754.0
      -183423.0      -194295.0      -205343.0      -216386.0      -227327.0
      -238189.0      -248957.0      -259551.0      -269988.0      -280366.0
      -290660.0      -300783.0      -310783.0      -320794.0      -330901.0
      -341153.0      -351557.0      -362062.0      -372625.0      -383211.0
      -393697.0      -403880.0      -413654.0      -423119.0      -432483.0
      -441907.0      -451507.0      -461327.0      -471241.0      -481073.0
      -490789.0      -500430.0      -510038.0      -519686.0      -529357.0
      -538973.0      -548587.0      -558283.0      -568103.0      -578122.0
      -588343.0      -598634.0      -608831.0      -618792.0      -628431.0
      -637772.0      -647006.0      -656370.0      -665920.0      -675544.0
      -685163.0      -694792.0      -704458.0      -714037.0      -723309.0
      -732295.0      -741262.0      -750354.0      -759528.0      -768704.0
      -777797.0      -786799.0      -795695.0      -804309.0      -812542.0
      -820474.0      -828109.0      -835485.0      -842837.0      -850293.0
      -857789.0      -865291.0      -872745.0      -880031.0      -887087.0
      -894010.0      -900996.0      -908039.0      -914899.0      -921435.0
      -927645.0      -933563.0      -939314.0      -944962.0      -950476.0
      -955864.0      -961078.0      -965964.0      -970490.0      -974786.0
      -978872.0      -982609.0      -985947.0      -988882.0      -991386.0
      -993566.0      -995629.0      -997745.0      -999917.0      -1001968.
      -1003785.      -1005338.      -1006558.      -1007467.      -1008154.
      -1008592.      -1008696.      -1008443.      -1007882.      -1007103.
      -1006237.      -1005455.      -1004845.      -1004328.      -1003764.
      -1003010.      -1001988.      -1000716.      -999212.0      -997464.0
      -995457.0      -993234.0      -990928.0      -988583.0      -986114.0
      -983484.0      -980684.0      -977713.0      -974661.0      -971553.0
      -968318.0      -964958.0      -961480.0      -957844.0      -954110.0
      -950418.0      -946769.0      -943023.0      -939145.0      -935222.0
      -931267.0      -927138.0      -922692.0      -917967.0      -913107.0
      -908227.0      -903376.0      -898468.0      -893329.0      -887883.0
      -882223.0      -876546.0      -870953.0      -865453.0      -860124.0
      -854959.0      -849687.0      -844014.0      -837928.0      -831696.0
      -825561.0      -819475.0      -813253.0      -806766.0      -799958.0
      -792812.0      -785286.0      -777351.0      -769197.0      -761128.0
      -753244.0      -745469.0      -737678.0      -729692.0      -721396.0
      -712828.0      -704110.0      -695357.0      -686538.0      -677580.0
      -668533.0      -659349.0      -649859.0      -640097.0      -630175.0
      -620077.0      -609787.0      -599291.0      -588571.0      -577693.0
      -566779.0      -555898.0      -544978.0      -533964.0      -522898.0
      -511749.0      -500526.0      -489349.0      -478151.0      -466739.0
      -455083.0      -443189.0      -431008.0      -418563.0      -405906.0
      -393194.0      -380614.0      -367949.0      -354848.0      -341448.0
      -327979.0      -314454.0      -301020.0      -287823.0      -274757.0
      -261633.0      -248242.0      -234432.0      -220282.0      -205941.0
      -191495.0      -177065.0      -162702.0      -148333.0      -133879.0
      -119260.0      -104472.0      -89643.00      -74831.00      -60069.00
      -45499.00      -31188.00      -16994.00      -2740.000       11650.00
       26164.00       40680.00       55093.00       69541.00       84127.00
       98630.00       112855.0       126912.0       140986.0       155167.0
       169426.0       183621.0       197596.0       211250.0       224599.0
       237814.0       251077.0       264416.0       277732.0       290868.0
       303692.0       316254.0       328681.0       340985.0       353165.0
       365228.0       377077.0       388581.0       399745.0       410669.0
       421361.0       431798.0       442133.0       452520.0       462878.0
       473143.0       483431.0       493707.0       503753.0       513595.0
       523385.0       533052.0       542463.0       551584.0       560361.0
       568757.0       576845.0       584701.0       592345.0       599715.0
       606720.0       613467.0       620082.0       626417.0       632445.0
       638455.0       644495.0       650263.0       655635.0       660693.0
       665373.0       669621.0       673605.0       677405.0       680930.0
       684240.0       687463.0       690568.0       693467.0       696054.0
       698260.0       700201.0       701994.0       703549.0       704770.0
       705704.0       706450.0       706987.0       707251.0       707401.0
       707676.0       708057.0       708388.0       708679.0       709022.0
       709332.0       709423.0       709268.0       708930.0       708333.0
       707364.0       706120.0       704781.0       703417.0       702008.0
       700463.0       698705.0       696738.0       694594.0       692254.0
       689665.0       686810.0       683657.0       680148.0       676368.0
       672473.0       668472.0       664338.0       660114.0       655861.0
       651650.0       647409.0       643012.0       638548.0       634085.0
       629581.0       625083.0       620557.0       615884.0       611099.0
       606191.0       600961.0       595371.0       589611.0       583817.0
       578013.0       572259.0       566599.0       561030.0       555562.0
       550143.0       544641.0       538953.0       533087.0       527124.0
       521151.0       515232.0       509353.0       503420.0       497370.0
       491187.0       484844.0       478368.0       471766.0       464969.0
       457934.0       450652.0       443099.0       435239.0       427079.0
       418770.0       410453.0       402068.0       393517.0       384793.0
       375832.0       366495.0       356772.0       346762.0       336471.0
       325980.0       315603.0       305440.0       295232.0       284859.0
       274386.0       263750.0       252834.0       241587.0       229953.0
       217916.0       205617.0       193236.0       180799.0       168287.0
       155769.0       143327.0       130978.0       118685.0       106402.0
       94102.00       81747.00       69233.00       56527.00       43756.00
       31023.00       18400.00       6015.000      -6169.000      -18396.00
      -30811.00      -43378.00      -56038.00      -68707.00      -81216.00
      -93454.00      -105541.0      -117703.0      -129978.0      -142322.0
      -154756.0      -167187.0      -179463.0      -191613.0      -203708.0
      -215674.0      -227492.0      -239273.0      -251071.0      -262941.0
      -274971.0      -287119.0      -299235.0      -311199.0      -322976.0
      -334530.0      -345875.0      -357239.0      -368800.0      -380412.0
      -391877.0      -403168.0      -414274.0      -425128.0      -435859.0
      -446797.0      -458001.0      -469296.0      -480700.0      -492174.0
      -503485.0      -514684.0      -525998.0      -537356.0      -548554.0
      -559595.0      -570547.0      -581404.0      -592231.0      -603203.0
      -614416.0      -625778.0      -637126.0      -648377.0      -659554.0
      -670763.0      -682162.0      -693775.0      -705417.0      -716966.0
      -728463.0      -739877.0      -751151.0      -762390.0      -773706.0
      -785126.0      -796642.0      -808161.0      -819522.0      -830607.0
      -841431.0      -852106.0      -862681.0      -873219.0      -883842.0
      -894477.0      -904896.0      -914994.0      -924732.0      -934078.0
      -943112.0      -951986.0      -960832.0      -969626.0      -978211.0
      -986568.0      -994793.0      -1002893.      -1010896.      -1018884.
      -1026882.      -1034825.      -1042571.      -1050052.      -1057384.
      -1064707.      -1072078.      -1079479.      -1086776.      -1093763.
      -1100288.      -1106356.      -1112130.      -1117785.      -1123443.
      -1129196.      -1134988.      -1140603.      -1145899.      -1150906.
      -1155738.      -1160505.      -1165229.      -1169887.      -1174582.
      -1179494.      -1184636.      -1189852.      -1194920.      -1199604.
      -1203836.      -1207703.      -1211250.      -1214481.      -1217465.
      -1220395.      -1223352.      -1226120.      -1228560.      -1230794.
      -1232930.      -1235035.      -1237202.      -1239514.      -1242041.
      -1244681.      -1247124.      -1249219.      -1251072.      -1252709.
      -1254051.      -1255202.      -1256403.      -1257708.      -1258948.
      -1260038.      -1261052.      -1262020.      -1262954.      -1263899.
      -1264830.      -1265643.      -1266170.      -1266294.      -1266092.
      -1265579.      -1264560.      -1263036.      -1261255.      -1259265.
      -1256930.      -1254250.      -1251210.      -1247744.      -1243938.
      -1239838.      -1235368.      -1230517.      -1225291.      -1219709.
      -1213791.      -1207532.      -1201050.      -1194461.      -1187603.
      -1180279.      -1172516.      -1164377.      -1155927.      -1147345.
      -1138705.      -1129873.      -1120770.      -1111432.      -1101824.
      -1091925.      -1081840.      -1071523.      -1060786.      -1049734.
      -1038660.      -1027602.      -1016434.      -1005012.      -993192.0
      -981032.0      -968736.0      -956434.0      -944231.0      -932146.0
      -919942.0      -907400.0      -894558.0      -881557.0      -868459.0
      -855223.0      -841820.0      -828360.0      -814919.0      -801407.0
      -787770.0      -774122.0      -760484.0      -746687.0      -732714.0
      -718744.0      -704853.0      -690977.0      -677061.0      -663181.0
      -649431.0      -635669.0      -621736.0      -607741.0      -593817.0
      -579972.0      -566173.0      -552345.0      -538456.0      -524600.0
      -510837.0      -497067.0      -483129.0      -468995.0      -454786.0
      -440607.0      -426482.0      -412343.0      -398136.0      -383962.0
      -369875.0      -355734.0      -341386.0      -326782.0      -312037.0
      -297428.0      -283098.0      -268885.0      -254584.0      -240221.0
      -225886.0      -211490.0      -196897.0      -182115.0      -167331.0
      -152747.0      -138276.0      -123711.0      -109149.0      -94740.00
      -80366.00      -65923.00      -51470.00      -37062.00      -22765.00
      -8681.000       5194.000       18901.00       32420.00       45814.00
       59252.00       72760.00       86260.00       99760.00       113322.0
       126957.0       140585.0       154137.0       167676.0       181234.0
       194686.0       207871.0       220772.0       233594.0       246440.0
       259128.0       271622.0       284096.0       296557.0       308805.0
       320700.0       332328.0       343917.0       355651.0       367600.0
       379759.0       392047.0       404281.0       416325.0       428287.0
       440333.0       452444.0       464570.0       476693.0       488754.0
       500716.0       512629.0       524549.0       536437.0       548261.0
       560047.0       571773.0       583495.0       595292.0       607006.0
       618523.0       630006.0       641527.0       652891.0       663948.0
       674751.0       685387.0       695906.0       706348.0       716741.0
       727153.0       737611.0       748062.0       758444.0       768634.0
       778537.0       788263.0       798016.0       807795.0       817422.0
       826793.0       835923.0       844846.0       853608.0       862296.0
       870948.0       879428.0       887665.0       895817.0       903974.0
       912005.0       919785.0       927319.0       934701.0       941972.0
       949063.0       955946.0       962642.0       969120.0       975386.0
       981456.0       987294.0       992998.0       998650.0       1004105.
       1009327.       1014468.       1019476.       1024158.       1028525.
       1032667.       1036619.       1040509.       1044365.       1047924.
       1050997.       1053644.       1055864.       1057657.       1059298.
       1060971.       1062437.       1063433.       1063942.       1064011.
       1063711.       1063184.       1062535.       1061771.       1060893.
       1059878.       1058569.       1056797.       1054582.       1052081.
       1049440.       1046698.       1043758.       1040532.       1037032.
       1033263.       1029225.       1024948.       1020352.       1015340.
       1010060.       1004745.       999443.0       994091.0       988571.0
       982746.0       976571.0       970070.0       963300.0       956271.0
       948958.0       941401.0       933639.0       925658.0       917490.0
       909224.0       900887.0       892440.0       883882.0       875206.0
       866374.0       857416.0       848443.0       839561.0       830712.0
       821678.0       812363.0       802805.0       792918.0       782697.0
       772399.0       762129.0       751722.0       741169.0       730618.0
       720043.0       709319.0       698416.0       687352.0       676227.0
       665233.0       654412.0       643653.0       632894.0       622077.0
       611119.0       599984.0       588680.0       577292.0       565954.0
       554741.0       543655.0       532585.0       521362.0       510032.0
       498779.0       487668.0       476652.0       465573.0       454192.0
       442513.0       430804.0       419128.0       407369.0       395649.0
       384129.0       372617.0       360904.0       349138.0       337478.0
       325850.0       314232.0       302699.0       291227.0       279808.0
       268531.0       257406.0       246295.0       235121.0       224029.0
       213158.0       202402.0       191654.0       180986.0       170408.0
       159838.0       149329.0       139029.0       128919.0       118907.0
       109094.0       99540.00       90066.00       80508.00       70821.00
       61034.00       51267.00       41586.00       31927.00       22289.00
       12754.00       3248.000      -6359.000      -16027.00      -25746.00
      -35556.00      -45281.00      -54706.00      -63882.00      -72875.00
      -81624.00      -90184.00      -98691.00      -107207.0      -115697.0
      -124089.0      -132373.0      -140455.0      -148169.0      -155622.0
      -163058.0      -170471.0      -177840.0      -185270.0      -192615.0
      -199598.0      -206253.0      -212719.0      -218950.0      -224937.0
      -230857.0      -236871.0      -243018.0      -249307.0      -255717.0
      -262164.0      -268538.0      -274746.0      -280777.0      -286717.0
      -292713.0      -298920.0      -305347.0      -311833.0      -318246.0
      -324527.0      -330667.0      -336744.0      -342902.0      -349300.0
      -355886.0      -362348.0      -368547.0      -374578.0      -380445.0
      -386179.0      -391882.0      -397500.0      -402944.0      -408309.0
      -413669.0      -418861.0      -423796.0      -428591.0      -433252.0
      -437774.0      -442336.0      -447035.0      -451813.0      -456599.0
      -461278.0      -465740.0      -470002.0      -474151.0      -478220.0
      -482225.0      -486190.0      -490054.0      -493810.0      -497684.0
      -501832.0      -506116.0      -510334.0      -514363.0      -518211.0
      -521933.0      -525423.0      -528602.0      -531535.0      -534170.0
      -536441.0      -538452.0      -540322.0      -542102.0      -543774.0
      -545156.0      -546100.0      -546726.0      -547171.0      -547412.0
      -547455.0      -547415.0      -547381.0      -547223.0      -546730.0
      -545875.0      -544724.0      -543364.0      -541833.0      -540053.0
      -538078.0      -536060.0      -533978.0      -531762.0      -529412.0
      -526882.0      -524096.0      -521071.0      -517858.0      -514457.0
      -510856.0      -507091.0      -503245.0      -499371.0      -495438.0
      -491366.0      -487001.0      -482202.0      -477099.0      -471941.0
      -466749.0      -461471.0      -456118.0      -450647.0      -445016.0
      -439170.0      -433058.0      -426783.0      -420479.0      -414209.0
      -407936.0      -401475.0      -394719.0      -387745.0      -380573.0
      -373178.0      -365583.0      -357783.0      -349811.0      -341767.0
      -333661.0      -325454.0      -317173.0      -308873.0      -300574.0
      -292183.0      -283548.0      -274640.0      -265541.0      -256333.0
      -247086.0      -237828.0      -228635.0      -219625.0      -210669.0
      -201513.0      -192221.0      -182955.0      -173667.0      -164379.0
      -155059.0      -145546.0      -135982.0      -126598.0      -117292.0
      -107982.0      -98819.00      -89833.00      -80907.00      -72026.00
      -63212.00      -54541.00      -46163.00      -37979.00      -29746.00
      -21528.00      -13415.00      -5291.000       2806.000       10752.00
       18569.00       26293.00       33898.00       41309.00       48466.00
       55370.00       62081.00       68771.00       75611.00       82547.00
       89443.00       96329.00       103198.0       109799.0       116006.0
       121920.0       127575.0       133065.0       138629.0       144304.0
       149913.0       155336.0       160544.0       165508.0       170237.0
       174832.0       179314.0       183564.0       187580.0       191524.0
       195551.0       199769.0       204163.0       208458.0       212331.0
       215765.0       219005.0       222225.0       225507.0       228889.0
       232266.0       235493.0       238539.0       241509.0       244533.0
       247561.0       250458.0       253205.0       255824.0       258359.0
