     0.05000000      -12345.00      -12345.00   1.516810e+09      -12345.00
   0.0008040000       3899.901      -162.0438      -12345.00      -12345.00
      -12345.00      -12345.00      -12345.00      -12345.00      -12345.00
      -12345.00      -12345.00      -12345.00      -12345.00      -12345.00
      -12345.00      -12345.00      -12345.00      -12345.00      -12345.00
      -12345.00      -12345.00      -12345.00      -12345.00      -12345.00
      -12345.00      -4.673700       55.47920       475.0000       91.00000
       3.412500       95.90120      -12345.00       26.10000      -12345.00
      -12345.00      -12345.00      -12345.00      -12345.00      -12345.00
      -12345.00      -12345.00      -12345.00      -12345.00      -12345.00
       4578.479       258.9968       79.45914       41.17707      -12345.00
      -12345.00      -12345.00       0.000000       0.000000      -12345.00
      -12345.00      -12345.00      -12345.00      -12345.00      -12345.00
      -12345.00      -12345.00      -12345.00      -12345.00      -12345.00
      2004       361         1         1        34
        43         6    -12345    -12345     77999
    -12345    -12345    -12345    -12345    -12345
         1    -12345    -12345    -12345    -12345
    -12345    -12345    -12345    -12345    -12345
    -12345    -12345    -12345    -12345    -12345
    -12345    -12345    -12345    -12345    -12345
         1    -12345    -12345    -12345    -12345
MSEY    Off W Coast Of N
00      -12345  -12345  
-12345  -12345  -12345  
-12345  -12345  -12345  
-12345  -12345  -12345  
-12345  -12345  -12345  
-12345  -12345  BHZ     
II      -12345  Geotech 
[...]
       2416685.       2427782.       2438535.       2448928.       2458940.
       2468559.       2477776.       2486577.       2494945.       2502865.
       2510323.       2517313.       2523839.       2529900.       2535488.
       2540603.       2545249.       2549425.       2553142.       2556424.
       2559306.       2561812.       2563955.       2565738.       2567160.
       2568219.       2568913.       2569236.       2569186.       2568772.
       2568000.       2566878.       2565410.       2563588.       2561404.
       2558844.       2555898.       2552558.       2548821.       2544695.
       2540201.       2535366.       2530215.       2524766.       2519043.
       2513074.       2506890.       2500519.       2493984.       2487301.
       2480485.       2473554.       2466523.       2459404.       2452216.
       2444975.       2437697.       2430393.       2423071.       2415731.
       2408369.       2400987.       2393593.       2386190.       2378769.
       2371311.       2363790.       2356174.       2348428.       2340534.
       2332480.       2324261.       2315873.       2307319.       2298599.
       2289715.       2280666.       2271458.       2262100.       2252607.
       2242994.       2233264.       2223401.       2213384.       2203187.
       2192790.       2182175.       2171332.       2160251.       2148929.
       2137360.       2125543.       2113483.       2101183.       2088650.
       2075895.       2062925.       2049736.       2036325.       2022689.
       2008834.       1994767.       1980503.       1966056.       1951431.
       1936620.       1921606.       1906369.       1890891.       1875160.
       1859174.       1842932.       1826438.       1809691.       1792684.
       1775410.       1757855.       1740005.       1721852.       1703396.
       1684644.       1665607.       1646295.       1626721.       1606899.
       1586845.       1566574.       1546103.       1525452.       1504648.
       1483709.       1462643.       1441455.       1420150.       1398730.
       1377202.       1355570.       1333834.       1311991.       1290049.
       1268012.       1245883.       1223660.       1201340.       1178914.
       1156374.       1133713.       1110923.       1087994.       1064913.
       1041672.       1018270.       994705.0       970966.0       947045.0
       922941.0       898654.0       874181.0       849528.0       824709.0
       799738.0       774619.0       749344.0       723910.0       698331.0
       672629.0       646830.0       620949.0       594991.0       568955.0
       542840.0       516643.0       490359.0       463982.0       437506.0
       410925.0       384238.0       357451.0       330566.0       303572.0
       276462.0       249239.0       221912.0       194489.0       166977.0
       139384.0       111715.0       83979.00       56183.00       28334.00
       447.0000      -27454.00      -55336.00      -83182.00      -110988.0
      -138764.0      -166535.0      -194327.0      -222158.0      -250042.0
      -277994.0      -306030.0      -334153.0      -362357.0      -390645.0
      -419017.0      -447467.0      -475983.0      -504556.0      -533186.0
      -561866.0      -590577.0      -619303.0      -648039.0      -676783.0
      -705535.0      -734285.0      -763019.0      -791721.0      -820379.0
      -848998.0      -877585.0      -906147.0      -934697.0      -963247.0
      -991804.0      -1020372.      -1048954.      -1077558.      -1106187.
      -1134839.      -1163506.      -1192175.      -1220832.      -1249462.
      -1278045.      -1306558.      -1334981.      -1363297.      -1391484.
      -1419509.      -1447337.      -1474945.      -1502326.      -1529477.
      -1556396.      -1583082.      -1609533.      -1635742.      -1661699.
      -1687391.      -1712807.      -1737944.      -1762806.      -1787391.
      -1811707.      -1835764.      -1859573.      -1883133.      -1906441.
      -1929490.      -1952282.      -1974825.      -1997129.      -2019195.
      -2041015.      -2062581.      -2083876.      -2104879.      -2125572.
      -2145941.      -2165975.      -2185664.      -2205003.      -2223988.
      -2242629.      -2260936.      -2278907.      -2296547.      -2313879.
      -2330927.      -2347702.      -2364213.      -2380473.      -2396495.
      -2412284.      -2427837.      -2443152.      -2458228.      -2473062.
      -2487649.      -2501989.      -2516088.      -2529959.      -2543609.
      -2557037.      -2570244.      -2583226.      -2595974.      -2608476.
      -2620716.      -2632677.      -2644335.      -2655677.      -2666696.
      -2677389.      -2687757.      -2697804.      -2707542.      -2716983.
      -2726130.      -2734990.      -2743573.      -2751876.      -2759896.
      -2767630.      -2775074.      -2782221.      -2789072.      -2795630.
      -2801895.      -2807864.      -2813541.      -2818930.      -2824027.
      -2828824.      -2833312.      -2837481.      -2841321.      -2844825.
      -2847994.      -2850830.      -2853334.      -2855502.      -2857334.
      -2858837.      -2860024.      -2860915.      -2861532.      -2861895.
      -2862022.      -2861932.      -2861644.      -2861185.      -2860581.
      -2859857.      -2859033.      -2858128.      -2857153.      -2856123.
      -2855053.      -2853953.      -2852834.      -2851703.      -2850569.
      -2849446.      -2848341.      -2847248.      -2846152.      -2845041.
      -2843901.      -2842717.      -2841472.      -2840155.      -2838752.
      -2837252.      -2835644.      -2833916.      -2832053.      -2830044.
      -2827882.      -2825555.      -2823054.      -2820380.      -2817549.
      -2814585.      -2811510.      -2808337.      -2805079.      -2801752.
      -2798379.      -2794982.      -2791572.      -2788161.      -2784774.
      -2781448.      -2778208.      -2775053.      -2771957.      -2768899.
      -2765879.      -2762907.      -2759984.      -2757102.      -2754257.
      -2751462.      -2748740.      -2746104.      -2743543.      -2741040.
      -2738593.      -2736220.      -2733949.      -2731800.      -2729770.
      -2727840.      -2726003.      -2724267.      -2722637.      -2721112.
      -2719693.      -2718388.      -2717206.      -2716159.      -2715250.
      -2714472.      -2713814.      -2713261.      -2712802.      -2712434.
      -2712160.      -2711981.      -2711893.      -2711886.      -2711959.
      -2712123.      -2712404.      -2712819.      -2713370.      -2714046.
      -2714848.      -2715781.      -2716841.      -2718006.      -2719237.
      -2720507.      -2721803.      -2723121.      -2724456.      -2725799.
      -2727142.      -2728483.      -2729831.      -2731190.      -2732550.
      -2733893.      -2735208.      -2736495.      -2737763.      -2739013.
      -2740234.      -2741413.      -2742533.      -2743583.      -2744553.
      -2745425.      -2746183.      -2746814.      -2747327.      -2747744.
      -2748082.      -2748345.      -2748534.      -2748659.      -2748735.
      -2748768.      -2748760.      -2748707.      -2748609.      -2748479.
      -2748329.      -2748162.      -2747970.      -2747743.      -2747470.
      -2747144.      -2746770.      -2746361.      -2745920.      -2745449.
      -2744958.      -2744458.      -2743948.      -2743420.      -2742865.
      -2742277.      -2741658.      -2741020.      -2740369.      -2739705.
      -2739028.      -2738341.      -2737648.      -2736947.      -2736233.
      -2735494.      -2734726.      -2733928.      -2733095.      -2732211.
      -2731261.      -2730233.      -2729124.      -2727933.      -2726655.
      -2725283.      -2723822.      -2722281.      -2720679.      -2719038.
      -2717373.      -2715694.      -2714005.      -2712317.      -2710634.
      -2708959.      -2707300.      -2705665.      -2704067.      -2702503.
      -2700959.      -2699426.      -2697905.      -2696403.      -2694926.
      -2693482.      -2692075.      -2690704.      -2689369.      -2688067.
      -2686783.      -2685496.      -2684194.      -2682870.      -2681531.
      -2680194.      -2678877.      -2677592.      -2676357.      -2675179.
      -2674057.      -2672984.      -2671962.      -2670997.      -2670093.
      -2669255.      -2668478.      -2667754.      -2667073.      -2666420.
      -2665772.      -2665111.      -2664429.      -2663728.      -2663009.
      -2662277.      -2661529.      -2660754.      -2659941.      -2659083.
      -2658184.      -2657247.      -2656276.      -2655270.      -2654224.
      -2653126.      -2651967.      -2650744.      -2649460.      -2648107.
      -2646681.      -2645185.      -2643626.      -2642010.      -2640339.
      -2638618.      -2636848.      -2635023.      -2633134.      -2631165.
      -2629095.      -2626901.      -2624557.      -2622031.      -2619298.
      -2616336.      -2613121.      -2609630.      -2605847.      -2601763.
      -2597366.      -2592645.      -2587586.      -2582165.      -2576351.
      -2570114.      -2563435.      -2556303.      -2548707.      -2540636.
      -2532082.      -2523033.      -2513472.      -2503384.      -2492763.
      -2481613.      -2469947.      -2457774.      -2445095.      -2431905.
      -2418195.      -2403958.      -2389183.      -2373869.      -2358024.
      -2341660.      -2324777.      -2307379.      -2289477.      -2271084.
      -2252214.      -2232880.      -2213090.      -2192851.      -2172166.
      -2151030.      -2129434.      -2107363.      -2084806.      -2061759.
      -2038232.      -2014239.      -1989786.      -1964869.      -1939485.
      -1913640.      -1887336.      -1860574.      -1833358.      -1805703.
      -1777631.      -1749168.      -1720335.      -1691149.      -1661617.
      -1631738.      -1601503.      -1570897.      -1539910.      -1508533.
      -1476761.      -1444592.      -1412035.      -1379105.      -1345812.
      -1312164.      -1278169.      -1243847.      -1209215.      -1174287.
      -1139079.      -1103611.      -1067903.      -1031972.      -995837.0
      -959513.0      -923009.0      -886333.0      -849502.0      -812537.0
      -775457.0      -738278.0      -701011.0      -663664.0      -626247.0
      -588763.0      -551221.0      -513628.0      -475991.0      -438322.0
      -400629.0      -362910.0      -325160.0      -287373.0      -249534.0
      -211624.0      -173632.0      -135549.0      -97368.00      -59073.00
      -20653.00       17897.00       56565.00       95330.00       134166.0
       173045.0       211945.0       250847.0       289736.0       328612.0
       367494.0       406413.0       445396.0       484469.0       523651.0
       562961.0       602414.0       642029.0       681831.0       721854.0
       762130.0       802678.0       843501.0       884589.0       925916.0
       967458.0       1009192.       1051098.       1093156.       1135351.
       1177680.       1220153.       1262785.       1305586.       1348557.
       1391690.       1434969.       1478380.       1521916.       1565568.
       1609320.       1653147.       1697024.       1740916.       1784790.
       1828625.       1872401.       1916095.       1959686.       2003160.
       2046504.       2089704.       2132744.       2175612.       2218307.
       2260833.       2303196.       2345399.       2387450.       2429353.
       2471103.       2512701.       2554146.       2595431.       2636532.
       2677430.       2718108.       2758548.       2798728.       2838627.
       2878231.       2917516.       2956462.       2995043.       3033240.
       3071052.       3108492.       3145564.       3182274.       3218627.
       3254624.       3290255.       3325510.       3360384.       3394884.
       3429019.       3462798.       3496231.       3529320.       3562068.
       3594480.       3626560.       3658309.       3689732.       3720840.
       3751642.       3782137.       3812310.       3842145.       3871634.
       3900775.       3929556.       3957954.       3985951.       4013543.
       4040735.       4067523.       4093895.       4119847.       4145389.
       4170522.       4195229.       4219508.       4243368.       4266803.
       4289820.       4312437.       4334642.       4356403.       4377703.
       4398525.       4418845.       4438645.       4457902.       4476581.
       4494657.       4512113.       4528934.       4545115.       4560661.
       4575576.       4589862.       4603533.       4616602.       4629070.
       4640937.       4652198.       4662855.       4672912.       4682381.
       4691276.       4699609.       4707373.       4714543.       4721100.
       4727038.       4732349.       4737021.       4741043.       4744414.
       4747146.       4749264.       4750786.       4751728.       4752100.
       4751920.       4751199.       4749940.       4748143.       4745807.
       4742917.       4739455.       4735402.       4730735.       4725435.
       4719493.       4712904.       4705663.       4697762.       4689193.
       4679944.       4670005.       4659377.       4648072.       4636104.
       4623479.       4610203.       4596276.       4581690.       4566446.
       4550551.       4534015.       4516855.       4499097.       4480767.
       4461891.       4442489.       4422570.       4402131.       4381163.
       4359655.       4337597.       4314978.       4291791.       4268032.
       4243697.       4218784.       4193300.       4167251.       4140631.
       4113428.       4085637.       4057259.       4028301.       3998771.
       3968672.       3938007.       3906781.       3874995.       3842638.
       3809699.       3776166.       3742038.       3707314.       3671991.
       3636068.       3599561.       3562502.       3524916.       3486818.
       3448217.       3409124.       3369552.       3329516.       3289037.
       3248136.       3206824.       3165106.       3122988.       3080472.
       3037570.       2994297.       2950661.       2906662.       2862307.
       2817609.       2772574.       2727207.       2681517.       2635509.
       2589184.       2542538.       2495562.       2448252.       2400607.
       2352626.       2304315.       2255696.       2206795.       2157634.
       2108236.       2058633.       2008864.       1958962.       1908955.
       1858872.       1808726.       1758521.       1708262.       1657954.
       1607601.       1557210.       1506799.       1456391.       1406007.
       1355660.       1305361.       1255119.       1204943.       1154851.
       1104860.       1054988.       1005250.       955656.0       906211.0
       856913.0       807752.0       758712.0       709777.0       660936.0
       612186.0       563523.0       514939.0       466423.0       417963.0
       369559.0       321208.0       272901.0       224632.0       176402.0
       128218.0       80093.00       32040.00      -15925.00      -63778.00
      -111495.0      -159051.0      -206430.0      -253618.0      -300604.0
      -347371.0      -393896.0      -440152.0      -486119.0      -531787.0
      -577147.0      -622188.0      -666897.0      -711268.0      -755302.0
      -799000.0      -842363.0      -885391.0      -928088.0      -970457.0
      -1012503.      -1054232.      -1095649.      -1136759.      -1177566.
      -1218074.      -1258286.      -1298197.      -1337805.      -1377112.
      -1416119.      -1454820.      -1493201.      -1531245.      -1568937.
      -1606256.      -1643180.      -1679688.      -1715765.      -1751396.
      -1786559.      -1821238.      -1855424.      -1889116.      -1922310.
      -1955001.      -1987185.      -2018852.      -2049993.      -2080593.
      -2110640.      -2140124.      -2169043.      -2197400.      -2225194.
      -2252426.      -2279098.      -2305222.      -2330813.      -2355883.
      -2380441.      -2404497.      -2428051.      -2451096.      -2473618.
      -2495607.      -2517051.      -2537940.      -2558256.      -2577980.
      -2597082.      -2615532.      -2633303.      -2650368.      -2666706.
      -2682306.      -2697166.      -2711280.      -2724642.      -2737256.
      -2749123.      -2760237.      -2770589.      -2780179.      -2789021.
      -2797131.      -2804528.      -2811221.      -2817220.      -2822544.
      -2827214.      -2831240.      -2834627.      -2837381.      -2839517.
      -2841041.      -2841956.      -2842259.      -2841950.      -2841044.
      -2839557.      -2837491.      -2834839.      -2831592.      -2827753.
      -2823329.      -2818328.      -2812755.      -2806619.      -2799935.
      -2792721.      -2784982.      -2776715.      -2767912.      -2758570.
      -2748697.      -2738310.      -2727421.      -2716033.      -2704147.
      -2691772.      -2678920.      -2665600.      -2651805.      -2637519.
      -2622735.      -2607455.      -2591683.      -2575420.      -2558670.
      -2541439.      -2523735.      -2505560.      -2486905.      -2467760.
      -2448122.      -2427979.      -2407308.      -2386084.      -2364290.
      -2341921.      -2318979.      -2295464.      -2271369.      -2246691.
      -2221426.      -2195572.      -2169121.      -2142072.      -2114436.
      -2086233.      -2057489.      -2028216.      -1998416.      -1968094.
      -1937263.      -1905944.      -1874152.      -1841897.      -1809186.
      -1776026.      -1742419.      -1708360.      -1673846.      -1638876.
      -1603455.      -1567586.      -1531283.      -1494567.      -1457462.
      -1419992.      -1382180.      -1344052.      -1305633.      -1266934.
      -1227954.      -1188689.      -1149146.      -1109334.      -1069258.
      -1028908.      -988272.0      -947347.0      -906140.0      -864661.0
      -822915.0      -780906.0      -738651.0      -696173.0      -653490.0
      -610616.0      -567562.0      -524329.0      -480908.0      -437287.0
      -393462.0      -349438.0      -305226.0      -260837.0      -216279.0
      -171558.0      -126698.0      -81723.00      -36654.00       8488.000
       53682.00       98911.00       144163.0       189430.0       234704.0
       279975.0       325227.0       370431.0       415559.0       460583.0
       505475.0       550202.0       594740.0       639067.0       683156.0
