     0.05000000      -12345.00      -12345.00   1.632650e+09      -12345.00
   0.0008470000       3899.951      -370.0269      -12345.00      -12345.00
      -12345.00      -12345.00      -12345.00      -12345.00      -12345.00
      -12345.00      -12345.00      -12345.00      -12345.00      -12345.00
      -12345.00      -12345.00      -12345.00      -12345.00      -12345.00
      -12345.00      -12345.00      -12345.00      -12345.00      -12345.00
      -12345.00       55.11460       36.56740       160.0000       30.00000
       3.412500       95.90120      -12345.00       26.10000      -12345.00
      -12345.00      -12345.00      -12345.00      -12345.00      -12345.00
      -12345.00      -12345.00      -12345.00      -12345.00      -12345.00
       7790.832       328.2869       114.0258       70.06774      -12345.00
      -12345.00      -12345.00       0.000000       0.000000      -12345.00
      -12345.00      -12345.00      -12345.00      -12345.00      -12345.00
      -12345.00      -12345.00      -12345.00      -12345.00      -12345.00
      2004       361         1         5         2
        26         6    -12345    -12345     78000
    -12345    -12345    -12345    -12345    -12345
         1    -12345    -12345    -12345    -12345
    -12345    -12345    -12345    -12345    -12345
    -12345    -12345    -12345    -12345    -12345
    -12345    -12345    -12345    -12345    -12345
         1    -12345    -12345    -12345    -12345
OBN     Off W Coast Of N
00      -12345  -12345  
-12345  -12345  -12345  
-12345  -12345  -12345  
-12345  -12345  -12345  
-12345  -12345  -12345  
-12345  -12345  BHZ     
II      -12345  Streckei
[...]
      -2641852.      -2615103.      -2587924.      -2560365.      -2532476.
      -2504281.      -2475766.      -2446906.      -2417689.      -2388108.
      -2358164.      -2327866.      -2297229.      -2266242.      -2234879.
      -2203140.      -2171065.      -2138690.      -2106025.      -2073061.
      -2039783.      -2006178.      -1972247.      -1938004.      -1903433.
      -1868483.      -1833107.      -1797289.      -1761050.      -1724444.
      -1687522.      -1650322.      -1612897.      -1575292.      -1537525.
      -1499594.      -1461527.      -1423398.      -1385284.      -1347218.
      -1309199.      -1271266.      -1233499.      -1195940.      -1158532.
      -1121181.      -1083843.      -1046547.      -1009329.      -972183.0
      -935063.0      -897917.0      -860681.0      -823332.0      -785931.0
      -748586.0      -711364.0      -674254.0      -637218.0      -600262.0
      -563413.0      -526647.0      -489904.0      -453180.0      -416507.0
      -379888.0      -343325.0      -306849.0      -270487.0      -234206.0
      -197928.0      -161598.0      -125223.0      -88820.00      -52375.00
      -15859.00       20755.00       57473.00       94283.00       131171.0
       168120.0       205092.0       242047.0       278958.0       315806.0
       352566.0       389221.0       425756.0       462117.0       498205.0
       533949.0       569339.0       604395.0       639107.0       673439.0
       707383.0       740968.0       774220.0       807135.0       839701.0
       871932.0       903875.0       935568.0       967031.0       998278.0
       1029324.       1060168.       1090800.       1121216.       1151402.
       1181303.       1210848.       1240018.       1268862.       1297442.
       1325768.       1353813.       1381561.       1408987.       1436062.
       1462818.       1489363.       1515762.       1541975.       1567924.
       1593598.       1619044.       1644308.       1669390.       1694261.
       1718899.       1743253.       1767238.       1790804.       1813977.
       1836812.       1859321.       1881461.       1903169.       1924406.
       1945165.       1965437.       1985232.       2004602.       2023573.
       2042089.       2060099.       2077640.       2094792.       2111603.
       2128070.       2144180.       2159927.       2175310.       2190322.
       2204973.       2219268.       2233198.       2246762.       2259968.
       2272798.       2285199.       2297106.       2308495.       2319368.
       2329733.       2339594.       2348944.       2357758.       2366029.
       2373791.       2381089.       2387924.       2394273.       2400123.
       2405474.       2410336.       2414727.       2418642.       2422046.
       2424922.       2427307.       2429244.       2430740.       2431756.
       2432232.       2432127.       2431429.       2430166.       2428426.
       2426340.       2423984.       2421330.       2418311.       2414918.
       2411207.       2407230.       2402998.       2398486.       2393660.
       2388527.       2383121.       2377415.       2371319.       2364771.
       2357775.       2350376.       2342630.       2334545.       2326027.
       2316947.       2307257.       2297013.       2286293.       2275130.
       2263495.       2251326.       2238601.       2225361.       2211641.
       2197424.       2182672.       2167388.       2151621.       2135448.
       2118953.       2102172.       2085069.       2067591.       2049749.
       2031588.       2013147.       1994460.       1975546.       1956400.
       1937012.       1917377.       1897463.       1877223.       1856630.
       1835684.       1814359.       1792603.       1770374.       1747614.
       1724242.       1700231.       1675603.       1650380.       1624571.
       1598177.       1571198.       1543632.       1515476.       1486753.
       1457507.       1427775.       1397612.       1367116.       1336358.
       1305357.       1274119.       1242655.       1210987.       1179161.
       1147241.       1115264.       1083228.       1051117.       1018927.
       986674.0       954381.0       922077.0       889787.0       857512.0
       825225.0       792877.0       760422.0       727852.0       695173.0
       662384.0       629472.0       596393.0       563066.0       529426.0
       495473.0       461229.0       426699.0       391893.0       356856.0
       321611.0       286120.0       250330.0       214247.0       177914.0
       141377.0       104673.0       67811.00       30759.00      -6530.000
      -44065.00      -81788.00      -119611.0      -157483.0      -195407.0
      -233398.0      -271471.0      -309624.0      -347826.0      -386015.0
      -424140.0      -462210.0      -500272.0      -538332.0      -576334.0
      -614235.0      -652028.0      -689707.0      -727264.0      -764693.0
      -801978.0      -839120.0      -876175.0      -913216.0      -950274.0
      -987369.0      -1024537.      -1061814.      -1099206.      -1136700.
      -1174269.      -1211898.      -1249598.      -1287369.      -1325194.
      -1363044.      -1400901.      -1438770.      -1476668.      -1514557.
      -1552337.      -1589938.      -1627381.      -1664709.      -1701903.
      -1738904.      -1775664.      -1812168.      -1848428.      -1884460.
      -1920267.      -1955834.      -1991114.      -2026069.      -2060712.
      -2095099.      -2129243.      -2163090.      -2196577.      -2229687.
      -2262413.      -2294698.      -2326461.      -2357677.      -2388384.
      -2418613.      -2448345.      -2477571.      -2506337.      -2534680.
      -2562587.      -2590027.      -2616996.      -2643521.      -2669629.
      -2695320.      -2720561.      -2745362.      -2769779.      -2793828.
      -2817444.      -2840572.      -2863238.      -2885483.      -2907257.
      -2928486.      -2949181.      -2969401.      -2989141.      -3008302.
      -3026777.      -3044529.      -3061587.      -3077962.      -3093616.
      -3108536.      -3122760.      -3136293.      -3149074.      -3161052.
      -3172213.      -3182552.      -3192088.      -3200854.      -3208864.
      -3216127.      -3222667.      -3228502.      -3233632.      -3238082.
      -3241880.      -3245006.      -3247439.      -3249222.      -3250410.
      -3251008.      -3250990.      -3250347.      -3249064.      -3247075.
      -3244271.      -3240595.      -3236093.      -3230819.      -3224767.
      -3217886.      -3210111.      -3201376.      -3191655.      -3180977.
      -3169365.      -3156830.      -3143395.      -3129102.      -3113987.
      -3098073.      -3081387.      -3063972.      -3045846.      -3026981.
      -3007352.      -2987003.      -2965991.      -2944330.      -2922029.
      -2899121.      -2875623.      -2851491.      -2826669.      -2801162.
      -2775019.      -2748254.      -2720838.      -2692757.      -2664028.
      -2634637.      -2604538.      -2573727.      -2542230.      -2510054.
      -2477166.      -2443524.      -2409081.      -2373783.      -2337598.
      -2300547.      -2262673.      -2223967.      -2184364.      -2143830.
      -2102381.      -2060053.      -2016882.      -1972919.      -1928212.
      -1882790.      -1836685.      -1789956.      -1742663.      -1694847.
      -1646537.      -1597750.      -1548483.      -1498745.      -1448597.
      -1398130.      -1347388.      -1296362.      -1245020.      -1193342.
      -1141348.      -1089071.      -1036527.      -983712.0      -930615.0
      -877224.0      -823543.0      -769607.0      -715423.0      -660922.0
      -606001.0      -550605.0      -494790.0      -438684.0      -382352.0
      -325724.0      -268708.0      -211290.0      -153533.0      -95543.00
      -37437.00       20732.00       78996.00       137407.0       195967.0
       254615.0       313275.0       371904.0       430508.0       489110.0
       547726.0       606353.0       664978.0       723577.0       782100.0
       840506.0       898803.0       957052.0       1015332.       1073668.
       1132004.       1190242.       1248330.       1306276.       1364089.
       1421773.       1479340.       1536791.       1594079.       1651115.
       1707820.       1764153.       1820121.       1875759.       1931056.
       1985918.       2040234.       2093957.       2147091.       2199652.
       2251628.       2302966.       2353632.       2403630.       2452969.
       2501650.       2549677.       2597070.       2643855.       2690037.
       2735580.       2780448.       2824660.       2868268.       2911321.
       2953840.       2995826.       3037250.       3078069.       3118289.
       3157985.       3197241.       3236089.       3274514.       3312467.
       3349906.       3386816.       3423197.       3459049.       3494384.
       3529193.       3563414.       3596962.       3629789.       3661902.
       3693321.       3724030.       3753982.       3783124.       3811439.
       3838927.       3865580.       3891368.       3916247.       3940184.
       3963163.       3985201.       4006331.       4026554.       4045844.
       4064193.       4081629.       4098174.       4113829.       4128573.
       4142378.       4155243.       4167198.       4178275.       4188489.
       4197858.       4206402.       4214122.       4220988.       4226952.
       4231991.       4236118.       4239359.       4241751.       4243340.
       4244122.       4244027.       4243002.       4241075.       4238308.
       4234727.       4230300.       4224964.       4218688.       4211499.
       4203439.       4194534.       4184778.       4174148.       4162622.
       4150179.       4136795.       4122460.       4107184.       4090989.
       4073894.       4055879.       4036887.       4016872.       3995809.
       3973680.       3950488.       3926293.       3901169.       3875136.
       3848159.       3820201.       3791245.       3761312.       3730455.
       3698703.       3666043.       3632481.       3598086.       3562947.
       3527130.       3490677.       3453608.       3415906.       3377551.
       3338571.       3299039.       3259013.       3218488.       3177398.
       3135677.       3093305.       3050311.       3006743.       2962637.
       2917988.       2872766.       2826941.       2780518.       2733526.
       2686002.       2637976.       2589467.       2540471.       2490991.
       2441062.       2390718.       2339957.       2288775.       2237197.
       2185257.       2132953.       2080252.       2027123.       1973548.
       1919514.       1864999.       1810002.       1754523.       1698527.
       1641976.       1584868.       1527222.       1469049.       1410362.
       1351155.       1291417.       1231181.       1170506.       1109419.
       1047913.       985968.0       923597.0       860867.0       797857.0
       734609.0       671149.0       607496.0       543658.0       479663.0
       415552.0       351335.0       287015.0       222637.0       158254.0
       93882.00       29520.00      -34804.00      -99047.00      -163192.0
      -227233.0      -291140.0      -354871.0      -418404.0      -481756.0
      -544954.0      -608002.0      -670882.0      -733575.0      -796089.0
      -858456.0      -920692.0      -982772.0      -1044661.      -1106347.
      -1167825.      -1229077.      -1290094.      -1350866.      -1411351.
      -1471490.      -1531254.      -1590636.      -1649610.      -1708145.
      -1766246.      -1823939.      -1881220.      -1938064.      -1994474.
      -2050475.      -2106096.      -2161345.      -2216191.      -2270609.
      -2324613.      -2378212.      -2431396.      -2484170.      -2536539.
      -2588479.      -2639951.      -2690933.      -2741416.      -2791398.
      -2840894.      -2889918.      -2938444.      -2986380.      -3033652.
      -3080251.      -3126188.      -3171442.      -3216005.      -3259894.
      -3303118.      -3345648.      -3387442.      -3428477.      -3468735.
      -3508187.      -3546791.      -3584522.      -3621402.      -3657485.
      -3692809.      -3727380.      -3761179.      -3794212.      -3826524.
      -3858189.      -3889267.      -3919785.      -3949743.      -3979116.
      -4007876.      -4036011.      -4063527.      -4090408.      -4116598.
      -4142037.      -4166679.      -4190484.      -4213411.      -4235407.
      -4256425.      -4276461.      -4295549.      -4313709.      -4330953.
      -4347319.      -4362847.      -4377552.      -4391440.      -4404515.
      -4416789.      -4428278.      -4438985.      -4448896.      -4458019.
      -4466392.      -4474049.      -4481003.      -4487234.      -4492684.
      -4497308.      -4501118.      -4504150.      -4506392.      -4507803.
      -4508367.      -4508081.      -4506946.      -4504982.      -4502190.
      -4498522.      -4493908.      -4488326.      -4481801.      -4474369.
      -4466072.      -4456947.      -4447013.      -4436276.      -4424739.
      -4412405.      -4399293.      -4385444.      -4370921.      -4355764.
      -4339960.      -4323477.      -4306324.      -4288530.      -4270072.
      -4250878.      -4230911.      -4210194.      -4188772.      -4166673.
      -4143915.      -4120505.      -4096420.      -4071597.      -4045994.
      -4019646.      -3992620.      -3964923.      -3936493.      -3907261.
      -3877204.      -3846340.      -3814697.      -3782302.      -3749153.
      -3715214.      -3680439.      -3644798.      -3608303.      -3571024.
      -3533033.      -3494356.      -3454974.      -3414843.      -3373921.
      -3332208.      -3289778.      -3246709.      -3203007.      -3158629.
      -3113546.      -3067767.      -3021331.      -2974290.      -2926685.
      -2878562.      -2829979.      -2780983.      -2731550.      -2681613.
      -2631184.      -2580373.      -2529285.      -2477907.      -2426143.
      -2373945.      -2321355.      -2268433.      -2215184.      -2161598.
      -2107703.      -2053536.      -1999075.      -1944281.      -1889175.
      -1833823.      -1778270.      -1722525.      -1666595.      -1610490.
      -1554209.      -1497770.      -1441226.      -1384652.      -1328078.
      -1271475.      -1214810.      -1158115.      -1101439.      -1044790.
      -988181.0      -931650.0      -875195.0      -818786.0      -762415.0
      -706107.0      -649872.0      -593675.0      -537474.0      -481269.0
      -425080.0      -368891.0      -312663.0      -256374.0      -200040.0
      -143689.0      -87315.00      -30875.00       25654.00       82237.00
       138844.0       195486.0       252175.0       308891.0       365595.0
       422248.0       478776.0       535069.0       591041.0       646684.0
       702033.0       757114.0       811910.0       866361.0       920404.0
       974006.0       1027175.       1079934.       1132299.       1184280.
       1235873.       1287064.       1337859.       1388287.       1438352.
       1488013.       1537216.       1585941.       1634196.       1681981.
       1729288.       1776116.       1822480.       1868404.       1913924.
       1959047.       2003721.       2047877.       2091516.       2134709.
       2177500.       2219863.       2261774.       2303289.       2344485.
       2385357.       2425818.       2465784.       2505229.       2544177.
       2582650.       2620653.       2658169.       2695167.       2731594.
       2767407.       2802609.       2837222.       2871244.       2904662.
       2937465.       2969632.       3001143.       3031989.       3062189.
       3091810.       3120916.       3149508.       3177579.       3205185.
       3232383.       3259167.       3285516.       3311458.       3337036.
       3362253.       3387117.       3411678.       3435963.       3459938.
       3483583.       3506930.       3530012.       3552802.       3575229.
       3597214.       3618727.       3639774.       3660361.       3680486.
       3700116.       3719175.       3737582.       3755308.       3772368.
       3788793.       3804582.       3819674.       3834001.       3847537.
       3860278.       3872236.       3883475.       3894038.       3903881.
       3912942.       3921222.       3928751.       3935533.       3941553.
       3946793.       3951228.       3954858.       3957738.       3959953.
       3961554.       3962557.       3962962.       3962760.       3961949.
       3960549.       3958591.       3956097.       3953084.       3949592.
       3945655.       3941258.       3936374.       3930993.       3925104.
       3918690.       3911766.       3904379.       3896550.       3888232.
       3879324.       3869745.       3859508.       3848676.       3837271.
       3825240.       3812518.       3799059.       3784822.       3769784.
       3753948.       3737300.       3719800.       3701444.       3682260.
       3662276.       3641539.       3620099.       3597986.       3575221.
       3551859.       3527984.       3503674.       3479007.       3454035.
       3428759.       3403171.       3377297.       3351179.       3324840.
       3298298.       3271539.       3244518.       3217221.       3189677.
       3161906.       3133889.       3105583.       3076927.       3047854.
       3018333.       2988385.       2958019.       2927212.       2895922.
       2864117.       2831795.       2798943.       2765525.       2731535.
       2697024.       2662023.       2626513.       2590486.       2553979.
       2517025.       2479608.       2441720.       2403449.       2364894.
       2326039.       2286821.       2247244.       2207376.       2167286.
       2126997.       2086491.       2045787.       2004968.       1964096.
       1923175.       1882212.       1841212.       1800151.       1759009.
       1717814.       1676643.       1635539.       1594446.       1553283.
       1512036.       1470726.       1429343.       1387889.       1346382.
       1304801.       1263078.       1221156.       1179041.       1136751.
       1094245.       1051452.       1008367.       965064.0       921568.0
       877821.0       833805.0       789574.0       745143.0       700493.0
       655667.0       610799.0       566011.0       521335.0       476768.0
       432323.0       388030.0       343922.0       300026.0       256361.0
