     0.05000000      -12345.00      -12345.00   1.716590e+09      -12345.00
   0.0001230000       3899.950      -423.0191      -12345.00      -12345.00
      -12345.00      -12345.00      -12345.00      -12345.00      -12345.00
      -12345.00      -12345.00      -12345.00      -12345.00      -12345.00
      -12345.00      -12345.00      -12345.00      -12345.00      -12345.00
      -12345.00      -12345.00      -12345.00      -12345.00      -12345.00
      -12345.00      -32.37970       20.81170       1770.000       0.000000
       3.412500       95.90120      -12345.00       26.10000      -12345.00
      -12345.00      -12345.00      -12345.00      -12345.00      -12345.00
      -12345.00      -12345.00      -12345.00      -12345.00      -12345.00
       8816.332       236.3194       79.03321       79.29069      -12345.00
      -12345.00      -12345.00       0.000000       0.000000      -12345.00
      -12345.00      -12345.00      -12345.00      -12345.00      -12345.00
      -12345.00      -12345.00      -12345.00      -12345.00      -12345.00
      2004       361         1         5        55
        19         6    -12345    -12345     78000
    -12345    -12345    -12345    -12345    -12345
         1    -12345    -12345    -12345    -12345
    -12345    -12345    -12345    -12345    -12345
    -12345    -12345    -12345    -12345    -12345
    -12345    -12345    -12345    -12345    -12345
         1    -12345    -12345    -12345    -12345
SUR     Off W Coast Of N
00      -12345  -12345  
-12345  -12345  -12345  
-12345  -12345  -12345  
-12345  -12345  -12345  
-12345  -12345  -12345  
-12345  -12345  BHZ     
II      -12345  Streckei
[...]
       455808.0       439329.0       422745.0       406057.0       389271.0
       372394.0       355432.0       338383.0       321244.0       304014.0
       286689.0       269264.0       251739.0       234115.0       216398.0
       198593.0       180697.0       162711.0       144644.0       126513.0
       108326.0       90093.00       71822.00       53524.00       35221.00
       16929.00      -1344.000      -19581.00      -37769.00      -55903.00
      -73974.00      -91964.00      -109858.0      -127645.0      -145319.0
      -162869.0      -180285.0      -197565.0      -214706.0      -231708.0
      -248571.0      -265291.0      -281870.0      -298314.0      -314623.0
      -330791.0      -346815.0      -362688.0      -378409.0      -393977.0
      -409391.0      -424646.0      -439738.0      -454672.0      -469452.0
      -484079.0      -498552.0      -512877.0      -527056.0      -541065.0
      -554888.0      -568526.0      -581971.0      -595208.0      -608229.0
      -621025.0      -633592.0      -645933.0      -658049.0      -669933.0
      -681586.0      -693008.0      -704191.0      -715128.0      -725815.0
      -736247.0      -746417.0      -756327.0      -765978.0      -775375.0
      -784523.0      -793420.0      -802065.0      -810456.0      -818596.0
      -826482.0      -834116.0      -841506.0      -848658.0      -855574.0
      -862255.0      -868704.0      -874923.0      -880908.0      -886654.0
      -892156.0      -897403.0      -902386.0      -907090.0      -911507.0
      -915633.0      -919455.0      -922958.0      -926141.0      -929007.0
      -931546.0      -933762.0      -935657.0      -937226.0      -938464.0
      -939374.0      -939956.0      -940201.0      -940108.0      -939684.0
      -938938.0      -937876.0      -936501.0      -934814.0      -932829.0
      -930555.0      -927990.0      -925130.0      -921977.0      -918532.0
      -914800.0      -910777.0      -906461.0      -901853.0      -896964.0
      -891802.0      -886376.0      -880689.0      -874751.0      -868579.0
      -862182.0      -855567.0      -848736.0      -841690.0      -834425.0
      -826944.0      -819261.0      -811383.0      -803316.0      -795067.0
      -786642.0      -778042.0      -769270.0      -760330.0      -751224.0
      -741946.0      -732494.0      -722876.0      -713095.0      -703145.0
      -693026.0      -682741.0      -672284.0      -661658.0      -650870.0
      -639923.0      -628815.0      -617553.0      -606151.0      -594614.0
      -582946.0      -571149.0      -559224.0      -547166.0      -534969.0
      -522639.0      -510185.0      -497608.0      -484906.0      -472080.0
      -459131.0      -446051.0      -432833.0      -419476.0      -405987.0
      -392366.0      -378614.0      -364729.0      -350720.0      -336599.0
      -322367.0      -308027.0      -293605.0      -279127.0      -264584.0
      -249972.0      -235314.0      -220641.0      -205974.0      -191328.0
      -176720.0      -162159.0      -147654.0      -133209.0      -118823.0
      -104493.0      -90225.00      -76016.00      -61869.00      -47796.00
      -33802.00      -19889.00      -6068.000       7654.000       21273.00
       34788.00       48196.00       61494.00       74683.00       87784.00
       100799.0       113707.0       126507.0       139205.0       151796.0
       164272.0       176631.0       188870.0       200984.0       212969.0
       224816.0       236519.0       248076.0       259481.0       270715.0
       281766.0       292637.0       303317.0       313794.0       324064.0
       334126.0       343977.0       353614.0       363033.0       372228.0
       381197.0       389938.0       398441.0       406705.0       414735.0
       422530.0       430081.0       437380.0       444415.0       451179.0
       457662.0       463852.0       469739.0       475310.0       480561.0
       485496.0       490102.0       494362.0       498287.0       501894.0
       505183.0       508149.0       510797.0       513139.0       515179.0
       516922.0       518372.0       519532.0       520404.0       520989.0
       521292.0       521310.0       521045.0       520508.0       519709.0
       518644.0       517311.0       515715.0       513858.0       511733.0
       509340.0       506683.0       503749.0       500529.0       497025.0
       493238.0       489169.0       484807.0       480146.0       475200.0
       469985.0       464503.0       458749.0       452724.0       446431.0
       439862.0       433009.0       425866.0       418441.0       410734.0
       402741.0       394466.0       385925.0       377124.0       368069.0
       358769.0       349240.0       339500.0       329554.0       319406.0
       309061.0       298523.0       287795.0       276889.0       265815.0
       254571.0       243161.0       231594.0       219870.0       207977.0
       195914.0       183685.0       171288.0       158715.0       145969.0
       133053.0       119973.0       106732.0       93333.00       79780.00
       66087.00       52264.00       38315.00       24248.00       10069.00
      -4218.000      -18606.00      -33088.00      -47662.00      -62329.00
      -77088.00      -91945.00      -106903.0      -121964.0      -137132.0
      -152410.0      -167796.0      -183281.0      -198862.0      -214533.0
      -230294.0      -246148.0      -262095.0      -278128.0      -294258.0
      -310494.0      -326826.0      -343246.0      -359757.0      -376355.0
      -393028.0      -409762.0      -426550.0      -443381.0      -460238.0
      -477107.0      -493984.0      -510869.0      -527759.0      -544652.0
      -561543.0      -578426.0      -595290.0      -612126.0      -628927.0
      -645683.0      -662379.0      -678999.0      -695536.0      -711990.0
      -728358.0      -744629.0      -760803.0      -776884.0      -792859.0
      -808711.0      -824434.0      -840018.0      -855450.0      -870724.0
      -885835.0      -900773.0      -915539.0      -930137.0      -944573.0
      -958850.0      -972971.0      -986938.0      -1000744.      -1014390.
      -1027876.      -1041192.      -1054332.      -1067297.      -1080086.
      -1092688.      -1105099.      -1117318.      -1129344.      -1141169.
      -1152790.      -1164204.      -1175405.      -1186392.      -1197157.
      -1207693.      -1217989.      -1228041.      -1237838.      -1247367.
      -1256616.      -1265578.      -1274243.      -1282613.      -1290693.
      -1298485.      -1305985.      -1313188.      -1320097.      -1326714.
      -1333025.      -1339020.      -1344697.      -1350063.      -1355120.
      -1359872.      -1364318.      -1368457.      -1372293.      -1375820.
      -1379025.      -1381901.      -1384443.      -1386643.      -1388493.
      -1390000.      -1391168.      -1392000.      -1392501.      -1392677.
      -1392530.      -1392055.      -1391248.      -1390111.      -1388646.
      -1386857.      -1384744.      -1382305.      -1379543.      -1376467.
      -1373079.      -1369374.      -1365357.      -1361031.      -1356391.
      -1351428.      -1346148.      -1340558.      -1334657.      -1328445.
      -1321917.      -1315067.      -1307890.      -1300380.      -1292537.
      -1284356.      -1275839.      -1266983.      -1257789.      -1248262.
      -1238402.      -1228209.      -1217683.      -1206827.      -1195649.
      -1184153.      -1172341.      -1160207.      -1147753.      -1134985.
      -1121907.      -1108524.      -1094845.      -1080877.      -1066627.
      -1052100.      -1037295.      -1022216.      -1006862.      -991232.0
      -975326.0      -959146.0      -942696.0      -925968.0      -908947.0
      -891634.0      -874044.0      -856184.0      -838048.0      -819645.0
      -800980.0      -782052.0      -762862.0      -743414.0      -723711.0
      -703757.0      -683551.0      -663090.0      -642394.0      -621468.0
      -600301.0      -578890.0      -557243.0      -535377.0      -513312.0
      -491055.0      -468621.0      -446034.0      -423313.0      -400476.0
      -377543.0      -354530.0      -331434.0      -308260.0      -285022.0
      -261724.0      -238370.0      -214982.0      -191580.0      -168173.0
      -144775.0      -121403.0      -98067.00      -74768.00      -51504.00
      -28272.00      -5072.000       18102.00       41256.00       64397.00
       87517.00       110617.0       133701.0       156765.0       179803.0
       202818.0       225806.0       248761.0       271686.0       294576.0
       317421.0       340216.0       362960.0       385652.0       408288.0
       430871.0       453402.0       475874.0       498282.0       520619.0
       542874.0       565043.0       587116.0       609073.0       630902.0
       652595.0       674141.0       695534.0       716769.0       737835.0
       758722.0       779425.0       799952.0       820284.0       840389.0
       860267.0       879938.0       899398.0       918637.0       937646.0
       956420.0       974952.0       993238.0       1011270.       1029039.
       1046536.       1063750.       1080669.       1097281.       1113574.
       1129540.       1145174.       1160469.       1175410.       1189989.
       1204197.       1218025.       1231464.       1244509.       1257162.
       1269427.       1281303.       1292781.       1303862.       1314549.
       1324833.       1334704.       1344147.       1353156.       1361736.
       1369882.       1377586.       1384856.       1391697.       1398104.
       1404073.       1409602.       1414691.       1419341.       1423555.
       1427337.       1430694.       1433636.       1436176.       1438305.
       1440007.       1441296.       1442186.       1442667.       1442727.
       1442363.       1441562.       1440316.       1438621.       1436470.
       1433849.       1430753.       1427190.       1423163.       1418667.
       1413706.       1408295.       1402445.       1396159.       1389442.
       1382304.       1374745.       1366766.       1358368.       1349556.
       1340342.       1330733.       1320730.       1310342.       1299582.
       1288456.       1276974.       1265146.       1252975.       1240471.
       1227644.       1214499.       1201036.       1187255.       1173163.
       1158764.       1144058.       1129037.       1113696.       1098037.
       1082052.       1065726.       1049058.       1032051.       1014696.
       996985.0       978920.0       960506.0       941743.0       922636.0
       903195.0       883419.0       863313.0       842883.0       822130.0
       801059.0       779683.0       758000.0       736003.0       713700.0
       691094.0       668181.0       644969.0       621461.0       597658.0
       573567.0       549196.0       524551.0       499638.0       474469.0
       449055.0       423404.0       397527.0       371424.0       345097.0
       318560.0       291824.0       264895.0       237785.0       210509.0
       183075.0       155490.0       127766.0       99900.00       71898.00
       43772.00       15531.00      -12824.00      -41289.00      -69858.00
      -98522.00      -127271.0      -156098.0      -185002.0      -213991.0
      -243056.0      -272183.0      -301372.0      -330624.0      -359927.0
      -389269.0      -418648.0      -448062.0      -477501.0      -506957.0
      -536417.0      -565866.0      -595293.0      -624688.0      -654036.0
      -683323.0      -712544.0      -741688.0      -770744.0      -799705.0
      -828554.0      -857272.0      -885848.0      -914270.0      -942527.0
      -970608.0      -998508.0      -1026222.      -1053746.      -1081073.
      -1108194.      -1135107.      -1161805.      -1188279.      -1214521.
      -1240527.      -1266295.      -1291823.      -1317114.      -1342163.
      -1366962.      -1391510.      -1415808.      -1439852.      -1463640.
      -1487169.      -1510430.      -1533411.      -1556097.      -1578481.
      -1600563.      -1622347.      -1643826.      -1664991.      -1685844.
      -1706386.      -1726613.      -1746523.      -1766115.      -1785384.
      -1804320.      -1822908.      -1841144.      -1859018.      -1876520.
      -1893640.      -1910376.      -1926726.      -1942681.      -1958240.
      -1973401.      -1988155.      -2002502.      -2016448.      -2029981.
      -2043090.      -2055780.      -2068055.      -2079910.      -2091345.
      -2102356.      -2112941.      -2123099.      -2132827.      -2142123.
      -2150993.      -2159443.      -2167471.      -2175083.      -2182280.
      -2189053.      -2195390.      -2201289.      -2206744.      -2211751.
      -2216305.      -2220406.      -2224057.      -2227264.      -2230021.
      -2232319.      -2234161.      -2235550.      -2236476.      -2236933.
      -2236929.      -2236467.      -2235550.      -2234179.      -2232357.
      -2230098.      -2227406.      -2224275.      -2220705.      -2216700.
      -2212258.      -2207379.      -2202062.      -2196305.      -2190112.
      -2183491.      -2176443.      -2168976.      -2161100.      -2152819.
      -2144142.      -2135075.      -2125624.      -2115795.      -2105593.
      -2095025.      -2084102.      -2072829.      -2061210.      -2049250.
      -2036951.      -2024316.      -2011346.      -1998045.      -1984421.
      -1970478.      -1956217.      -1941639.      -1926744.      -1911536.
      -1896011.      -1880166.      -1863996.      -1847506.      -1830702.
      -1813577.      -1796126.      -1778360.      -1760290.      -1741912.
      -1723223.      -1704233.      -1684943.      -1665352.      -1645461.
      -1625274.      -1604802.      -1584056.      -1563047.      -1541780.
      -1520273.      -1498544.      -1476605.      -1454463.      -1432126.
      -1409602.      -1386901.      -1364032.      -1340994.      -1317787.
      -1294418.      -1270895.      -1247223.      -1223406.      -1199450.
      -1175363.      -1151147.      -1126804.      -1102338.      -1077755.
      -1053057.      -1028244.      -1003318.      -978276.0      -953124.0
      -927865.0      -902493.0      -877017.0      -851479.0      -825890.0
      -800233.0      -774515.0      -748769.0      -723011.0      -697245.0
      -671486.0      -645745.0      -620025.0      -594335.0      -568690.0
      -543094.0      -517549.0      -492065.0      -466645.0      -441285.0
      -415989.0      -390757.0      -365589.0      -340486.0      -315451.0
      -290489.0      -265610.0      -240816.0      -216115.0      -191520.0
      -167034.0      -142666.0      -118432.0      -94342.00      -70403.00
      -46628.00      -23028.00       392.0000       23622.00       46653.00
       69481.00       92106.00       114521.0       136724.0       158714.0
       180484.0       202032.0       223352.0       244434.0       265272.0
       285865.0       306207.0       326287.0       346108.0       365671.0
       384964.0       403979.0       422722.0       441196.0       459400.0
       477333.0       494995.0       512384.0       529496.0       546322.0
       562860.0       579105.0       595057.0       610720.0       626101.0
       641206.0       656033.0       670574.0       684832.0       698823.0
       712527.0       725904.0       738964.0       751739.0       764212.0
       776371.0       788220.0       799760.0       810984.0       821883.0
       832452.0       842685.0       852568.0       862100.0       871280.0
       880102.0       888558.0       896643.0       904349.0       911676.0
       918614.0       925155.0       931303.0       937058.0       942415.0
       947379.0       951961.0       956162.0       959978.0       963416.0
       966480.0       969177.0       971507.0       973472.0       975073.0
       976314.0       977195.0       977717.0       977882.0       977691.0
       977143.0       976233.0       974960.0       973318.0       971304.0
       968921.0       966168.0       963043.0       959547.0       955694.0
       951490.0       946925.0       941990.0       936698.0       931063.0
       925084.0       918756.0       912079.0       905055.0       897684.0
       889964.0       881906.0       873519.0       864803.0       855768.0
       846426.0       836785.0       826846.0       816611.0       806084.0
       795271.0       784171.0       772780.0       761098.0       749130.0
       736872.0       724323.0       711486.0       698368.0       684971.0
       671298.0       657356.0       643155.0       628702.0       614002.0
       599055.0       583861.0       568419.0       552735.0       536831.0
       520747.0       504531.0       488236.0       471904.0       455563.0
       439219.0       422860.0       406460.0       389995.0       373447.0
       356798.0       340041.0       323178.0       306223.0       289188.0
       272083.0       254916.0       237694.0       220405.0       203037.0
       185588.0       168067.0       150481.0       132843.0       115173.0
       97491.00       79803.00       62111.00       44416.00       26725.00
       9036.000      -8650.000      -26317.00      -43946.00      -61518.00
      -79017.00      -96432.00      -113752.0      -130978.0      -148119.0
      -165189.0      -182196.0      -199132.0      -215981.0      -232719.0
      -249316.0      -265754.0      -282023.0      -298124.0      -314065.0
      -329845.0      -345456.0      -360894.0      -376163.0      -391265.0
      -406202.0      -420971.0      -435568.0      -449991.0      -464241.0
      -478323.0      -492237.0      -505971.0      -519531.0      -532924.0
      -546151.0      -559206.0      -572088.0      -584799.0      -597327.0
      -609650.0      -621738.0      -633564.0      -645096.0      -656313.0
      -667205.0      -677772.0      -688015.0      -697951.0      -707601.0
      -716987.0      -726121.0      -735000.0      -743617.0      -751962.0
      -760027.0      -767813.0      -775327.0      -782573.0      -789549.0
      -796237.0      -802598.0      -808601.0      -814253.0      -819573.0
      -824578.0      -829279.0      -833681.0      -837777.0      -841561.0
      -845027.0      -848181.0      -851029.0      -853568.0      -855790.0
      -857701.0      -859314.0      -860642.0      -861704.0      -862519.0
      -863090.0      -863417.0      -863497.0      -863338.0      -862949.0
