     0.02500007      -12345.00      -12345.00   1.344610e+09      -12345.00
   5.900000e-05       3899.986      -423.0091      -12345.00      -12345.00
      -12345.00      -12345.00      -12345.00      -12345.00      -12345.00
      -12345.00      -12345.00      -12345.00      -12345.00      -12345.00
      -12345.00      -12345.00      -12345.00      -12345.00      -12345.00
      -12345.00      -12345.00      -12345.00      -12345.00      -12345.00
      -12345.00      -32.37970       20.81170       1770.000       0.000000
       3.412500       95.90120      -12345.00       26.10000      -12345.00
      -12345.00      -12345.00      -12345.00      -12345.00      -12345.00
      -12345.00      -12345.00      -12345.00      -12345.00      -12345.00
       8816.332       236.3194       79.03321       79.29069      -12345.00
      -12345.00      -12345.00       0.000000       0.000000      -12345.00
      -12345.00      -12345.00      -12345.00      -12345.00      -12345.00
      -12345.00      -12345.00      -12345.00      -12345.00      -12345.00
      2004       361         1         5        55
         9         6    -12345    -12345    156000
    -12345    -12345    -12345    -12345    -12345
         1    -12345    -12345    -12345    -12345
    -12345    -12345    -12345    -12345    -12345
    -12345    -12345    -12345    -12345    -12345
    -12345    -12345    -12345    -12345    -12345
         1    -12345    -12345    -12345    -12345
SUR     Off W Coast Of N
10      -12345  -12345  
-12345  -12345  -12345  
-12345  -12345  -12345  
-12345  -12345  -12345  
-12345  -12345  -12345  
-12345  -12345  BHZ     
II      -12345  Streckei
[...]
      -8096.000      -9965.000      -11901.00      -13918.00      -16013.00
      -18192.00      -20463.00      -22829.00      -25275.00      -27790.00
      -30364.00      -32977.00      -35623.00      -38297.00      -40976.00
      -43656.00      -46349.00      -49054.00      -51754.00      -54437.00
      -57107.00      -59774.00      -62424.00      -65032.00      -67587.00
      -70086.00      -72516.00      -74854.00      -77084.00      -79205.00
      -81201.00      -83055.00      -84755.00      -86304.00      -87704.00
      -88943.00      -90006.00      -90894.00      -91610.00      -92143.00
      -92492.00      -92668.00      -92674.00      -92513.00      -92206.00
      -91768.00      -91204.00      -90528.00      -89772.00      -88959.00
      -88101.00      -87226.00      -86373.00      -85560.00      -84792.00
      -84082.00      -83436.00      -82841.00      -82296.00      -81805.00
      -81347.00      -80898.00      -80457.00      -80018.00      -79561.00
      -79061.00      -78506.00      -77895.00      -77211.00      -76423.00
      -75520.00      -74510.00      -73395.00      -72183.00      -70890.00
      -69530.00      -68129.00      -66724.00      -65350.00      -64042.00
      -62828.00      -61727.00      -60771.00      -59995.00      -59411.00
      -59019.00      -58818.00      -58799.00      -58961.00      -59297.00
      -59791.00      -60421.00      -61171.00      -62022.00      -62942.00
      -63902.00      -64877.00      -65835.00      -66741.00      -67573.00
      -68330.00      -69008.00      -69599.00      -70126.00      -70620.00
      -71104.00      -71606.00      -72158.00      -72784.00      -73498.00
      -74312.00      -75235.00      -76284.00      -77472.00      -78795.00
      -80242.00      -81813.00      -83496.00      -85264.00      -87103.00
      -89004.00      -90937.00      -92867.00      -94767.00      -96615.00
      -98378.00      -100018.0      -101502.0      -102795.0      -103874.0
      -104731.0      -105355.0      -105735.0      -105885.0      -105832.0
      -105582.0      -105140.0      -104544.0      -103827.0      -103008.0
      -102118.0      -101193.0      -100261.0      -99346.00      -98466.00
      -97635.00      -96877.00      -96211.00      -95634.00      -95143.00
      -94762.00      -94500.00      -94334.00      -94249.00      -94245.00
      -94311.00      -94420.00      -94553.00      -94689.00      -94796.00
      -94850.00      -94820.00      -94671.00      -94392.00      -93980.00
      -93426.00      -92734.00      -91919.00      -91004.00      -90012.00
      -88959.00      -87853.00      -86707.00      -85540.00      -84372.00
      -83214.00      -82077.00      -80969.00      -79896.00      -78870.00
      -77902.00      -76983.00      -76100.00      -75245.00      -74420.00
      -73625.00      -72850.00      -72075.00      -71295.00      -70512.00
      -69718.00      -68912.00      -68084.00      -67221.00      -66329.00
      -65422.00      -64490.00      -63516.00      -62511.00      -61485.00
      -60441.00      -59394.00      -58369.00      -57370.00      -56398.00
      -55461.00      -54577.00      -53751.00      -52968.00      -52217.00
      -51493.00      -50798.00      -50126.00      -49467.00      -48814.00
      -48169.00      -47539.00      -46928.00      -46325.00      -45718.00
      -45110.00      -44503.00      -43887.00      -43259.00      -42620.00
      -41963.00      -41286.00      -40588.00      -39864.00      -39105.00
      -38316.00      -37505.00      -36675.00      -35826.00      -34975.00
      -34136.00      -33327.00      -32562.00      -31843.00      -31168.00
      -30540.00      -29952.00      -29405.00      -28900.00      -28427.00
      -27971.00      -27531.00      -27120.00      -26738.00      -26372.00
      -26028.00      -25716.00      -25437.00      -25176.00      -24920.00
      -24672.00      -24428.00      -24166.00      -23871.00      -23544.00
      -23180.00      -22775.00      -22324.00      -21825.00      -21285.00
      -20716.00      -20136.00      -19556.00      -18984.00      -18445.00
      -17966.00      -17552.00      -17203.00      -16922.00      -16711.00
      -16565.00      -16473.00      -16411.00      -16357.00      -16304.00
      -16241.00      -16151.00      -16020.00      -15840.00      -15602.00
      -15298.00      -14913.00      -14432.00      -13855.00      -13183.00
      -12409.00      -11528.00      -10557.00      -9513.000      -8403.000
      -7233.000      -6014.000      -4761.000      -3481.000      -2190.000
      -917.0000       318.0000       1518.000       2668.000       3746.000
       4747.000       5668.000       6495.000       7213.000       7816.000
       8296.000       8647.000       8872.000       8976.000       8953.000
       8805.000       8555.000       8216.000       7789.000       7305.000
       6812.000       6344.000       5918.000       5552.000       5274.000
       5098.000       5023.000       5050.000       5179.000       5402.000
       5699.000       6055.000       6458.000       6878.000       7287.000
       7671.000       8006.000       8271.000       8461.000       8572.000
       8599.000       8545.000       8413.000       8205.000       7930.000
       7602.000       7235.000       6837.000       6421.000       6003.000
       5596.000       5209.000       4852.000       4541.000       4294.000
       4121.000       4022.000       4006.000       4092.000       4288.000
       4594.000       5013.000       5547.000       6196.000       6958.000
       7828.000       8798.000       9855.000       10993.00       12206.00
       13483.00       14813.00       16188.00       17607.00       19066.00
       20550.00       22054.00       23579.00       25106.00       26603.00
       28055.00       29454.00       30777.00       31999.00       33107.00
       34085.00       34925.00       35632.00       36221.00       36703.00
       37088.00       37390.00       37636.00       37856.00       38060.00
       38261.00       38488.00       38759.00       39076.00       39452.00
       39892.00       40386.00       40920.00       41473.00       42021.00
       42539.00       43009.00       43419.00       43752.00       43991.00
       44131.00       44170.00       44102.00       43928.00       43648.00
       43255.00       42746.00       42136.00       41436.00       40645.00
       39769.00       38813.00       37782.00       36679.00       35508.00
       34281.00       33004.00       31690.00       30356.00       29025.00
       27722.00       26471.00       25281.00       24156.00       23110.00
       22148.00       21269.00       20484.00       19812.00       19259.00
       18818.00       18483.00       18251.00       18121.00       18077.00
       18104.00       18194.00       18329.00       18493.00       18684.00
       18909.00       19164.00       19446.00       19763.00       20120.00
       20523.00       20982.00       21505.00       22101.00       22787.00
       23577.00       24471.00       25471.00       26587.00       27818.00
       29144.00       30551.00       32021.00       33535.00       35082.00
       36649.00       38218.00       39781.00       41333.00       42869.00
       44387.00       45885.00       47359.00       48808.00       50228.00
       51606.00       52929.00       54186.00       55368.00       56477.00
       57513.00       58469.00       59351.00       60175.00       60939.00
       61642.00       62285.00       62868.00       63380.00       63820.00
       64192.00       64490.00       64712.00       64867.00       64952.00
       64960.00       64901.00       64778.00       64588.00       64341.00
       64044.00       63688.00       63269.00       62807.00       62308.00
       61762.00       61178.00       60589.00       60011.00       59443.00
       58907.00       58436.00       58050.00       57760.00       57581.00
       57531.00       57631.00       57890.00       58309.00       58902.00
       59679.00       60641.00       61786.00       63117.00       64632.00
       66315.00       68151.00       70117.00       72177.00       74301.00
       76468.00       78642.00       80777.00       82863.00       84897.00
       86859.00       88725.00       90485.00       92132.00       93653.00
       95036.00       96279.00       97382.00       98345.00       99177.00
       99896.00       100508.0       101017.0       101431.0       101760.0
       102002.0       102158.0       102241.0       102255.0       102183.0
       102029.0       101805.0       101499.0       101091.0       100562.0
       99905.00       99116.00       98196.00       97156.00       96021.00
       94816.00       93556.00       92267.00       90996.00       89784.00
       88648.00       87601.00       86657.00       85819.00       85082.00
       84447.00       83894.00       83400.00       82950.00       82528.00
       82112.00       81690.00       81256.00       80792.00       80287.00
       79737.00       79140.00       78489.00       77780.00       77013.00
       76197.00       75341.00       74446.00       73520.00       72580.00
       71638.00       70695.00       69753.00       68812.00       67862.00
       66897.00       65917.00       64926.00       63925.00       62909.00
       61879.00       60841.00       59801.00       58760.00       57731.00
       56724.00       55731.00       54746.00       53776.00       52822.00
       51877.00       50947.00       50041.00       49159.00       48301.00
       47473.00       46683.00       45927.00       45195.00       44490.00
       43816.00       43193.00       42642.00       42185.00       41839.00
       41636.00       41602.00       41750.00       42080.00       42589.00
       43276.00       44131.00       45142.00       46286.00       47535.00
       48865.00       50229.00       51583.00       52898.00       54134.00
       55242.00       56191.00       56955.00       57493.00       57774.00
       57788.00       57535.00       57007.00       56199.00       55132.00
       53841.00       52348.00       50676.00       48865.00       46949.00
       44946.00       42880.00       40781.00       38681.00       36597.00
       34552.00       32569.00       30665.00       28851.00       27147.00
       25575.00       24141.00       22840.00       21677.00       20660.00
       19781.00       19031.00       18401.00       17884.00       17471.00
       17164.00       16958.00       16835.00       16771.00       16750.00
       16755.00       16763.00       16754.00       16721.00       16662.00
       16573.00       16456.00       16330.00       16201.00       16071.00
       15940.00       15818.00       15699.00       15562.00       15395.00
       15187.00       14923.00       14590.00       14186.00       13711.00
       13169.00       12555.00       11853.00       11053.00       10147.00
       9115.000       7936.000       6585.000       5050.000       3326.000
       1406.000      -709.0000      -2999.000      -5433.000      -7985.000
      -10624.00      -13310.00      -16007.00      -18684.00      -21320.00
      -23886.00      -26359.00      -28724.00      -30969.00      -33084.00
      -35064.00      -36911.00      -38638.00      -40257.00      -41776.00
      -43205.00      -44557.00      -45841.00      -47064.00      -48235.00
      -49362.00      -50452.00      -51529.00      -52621.00      -53742.00
      -54893.00      -56075.00      -57282.00      -58504.00      -59717.00
      -60900.00      -62043.00      -63134.00      -64148.00      -65078.00
      -65924.00      -66675.00      -67329.00      -67900.00      -68395.00
      -68819.00      -69184.00      -69500.00      -69758.00      -69950.00
      -70074.00      -70133.00      -70128.00      -70067.00      -69962.00
      -69816.00      -69631.00      -69423.00      -69220.00      -69033.00
      -68867.00      -68729.00      -68634.00      -68586.00      -68579.00
      -68613.00      -68680.00      -68763.00      -68856.00      -68958.00
      -69059.00      -69144.00      -69213.00      -69265.00      -69286.00
      -69271.00      -69243.00      -69230.00      -69239.00      -69278.00
      -69374.00      -69545.00      -69793.00      -70120.00      -70538.00
      -71054.00      -71665.00      -72370.00      -73182.00      -74112.00
      -75167.00      -76350.00      -77659.00      -79092.00      -80651.00
      -82338.00      -84147.00      -86053.00      -88049.00      -90141.00
      -92322.00      -94571.00      -96886.00      -99274.00      -101734.0
      -104259.0      -106838.0      -109465.0      -112128.0      -114807.0
      -117482.0      -120123.0      -122672.0      -125152.0      -127655.0
      -129851.0      -131029.0      -131072.0      -131049.0      -131050.0
      -131072.0      -131072.0      -131072.0      -131072.0      -131072.0
      -131072.0      -131072.0      -131072.0      -131072.0      -131072.0
      -131072.0      -131072.0      -131072.0      -131072.0      -131072.0
      -131072.0      -131072.0      -131072.0      -131072.0      -131072.0
      -131072.0      -131072.0      -131072.0      -131072.0      -131072.0
      -131072.0      -131072.0      -131072.0      -131072.0      -131072.0
      -131072.0      -131072.0      -131072.0      -131072.0      -131072.0
      -131072.0      -131071.0      -131068.0      -131072.0      -131072.0
      -130985.0      -130773.0      -130564.0      -130451.0      -130418.0
      -130434.0      -130484.0      -130551.0      -130603.0      -130611.0
      -130552.0      -130403.0      -130138.0      -129735.0      -129171.0
      -128433.0      -127520.0      -126437.0      -125200.0      -123823.0
      -122324.0      -120737.0      -119104.0      -117450.0      -115809.0
      -114223.0      -112724.0      -111326.0      -110049.0      -108919.0
      -107940.0      -107105.0      -106398.0      -105805.0      -105312.0
      -104888.0      -104495.0      -104101.0      -103680.0      -103201.0
      -102627.0      -101928.0      -101092.0      -100109.0      -98966.00
      -97666.00      -96220.00      -94647.00      -92971.00      -91214.00
      -89400.00      -87556.00      -85710.00      -83887.00      -82103.00
      -80379.00      -78746.00      -77231.00      -75846.00      -74596.00
      -73488.00      -72527.00      -71708.00      -71019.00      -70448.00
      -69990.00      -69650.00      -69428.00      -69313.00      -69293.00
      -69382.00      -69592.00      -69910.00      -70331.00      -70870.00
      -71529.00      -72300.00      -73178.00      -74157.00      -75241.00
      -76438.00      -77762.00      -79223.00      -80829.00      -82577.00
      -84463.00      -86479.00      -88595.00      -90785.00      -93039.00
      -95329.00      -97609.00      -99842.00      -102009.0      -104076.0
      -106018.0      -107812.0      -109449.0      -110919.0      -112209.0
      -113316.0      -114249.0      -115013.0      -115608.0      -116030.0
      -116276.0      -116339.0      -116204.0      -115870.0      -115340.0
      -114606.0      -113665.0      -112525.0      -111190.0      -109657.0
      -107935.0      -106034.0      -103956.0      -101714.0      -99327.00
      -96805.00      -94169.00      -91447.00      -88666.00      -85855.00
      -83043.00      -80270.00      -77588.00      -75039.00      -72649.00
      -70458.00      -68510.00      -66832.00      -65425.00      -64288.00
      -63427.00      -62839.00      -62502.00      -62398.00      -62515.00
      -62832.00      -63323.00      -63972.00      -64766.00      -65687.00
      -66722.00      -67853.00      -69053.00      -70299.00      -71580.00
      -72877.00      -74159.00      -75412.00      -76627.00      -77786.00
      -78872.00      -79880.00      -80807.00      -81638.00      -82348.00
      -82926.00      -83371.00      -83676.00      -83832.00      -83833.00
      -83666.00      -83317.00      -82781.00      -82046.00      -81087.00
      -79879.00      -78407.00      -76667.00      -74647.00      -72338.00
      -69745.00      -66879.00      -63750.00      -60370.00      -56751.00
      -52912.00      -48878.00      -44673.00      -40324.00      -35851.00
      -31275.00      -26627.00      -21938.00      -17233.00      -12526.00
      -7827.000      -3147.000       1508.000       6151.000       10798.00
       15451.00       20125.00       24836.00       29578.00       34338.00
       39116.00       43905.00       48684.00       53425.00       58109.00
       62711.00       67198.00       71535.00       75685.00       79626.00
       83326.00       86755.00       89902.00       92771.00       95363.00
       97687.00       99765.00       101621.0       103272.0       104745.0
       106063.0       107236.0       108279.0       109203.0       110018.0
       110732.0       111342.0       111839.0       112229.0       112506.0
       112651.0       112634.0       112434.0       112035.0       111418.0
       110569.0       109485.0       108162.0       106609.0       104849.0
       102897.0       100775.0       98525.00       96181.00       93766.00
       91308.00       88843.00       86394.00       83980.00       81622.00
       79345.00       77169.00       75110.00       73178.00       71380.00
       69721.00       68205.00       66838.00       65630.00       64583.00
       63703.00       63007.00       62507.00       62206.00       62117.00
       62271.00       62687.00       63372.00       64339.00       65601.00
       67149.00       68961.00       71017.00       73303.00       75801.00
       78479.00       81310.00       84275.00       87347.00       90483.00
       93652.00       96835.00       99996.00       103105.0       106146.0
       109093.0       111925.0       114627.0       117186.0       119592.0
       121829.0       123881.0       125730.0       127365.0       128805.0
       130031.0       130846.0       131071.0       131070.0       131043.0
       131071.0       131025.0       130413.0       129241.0       127753.0
       126089.0       124262.0       122305.0       120284.0       118259.0
       116286.0       114412.0       112673.0       111102.0       109732.0
       108585.0       107663.0       106968.0       106503.0       106261.0
       106221.0       106363.0       106661.0       107082.0       107592.0
