     0.05000000      -12345.00      -12345.00   1.836890e+09      -12345.00
   0.0003570000       3899.950      -340.0314      -12345.00      -12345.00
      -12345.00      -12345.00      -12345.00      -12345.00      -12345.00
      -12345.00      -12345.00      -12345.00      -12345.00      -12345.00
      -12345.00      -12345.00      -12345.00      -12345.00      -12345.00
      -12345.00      -12345.00      -12345.00      -12345.00      -12345.00
      -12345.00      -42.90990       147.3204       132.0000       0.000000
       3.412500       95.90120      -12345.00       26.10000      -12345.00
      -12345.00      -12345.00      -12345.00      -12345.00      -12345.00
      -12345.00      -12345.00      -12345.00      -12345.00      -12345.00
       7264.966       140.8035       300.8307       65.33830      -12345.00
      -12345.00      -12345.00       0.000000       0.000000      -12345.00
      -12345.00      -12345.00      -12345.00      -12345.00      -12345.00
      -12345.00      -12345.00      -12345.00      -12345.00      -12345.00
      2004       361         1         4        32
        31         6    -12345    -12345     78000
    -12345    -12345    -12345    -12345    -12345
         1    -12345    -12345    -12345    -12345
    -12345    -12345    -12345    -12345    -12345
    -12345    -12345    -12345    -12345    -12345
    -12345    -12345    -12345    -12345    -12345
         1    -12345    -12345    -12345    -12345
TAU     Off W Coast Of N
00      -12345  -12345  
-12345  -12345  -12345  
-12345  -12345  -12345  
-12345  -12345  -12345  
-12345  -12345  -12345  
-12345  -12345  BHZ     
II      -12345  Streckei
[...]
      -511833.0      -511480.0      -511005.0      -510411.0      -509692.0
      -508829.0      -507811.0      -506636.0      -505297.0      -503782.0
      -502083.0      -500195.0      -498121.0      -495874.0      -493464.0
      -490891.0      -488163.0      -485294.0      -482292.0      -479169.0
      -475930.0      -472575.0      -469109.0      -465551.0      -461910.0
      -458191.0      -454401.0      -450538.0      -446598.0      -442584.0
      -438497.0      -434341.0      -430121.0      -425838.0      -421485.0
      -417056.0      -412547.0      -407958.0      -403286.0      -398527.0
      -393678.0      -388743.0      -383728.0      -378630.0      -373447.0
      -368191.0      -362865.0      -357461.0      -351975.0      -346412.0
      -340781.0      -335081.0      -329316.0      -323494.0      -317622.0
      -311705.0      -305732.0      -299699.0      -293625.0      -287526.0
      -281394.0      -275226.0      -269029.0      -262805.0      -256558.0
      -250292.0      -244005.0      -237683.0      -231323.0      -224936.0
      -218524.0      -212085.0      -205627.0      -199157.0      -192687.0
      -186236.0      -179811.0      -173405.0      -167022.0      -160670.0
      -154341.0      -148023.0      -141719.0      -135422.0      -129125.0
      -122836.0      -116558.0      -110281.0      -104007.0      -97744.00
      -91494.00      -85258.00      -79049.00      -72879.00      -66743.00
      -60636.00      -54554.00      -48483.00      -42417.00      -36346.00
      -30260.00      -24146.00      -17996.00      -11810.00      -5588.000
       670.0000       6964.000       13294.00       19654.00       26034.00
       32432.00       38847.00       45272.00       51697.00       58117.00
       64533.00       70941.00       77331.00       83696.00       90027.00
       96318.00       102559.0       108732.0       114829.0       120859.0
       126822.0       132713.0       138523.0       144248.0       149894.0
       155469.0       160968.0       166377.0       171694.0       176934.0
       182108.0       187216.0       192259.0       197241.0       202157.0
       207004.0       211799.0       216557.0       221285.0       225989.0
       230670.0       235322.0       239956.0       244587.0       249216.0
       253843.0       258482.0       263136.0       267794.0       272451.0
       277100.0       281733.0       286346.0       290931.0       295475.0
       299971.0       304413.0       308781.0       313062.0       317254.0
       321358.0       325368.0       329285.0       333112.0       336845.0
       340482.0       344029.0       347498.0       350902.0       354247.0
       357528.0       360755.0       363946.0       367104.0       370221.0
       373294.0       376335.0       379350.0       382337.0       385290.0
       388209.0       391095.0       393951.0       396776.0       399571.0
       402341.0       405086.0       407791.0       410458.0       413100.0
       415719.0       418299.0       420845.0       423370.0       425866.0
       428320.0       430734.0       433114.0       435452.0       437733.0
       439953.0       442114.0       444210.0       446230.0       448166.0
       450015.0       451772.0       453436.0       455007.0       456482.0
       457864.0       459154.0       460338.0       461420.0       462418.0
       463333.0       464159.0       464909.0       465596.0       466213.0
       466745.0       467190.0       467556.0       467843.0       468041.0
       468145.0       468161.0       468089.0       467940.0       467718.0
       467416.0       467040.0       466601.0       466093.0       465502.0
       464820.0       464048.0       463186.0       462221.0       461140.0
       459943.0       458636.0       457225.0       455706.0       454074.0
       452318.0       450428.0       448405.0       446254.0       443966.0
       441535.0       438963.0       436262.0       433437.0       430488.0
       427426.0       424261.0       420994.0       417626.0       414160.0
       410603.0       406965.0       403252.0       399455.0       395573.0
       391612.0       387578.0       383465.0       379271.0       374998.0
       370649.0       366225.0       361719.0       357131.0       352471.0
       347745.0       342960.0       338124.0       333232.0       328279.0
       323272.0       318215.0       313112.0       307971.0       302799.0
       297591.0       292350.0       287073.0       281754.0       276389.0
       270980.0       265520.0       259996.0       254413.0       248772.0
       243071.0       237298.0       231446.0       225513.0       219506.0
       213432.0       207283.0       201060.0       194780.0       188442.0
       182032.0       175549.0       169005.0       162403.0       155751.0
       149055.0       142316.0       135537.0       128728.0       121899.0
       115040.0       108138.0       101194.0       94210.00       87190.00
       80136.00       73054.00       65943.00       58807.00       51649.00
       44475.00       37284.00       30072.00       22829.00       15556.00
       8249.000       897.0000      -6508.000      -13962.00      -21463.00
      -29006.00      -36594.00      -44226.00      -51895.00      -59592.00
      -67325.00      -75105.00      -82918.00      -90746.00      -98591.00
      -106470.0      -114378.0      -122298.0      -130224.0      -138164.0
      -146124.0      -154095.0      -162068.0      -170044.0      -178023.0
      -186005.0      -193994.0      -202002.0      -210032.0      -218076.0
      -226132.0      -234205.0      -242300.0      -250398.0      -258491.0
      -266584.0      -274671.0      -282741.0      -290792.0      -298832.0
      -306862.0      -314875.0      -322865.0      -330827.0      -338758.0
      -346654.0      -354519.0      -362355.0      -370160.0      -377928.0
      -385657.0      -393342.0      -400983.0      -408581.0      -416131.0
      -423619.0      -431034.0      -438385.0      -445681.0      -452922.0
      -460112.0      -467257.0      -474359.0      -481413.0      -488416.0
      -495364.0      -502262.0      -509115.0      -515904.0      -522618.0
      -529263.0      -535835.0      -542318.0      -548709.0      -555023.0
      -561254.0      -567393.0      -573450.0      -579427.0      -585305.0
      -591066.0      -596702.0      -602210.0      -607578.0      -612792.0
      -617842.0      -622731.0      -627470.0      -632061.0      -636507.0
      -640812.0      -644985.0      -649030.0      -652949.0      -656746.0
      -660434.0      -664019.0      -667497.0      -670866.0      -674127.0
      -677281.0      -680322.0      -683254.0      -686087.0      -688827.0
      -691468.0      -694008.0      -696452.0      -698813.0      -701080.0
      -703237.0      -705289.0      -707243.0      -709082.0      -710793.0
      -712378.0      -713833.0      -715142.0      -716292.0      -717281.0
      -718115.0      -718795.0      -719312.0      -719661.0      -719848.0
      -719880.0      -719745.0      -719428.0      -718918.0      -718214.0
      -717309.0      -716194.0      -714871.0      -713341.0      -711593.0
      -709628.0      -707458.0      -705086.0      -702517.0      -699763.0
      -696825.0      -693695.0      -690378.0      -686871.0      -683170.0
      -679280.0      -675208.0      -670951.0      -666503.0      -661859.0
      -657022.0      -651991.0      -646755.0      -641315.0      -635679.0
      -629849.0      -623814.0      -617573.0      -611125.0      -604458.0
      -597563.0      -590457.0      -583157.0      -575655.0      -567956.0
      -560079.0      -552038.0      -543840.0      -535496.0      -527010.0
      -518388.0      -509636.0      -500751.0      -491734.0      -482588.0
      -473317.0      -463925.0      -454415.0      -444789.0      -435051.0
      -425199.0      -415238.0      -405169.0      -394985.0      -384680.0
      -374253.0      -363708.0      -353049.0      -342273.0      -331377.0
      -320356.0      -309218.0      -297976.0      -286640.0      -275215.0
      -263701.0      -252107.0      -240444.0      -228714.0      -216908.0
      -205022.0      -193051.0      -180977.0      -168789.0      -156489.0
      -144093.0      -131614.0      -119065.0      -106458.0      -93805.00
      -81105.00      -68367.00      -55604.00      -42815.00      -29994.00
      -17146.00      -4276.000       8615.000       21526.00       34450.00
       47374.00       60308.00       73260.00       86227.00       99199.00
       112172.0       125143.0       138103.0       151047.0       163965.0
       176852.0       189710.0       202546.0       215363.0       228170.0
       240970.0       253764.0       266547.0       279308.0       292039.0
       304735.0       317381.0       329964.0       342485.0       354934.0
       367297.0       379574.0       391769.0       403871.0       415877.0
       427801.0       439650.0       451418.0       463095.0       474685.0
       486202.0       497636.0       508968.0       520202.0       531347.0
       542390.0       553322.0       564143.0       574841.0       585405.0
       595827.0       606097.0       616199.0       626129.0       635895.0
       645484.0       654883.0       664104.0       673157.0       682030.0
       690723.0       699238.0       707569.0       715704.0       723638.0
       731362.0       738872.0       746160.0       753225.0       760070.0
       766704.0       773127.0       779337.0       785338.0       791129.0
       796708.0       802078.0       807242.0       812194.0       816927.0
       821439.0       825723.0       829778.0       833609.0       837203.0
       840553.0       843669.0       846554.0       849201.0       851608.0
       853767.0       855667.0       857308.0       858691.0       859811.0
       860667.0       861264.0       861599.0       861685.0       861533.0
       861141.0       860508.0       859652.0       858588.0       857319.0
       855834.0       854135.0       852234.0       850128.0       847810.0
       845277.0       842539.0       839600.0       836452.0       833091.0
       829527.0       825769.0       821826.0       817707.0       813416.0
       808946.0       804300.0       799491.0       794528.0       789399.0
       784117.0       778708.0       773173.0       767488.0       761646.0
       755658.0       749521.0       743225.0       736772.0       730160.0
       723385.0       716455.0       709378.0       702148.0       694763.0
       687227.0       679547.0       671720.0       663739.0       655597.0
       647289.0       638811.0       630157.0       621328.0       612323.0
       603138.0       593775.0       584238.0       574528.0       564638.0
       554564.0       544296.0       533820.0       523140.0       512258.0
       501169.0       489867.0       478350.0       466617.0       454677.0
       442539.0       430204.0       417669.0       404941.0       392024.0
       378912.0       365605.0       352112.0       338431.0       324561.0
       310513.0       296292.0       281899.0       267337.0       252612.0
       237724.0       222677.0       207489.0       192168.0       176708.0
       161109.0       145382.0       129536.0       113578.0       97516.00
       81364.00       65130.00       48807.00       32393.00       15912.00
      -635.0000      -17260.00      -33958.00      -50702.00      -67475.00
      -84292.00      -101160.0      -118061.0      -134980.0      -151926.0
      -168902.0      -185889.0      -202865.0      -219823.0      -236768.0
      -253711.0      -270655.0      -287586.0      -304493.0      -321387.0
      -338276.0      -355151.0      -371997.0      -388803.0      -405586.0
      -422355.0      -439093.0      -455789.0      -472447.0      -489061.0
      -505622.0      -522122.0      -538550.0      -554904.0      -571184.0
      -587386.0      -603502.0      -619531.0      -635468.0      -651308.0
      -667042.0      -682661.0      -698160.0      -713553.0      -728840.0
      -744002.0      -759029.0      -773925.0      -788691.0      -803324.0
      -817812.0      -832135.0      -846291.0      -860289.0      -874123.0
      -887780.0      -901244.0      -914508.0      -927578.0      -940441.0
      -953069.0      -965452.0      -977599.0      -989501.0      -1001144.
      -1012522.      -1023641.      -1034501.      -1045082.      -1055369.
      -1065362.      -1075057.      -1084431.      -1093475.      -1102192.
      -1110582.      -1118642.      -1126371.      -1133759.      -1140797.
      -1147475.      -1153792.      -1159749.      -1165341.      -1170566.
      -1175417.      -1179894.      -1184001.      -1187735.      -1191086.
      -1194050.      -1196623.      -1198795.      -1200559.      -1201920.
      -1202884.      -1203452.      -1203623.      -1203395.      -1202780.
      -1201787.      -1200408.      -1198641.      -1196492.      -1193961.
      -1191048.      -1187759.      -1184084.      -1180013.      -1175549.
      -1170707.      -1165484.      -1159865.      -1153850.      -1147449.
      -1140670.      -1133505.      -1125943.      -1117989.      -1109654.
      -1100938.      -1091847.      -1082384.      -1072543.      -1062333.
      -1051777.      -1040874.      -1029611.      -1018002.      -1006060.
      -993778.0      -981155.0      -968216.0      -954979.0      -941441.0
      -927598.0      -913462.0      -899048.0      -884364.0      -869416.0
      -854210.0      -838754.0      -823055.0      -807106.0      -790904.0
      -774455.0      -757766.0      -740836.0      -723655.0      -706230.0
      -688585.0      -670730.0      -652665.0      -634403.0      -615967.0
      -597362.0      -578590.0      -559666.0      -540608.0      -521428.0
      -502132.0      -482732.0      -463237.0      -443646.0      -423954.0
      -404171.0      -384313.0      -364393.0      -344411.0      -324372.0
      -304299.0      -284220.0      -264143.0      -244066.0      -223993.0
      -203943.0      -183924.0      -163930.0      -143959.0      -124021.0
      -104119.0      -84253.00      -64423.00      -44632.00      -24882.00
      -5183.000       14451.00       34013.00       53502.00       72907.00
       92224.00       111454.0       130594.0       149643.0       168595.0
       187434.0       206150.0       224742.0       243207.0       261542.0
       279742.0       297792.0       315691.0       333458.0       351093.0
       368582.0       385931.0       403154.0       420249.0       437210.0
       454035.0       470722.0       487275.0       503697.0       519980.0
       536107.0       552076.0       567891.0       583545.0       599022.0
       614311.0       629411.0       644322.0       659025.0       673498.0
       687739.0       701750.0       715520.0       729044.0       742321.0
       755352.0       768134.0       780666.0       792950.0       804987.0
       816776.0       828314.0       839599.0       850627.0       861391.0
       871890.0       882123.0       892088.0       901789.0       911246.0
       920455.0       929405.0       938095.0       946521.0       954671.0
       962538.0       970125.0       977422.0       984422.0       991128.0
       997545.0       1003674.       1009518.       1015070.       1020325.
       1025283.       1029941.       1034286.       1038317.       1042036.
       1045437.       1048508.       1051246.       1053656.       1055738.
       1057490.       1058916.       1060026.       1060831.       1061338.
       1061542.       1061433.       1061012.       1060282.       1059231.
       1057846.       1056131.       1054099.       1051753.       1049094.
       1046134.       1042889.       1039366.       1035564.       1031496.
       1027180.       1022616.       1017806.       1012753.       1007456.
       1001917.       996148.0       990138.0       983879.0       977383.0
       970662.0       963713.0       956534.0       949126.0       941498.0
       933659.0       925612.0       917360.0       908900.0       900241.0
       891393.0       882365.0       873156.0       863771.0       854213.0
       844489.0       834599.0       824536.0       814287.0       803863.0
       793281.0       782546.0       771659.0       760627.0       749454.0
       738142.0       726699.0       715135.0       703464.0       691691.0
       679809.0       667816.0       655725.0       643545.0       631278.0
       618925.0       606492.0       593987.0       581412.0       568759.0
       556036.0       543245.0       530373.0       517407.0       504352.0
       491213.0       477993.0       464690.0       451298.0       437821.0
       424260.0       410617.0       396901.0       383115.0       369260.0
       355345.0       341389.0       327399.0       313374.0       299328.0
       285279.0       271226.0       257160.0       243086.0       229029.0
       214999.0       200989.0       187004.0       173063.0       159171.0
       145322.0       131505.0       117716.0       103950.0       90199.00
       76465.00       62753.00       49058.00       35379.00       21729.00
       8123.000      -5434.000      -18944.00      -32404.00      -45804.00
      -59144.00      -72419.00      -85623.00      -98761.00      -111837.0
      -124841.0      -137765.0      -150609.0      -163364.0      -176010.0
      -188533.0      -200938.0      -213231.0      -225401.0      -237432.0
      -249320.0      -261077.0      -272719.0      -284241.0      -295641.0
      -306934.0      -318115.0      -329167.0      -340083.0      -350868.0
      -361531.0      -372069.0      -382474.0      -392734.0      -402837.0
      -412781.0      -422567.0      -432186.0      -441632.0      -450914.0
      -460038.0      -468998.0      -477793.0      -486425.0      -494899.0
      -503223.0      -511396.0      -519419.0      -527308.0      -535076.0
      -542717.0      -550229.0      -557623.0      -564906.0      -572069.0
      -579108.0      -586017.0      -592785.0      -599406.0      -605867.0
      -612152.0      -618254.0      -624167.0      -629880.0      -635411.0
      -640778.0      -645964.0      -650960.0      -655791.0      -660473.0
      -664997.0      -669347.0      -673531.0      -677560.0      -681421.0
      -685095.0      -688584.0      -691901.0      -695048.0      -698010.0
