     0.05000000      -12345.00      -12345.00   1.603510e+09      -12345.00
   0.0005940000       3899.901      -221.0496      -12345.00      -12345.00
      -12345.00      -12345.00      -12345.00      -12345.00      -12345.00
      -12345.00      -12345.00      -12345.00      -12345.00      -12345.00
      -12345.00      -12345.00      -12345.00      -12345.00      -12345.00
      -12345.00      -12345.00      -12345.00      -12345.00      -12345.00
      -12345.00       51.68070       103.6438       579.0000       20.00000
       3.412500       95.90120      -12345.00       26.10000      -12345.00
      -12345.00      -12345.00      -12345.00      -12345.00      -12345.00
      -12345.00      -12345.00      -12345.00      -12345.00      -12345.00
       5396.974       6.426514       190.3383       48.53830      -12345.00
      -12345.00      -12345.00       0.000000       0.000000      -12345.00
      -12345.00      -12345.00      -12345.00      -12345.00      -12345.00
      -12345.00      -12345.00      -12345.00      -12345.00      -12345.00
      2004       361         1         2        33
        49         6    -12345    -12345     77999
    -12345    -12345    -12345    -12345    -12345
         1    -12345    -12345    -12345    -12345
    -12345    -12345    -12345    -12345    -12345
    -12345    -12345    -12345    -12345    -12345
    -12345    -12345    -12345    -12345    -12345
         1    -12345    -12345    -12345    -12345
TLY     Off W Coast Of N
00      -12345  -12345  
-12345  -12345  -12345  
-12345  -12345  -12345  
-12345  -12345  -12345  
-12345  -12345  -12345  
-12345  -12345  BHZ     
II      -12345  Streckei
[...]
      -2607508.      -2572662.      -2537830.      -2503019.      -2468237.
      -2433486.      -2398771.      -2364099.      -2329475.      -2294906.
      -2260393.      -2225926.      -2191502.      -2157119.      -2122776.
      -2088484.      -2054258.      -2020100.      -1986020.      -1952039.
      -1918171.      -1884424.      -1850813.      -1817341.      -1783987.
      -1750721.      -1717529.      -1684409.      -1651357.      -1618370.
      -1585457.      -1552637.      -1519935.      -1487351.      -1454879.
      -1422520.      -1390274.      -1358139.      -1326118.      -1294209.
      -1262401.      -1230687.      -1199067.      -1167540.      -1136102.
      -1104756.      -1073506.      -1042352.      -1011282.      -980281.0
      -949339.0      -918464.0      -887665.0      -856944.0      -826302.0
      -795737.0      -765238.0      -734803.0      -704433.0      -674126.0
      -643869.0      -613646.0      -583450.0      -553272.0      -523103.0
      -492933.0      -462768.0      -432622.0      -402496.0      -372381.0
      -342284.0      -312215.0      -282165.0      -252119.0      -222074.0
      -192032.0      -161995.0      -131949.0      -101878.0      -71791.00
      -41710.00      -11634.00       18449.00       48539.00       78647.00
       108804.0       139042.0       169365.0       199768.0       230258.0
       260837.0       291482.0       322176.0       352913.0       383679.0
       414465.0       445272.0       476101.0       506946.0       537816.0
       568724.0       599667.0       630640.0       661647.0       692690.0
       723767.0       754879.0       786028.0       817204.0       848395.0
       879609.0       910858.0       942127.0       973393.0       1004645.
       1035868.       1067040.       1098151.       1129195.       1160167.
       1191059.       1221877.       1252635.       1283349.       1314024.
       1344661.       1375258.       1405812.       1436324.       1466795.
       1497224.       1527603.       1557919.       1588155.       1618304.
       1648371.       1678344.       1708213.       1737983.       1767664.
       1797251.       1826730.       1856099.       1885356.       1914490.
       1943500.       1972400.       2001190.       2029869.       2058443.
       2086918.       2115284.       2143520.       2171605.       2199524.
       2227273.       2254857.       2282291.       2309582.       2336736.
       2363767.       2390687.       2417499.       2444194.       2470761.
       2497187.       2523461.       2549571.       2575519.       2601303.
       2626930.       2652417.       2677774.       2702990.       2728042.
       2752915.       2777589.       2802058.       2826320.       2850374.
       2874222.       2897868.       2921309.       2944542.       2967562.
       2990373.       3012969.       3035331.       3057438.       3079292.
       3100904.       3122269.       3143362.       3164170.       3184694.
       3204938.       3224889.       3244529.       3263854.       3282862.
       3301541.       3319880.       3337889.       3355582.       3372962.
       3390027.       3406789.       3423263.       3439439.       3455296.
       3470827.       3486009.       3500792.       3515145.       3529057.
       3542519.       3555512.       3568025.       3580046.       3591558.
       3602552.       3613037.       3623032.       3632549.       3641571.
       3650062.       3658002.       3665373.       3672139.       3678268.
       3683745.       3688557.       3692694.       3696143.       3698896.
       3700952.       3702316.       3702989.       3702944.       3702146.
       3700578.       3698236.       3695105.       3691164.       3686403.
       3680825.       3674435.       3667223.       3659175.       3650289.
       3640560.       3629976.       3618513.       3606155.       3592903.
       3578768.       3563752.       3547858.       3531100.       3513480.
       3494979.       3475572.       3455245.       3433988.       3411789.
       3388637.       3364520.       3339423.       3313334.       3286264.
       3258228.       3229229.       3199260.       3168322.       3136421.
       3103566.       3069756.       3034979.       2999223.       2962488.
       2924779.       2886086.       2846399.       2805726.       2764078.
       2721460.       2677885.       2633379.       2587959.       2541622.
       2494365.       2446197.       2397132.       2347183.       2296364.
       2244694.       2192198.       2138888.       2084776.       2029887.
       1974251.       1917882.       1860781.       1802954.       1744427.
       1685220.       1625356.       1564867.       1503783.       1442121.
       1379898.       1317116.       1253765.       1189837.       1125344.
       1060297.       994702.0       928567.0       861918.0       794790.0
       727212.0       659204.0       590777.0       521938.0       452697.0
       383066.0       313057.0       242684.0       171960.0       100889.0
       29467.00      -42294.00      -114369.0      -186741.0      -259399.0
      -332320.0      -405483.0      -478877.0      -552500.0      -626340.0
      -700372.0      -774581.0      -848967.0      -923528.0      -998244.0
      -1073098.      -1148087.      -1223203.      -1298412.      -1373673.
      -1448965.      -1524278.      -1599596.      -1674891.      -1750141.
      -1825339.      -1900477.      -1975535.      -2050488.      -2125303.
      -2199950.      -2274397.      -2348618.      -2422590.      -2496277.
      -2569643.      -2642662.      -2715319.      -2787588.      -2859424.
      -2930790.      -3001666.      -3072042.      -3141884.      -3211160.
      -3279856.      -3347973.      -3415492.      -3482376.      -3548598.
      -3614141.      -3678976.      -3743065.      -3806381.      -3868913.
      -3930644.      -3991549.      -4051602.      -4110785.      -4169090.
      -4226506.      -4283017.      -4338611.      -4393275.      -4446991.
      -4499736.      -4551489.      -4602231.      -4651936.      -4700575.
      -4748123.      -4794560.      -4839865.      -4884017.      -4926999.
      -4968803.      -5009428.      -5048865.      -5087094.      -5124104.
      -5159889.      -5194438.      -5227735.      -5259774.      -5290557.
      -5320087.      -5348364.      -5375386.      -5401143.      -5425618.
      -5448786.      -5470630.      -5491143.      -5510338.      -5528220.
      -5544787.      -5560043.      -5574002.      -5586678.      -5598070.
      -5608174.      -5617006.      -5624576.      -5630878.      -5635909.
      -5639673.      -5642175.      -5643414.      -5643386.      -5642093.
      -5639547.      -5635758.      -5630732.      -5624489.      -5617041.
      -5608382.      -5598510.      -5587438.      -5575180.      -5561751.
      -5547166.      -5531435.      -5514567.      -5496576.      -5477475.
      -5457273.      -5435976.      -5413601.      -5390168.      -5365680.
      -5340134.      -5313528.      -5285870.      -5257167.      -5227420.
      -5196624.      -5164778.      -5131882.      -5097923.      -5062889.
      -5026781.      -4989596.      -4951318.      -4911938.      -4871470.
      -4829920.      -4787283.      -4743553.      -4698733.      -4652827.
      -4605831.      -4557747.      -4508585.      -4458364.      -4407093.
      -4354781.      -4301438.      -4247074.      -4191691.      -4135285.
      -4077856.      -4019401.      -3959921.      -3899420.      -3837905.
      -3775379.      -3711840.      -3647279.      -3581692.      -3515093.
      -3447498.      -3378919.      -3309376.      -3238895.      -3167485.
      -3095143.      -3021876.      -2947698.      -2872613.      -2796630.
      -2719772.      -2642071.      -2563545.      -2484214.      -2404097.
      -2323219.      -2241597.      -2159239.      -2076154.      -1992366.
      -1907903.      -1822777.      -1737001.      -1650604.      -1563606.
      -1476010.      -1387832.      -1299102.      -1209840.      -1120043.
      -1029717.      -938880.0      -847540.0      -755698.0      -663372.0
      -570598.0      -477409.0      -383825.0      -289864.0      -195559.0
      -100940.0      -6030.000       89146.00       184550.0       280163.0
       375976.0       471967.0       568107.0       664384.0       760780.0
       857265.0       953814.0       1050405.       1147017.       1243624.
       1340195.       1436706.       1533138.       1629464.       1725647.
       1821653.       1917459.       2013037.       2108357.       2203388.
       2298111.       2392507.       2486536.       2580155.       2673340.
       2766078.       2858347.       2950115.       3041353.       3132046.
       3222161.       3311644.       3400453.       3488567.       3575962.
       3662606.       3748472.       3833537.       3917782.       4001192.
       4083750.       4165428.       4246196.       4326029.       4404899.
       4482777.       4559644.       4635483.       4710265.       4783956.
       4856529.       4927967.       4998256.       5067372.       5135307.
       5202062.       5267623.       5331957.       5395040.       5456868.
       5517432.       5576714.       5634709.       5691425.       5746853.
       5800968.       5853742.       5905161.       5955209.       6003858.
       6051078.       6096853.       6141174.       6184024.       6225387.
       6265254.       6303614.       6340458.       6375787.       6409587.
       6441830.       6472506.       6501627.       6529197.       6555208.
       6579657.       6602554.       6623907.       6643704.       6661927.
       6678565.       6693617.       6707074.       6718926.       6729169.
       6737804.       6744824.       6750217.       6753974.       6756103.
       6756609.       6755483.       6752730.       6748363.       6742387.
       6734797.       6725593.       6714771.       6702323.       6688245.
       6672545.       6655234.       6636311.       6615779.       6593647.
       6569937.       6544661.       6517823.       6489439.       6459534.
       6428117.       6395179.       6360728.       6324772.       6287311.
       6248337.       6207857.       6165899.       6122484.       6077623.
       6031332.       5983627.       5934521.       5884030.       5832169.
       5778935.       5724327.       5668359.       5611053.       5552415.
       5492445.       5431162.       5368585.       5304721.       5239567.
       5173136.       5105446.       5036508.       4966337.       4894956.
       4822386.       4748628.       4673688.       4597590.       4520356.
       4441990.       4362502.       4281911.       4200225.       4117449.
       4033608.       3948728.       3862814.       3775873.       3687926.
       3598991.       3509078.       3418200.       3326378.       3233624.
       3139941.       3045333.       2949814.       2853403.       2756116.
       2657969.       2558992.       2459217.       2358661.       2257339.
       2155281.       2052518.       1949064.       1844931.       1740139.
       1634709.       1528660.       1422022.       1314829.       1207105.
       1098863.       990116.0       880886.0       771195.0       661070.0
       550540.0       439633.0       328371.0       216780.0       104892.0
      -7256.000      -119624.0      -232186.0      -344927.0      -457818.0
      -570823.0      -683913.0      -797057.0      -910215.0      -1023351.
      -1136436.      -1249437.      -1362316.      -1475036.      -1587562.
      -1699845.      -1811841.      -1923517.      -2034844.      -2145786.
      -2256306.      -2366376.      -2475966.      -2585024.      -2693502.
      -2801369.      -2908603.      -3015166.      -3121015.      -3226112.
      -3330417.      -3433879.      -3536451.      -3638100.      -3738794.
      -3838495.      -3937173.      -4034812.      -4131382.      -4226841.
      -4321152.      -4414290.      -4506228.      -4596933.      -4686386.
      -4774561.      -4861427.      -4946961.      -5031149.      -5113972.
      -5195393.      -5275384.      -5353928.      -5431008.      -5506602.
      -5580690.      -5653251.      -5724270.      -5793732.      -5861616.
      -5927908.      -5992611.      -6055712.      -6117188.      -6177025.
      -6235219.      -6291748.      -6346581.      -6399699.      -6451100.
      -6500774.      -6548708.      -6594902.      -6639367.      -6682091.
      -6723050.      -6762236.      -6799662.      -6835330.      -6869228.
      -6901356.      -6931723.      -6960337.      -6987189.      -7012269.
      -7035584.      -7057139.      -7076918.      -7094912.      -7111136.
      -7125593.      -7138267.      -7149154.      -7158264.      -7165595.
      -7171146.      -7174927.      -7176944.      -7177197.      -7175680.
      -7172385.      -7167316.      -7160472.      -7151841.      -7141419.
      -7129221.      -7115248.      -7099490.      -7081955.      -7062655.
      -7041579.      -7018708.      -6994043.      -6967606.      -6939414.
      -6909474.      -6877803.      -6844422.      -6809340.      -6772548.
      -6734050.      -6693861.      -6651990.      -6608441.      -6563220.
      -6516334.      -6467800.      -6417624.      -6365798.      -6312334.
      -6257261.      -6200598.      -6142348.      -6082538.      -6021207.
      -5958374.      -5894047.      -5828250.      -5761019.      -5692376.
      -5622328.      -5550901.      -5478122.      -5404000.      -5328526.
      -5251689.      -5173493.      -5093956.      -5013100.      -4930953.
      -4847567.      -4762997.      -4677272.      -4590410.      -4502443.
      -4413408.      -4323329.      -4232229.      -4140133.      -4047069.
      -3953067.      -3858155.      -3762366.      -3665734.      -3568278.
      -3470019.      -3370995.      -3271237.      -3170768.      -3069620.
      -2967826.      -2865402.      -2762366.      -2658751.      -2554592.
      -2449906.      -2344720.      -2239080.      -2133037.      -2026634.
      -1919911.      -1812910.      -1705668.      -1598215.      -1490581.
      -1382796.      -1274894.      -1166901.      -1058844.      -950763.0
      -842701.0      -734690.0      -626764.0      -518978.0      -411375.0
      -303975.0      -196806.0      -89911.00       16677.00       122939.0
       228851.0       334363.0       439438.0       544060.0       648212.0
       751860.0       854975.0       957532.0       1059499.       1160838.
       1261519.       1361530.       1460851.       1559452.       1657299.
       1754361.       1850612.       1946025.       2040573.       2134230.
       2226979.       2318793.       2409639.       2499494.       2588349.
       2676189.       2762989.       2848720.       2933362.       3016901.
       3099312.       3180565.       3260645.       3339541.       3417227.
       3493677.       3568873.       3642789.       3715409.       3786722.
       3856716.       3925374.       3992672.       4058590.       4123109.
       4186219.       4247912.       4308178.       4367008.       4424398.
       4480348.       4534849.       4587894.       4639481.       4689612.
       4738287.       4785510.       4831284.       4875596.       4918437.
       4959814.       4999730.       5038171.       5075137.       5110635.
       5144665.       5177229.       5208345.       5238034.       5266298.
       5293136.       5318556.       5342564.       5365157.       5386348.
       5406155.       5424579.       5441614.       5457282.       5471602.
       5484575.       5496190.       5506453.       5515373.       5522940.
       5529147.       5534005.       5537538.       5539749.       5540636.
       5540207.       5538479.       5535451.       5531112.       5525454.
       5518482.       5510199.       5500601.       5489704.       5477539.
       5464120.       5449448.       5433538.       5416414.       5398074.
       5378510.       5357748.       5335822.       5312741.       5288508.
       5263150.       5236711.       5209217.       5180671.       5151096.
       5120530.       5088991.       5056479.       5023011.       4988621.
       4953330.       4917141.       4880072.       4842159.       4803423.
       4763876.       4723552.       4682494.       4640716.       4598228.
       4555069.       4511266.       4466812.       4421714.       4376003.
       4329701.       4282815.       4235365.       4187388.       4138921.
       4089986.       4040613.       3990847.       3940715.       3890220.
       3839378.       3788220.       3736754.       3684974.       3632903.
       3580587.       3528049.       3475290.       3422339.       3369238.
       3316000.       3262622.       3209120.       3155522.       3101841.
       3048067.       2994220.       2940352.       2886486.       2832611.
       2778738.       2724896.       2671076.       2617251.       2563425.
       2509621.       2455836.       2402055.       2348295.       2294592.
       2240952.       2187359.       2133831.       2080395.       2027038.
       1973736.       1920497.       1867333.       1814228.       1761163.
       1708149.       1655200.       1602315.       1549493.       1496749.
       1444100.       1391551.       1339097.       1286734.       1234472.
       1182322.       1130267.       1078300.       1026434.       974672.0
       923008.0       871456.0       820047.0       768786.0       717658.0
       666671.0       615851.0       565198.0       514700.0       464374.0
       414246.0       364314.0       314577.0       265063.0       215792.0
       166752.0       117938.0       69369.00       21057.00      -27009.00
      -74822.00      -122356.0      -169594.0      -216532.0      -263165.0
      -309481.0      -355462.0      -401088.0      -446347.0      -491236.0
      -535759.0      -579912.0      -623695.0      -667102.0      -710113.0
      -752717.0      -794930.0      -836759.0      -878200.0      -919259.0
      -959945.0      -1000248.      -1040152.      -1079652.      -1118739.
      -1157392.      -1195608.      -1233400.      -1270763.      -1307682.
      -1344161.      -1380221.      -1415852.      -1451044.      -1485801.
      -1520127.      -1554013.      -1587458.      -1620463.      -1653025.
