     0.05000000      -12345.00      -12345.00   9.545660e+08      -12345.00
   0.0006450000       3899.951      -266.0107      -12345.00      -12345.00
      -12345.00      -12345.00      -12345.00      -12345.00      -12345.00
      -12345.00      -12345.00      -12345.00      -12345.00      -12345.00
      -12345.00      -12345.00      -12345.00      -12345.00      -12345.00
      -12345.00      -12345.00      -12345.00      -12345.00      -12345.00
      -12345.00      -20.08820       146.2545       320.0000       37.00000
       3.412500       95.90120      -12345.00       26.10000      -12345.00
      -12345.00      -12345.00      -12345.00      -12345.00      -12345.00
      -12345.00      -12345.00      -12345.00      -12345.00      -12345.00
       6077.305       117.4721       289.5566       54.65694      -12345.00
      -12345.00      -12345.00       0.000000       0.000000      -12345.00
      -12345.00      -12345.00      -12345.00      -12345.00      -12345.00
      -12345.00      -12345.00      -12345.00      -12345.00      -12345.00
      2004       361         1         3        18
        10         6    -12345    -12345     78000
    -12345    -12345    -12345    -12345    -12345
         1    -12345    -12345    -12345    -12345
    -12345    -12345    -12345    -12345    -12345
    -12345    -12345    -12345    -12345    -12345
    -12345    -12345    -12345    -12345    -12345
         1    -12345    -12345    -12345    -12345
CTAO    Off W Coast Of N
00      -12345  -12345  
-12345  -12345  -12345  
-12345  -12345  -12345  
-12345  -12345  -12345  
-12345  -12345  -12345  
-12345  -12345  BHZ     
IU      -12345  Streckei
[...]
      -489430.0      -490101.0      -490601.0      -490942.0      -491122.0
      -491150.0      -491034.0      -490769.0      -490360.0      -489802.0
      -489097.0      -488239.0      -487235.0      -486097.0      -484795.0
      -483354.0      -481784.0      -480081.0      -478261.0      -476329.0
      -474282.0      -472109.0      -469837.0      -467450.0      -464954.0
      -462364.0      -459655.0      -456857.0      -453963.0      -450971.0
      -447897.0      -444724.0      -441475.0      -438143.0      -434737.0
      -431270.0      -427730.0      -424144.0      -420507.0      -416818.0
      -413097.0      -409337.0      -405535.0      -401697.0      -397817.0
      -393897.0      -389955.0      -385978.0      -381976.0      -377964.0
      -373931.0      -369881.0      -365812.0      -361728.0      -357619.0
      -353489.0      -349348.0      -345187.0      -341017.0      -336830.0
      -332632.0      -328432.0      -324225.0      -320018.0      -315813.0
      -311598.0      -307382.0      -303180.0      -298982.0      -294793.0
      -290605.0      -286408.0      -282208.0      -278009.0      -273823.0
      -269640.0      -265459.0      -261290.0      -257119.0      -252942.0
      -248780.0      -244622.0      -240459.0      -236301.0      -232156.0
      -228007.0      -223864.0      -219730.0      -215600.0      -211496.0
      -207411.0      -203344.0      -199304.0      -195300.0      -191325.0
      -187380.0      -183472.0      -179598.0      -175761.0      -171964.0
      -168215.0      -164502.0      -160836.0      -157221.0      -153659.0
      -150161.0      -146726.0      -143349.0      -140033.0      -136781.0
      -133584.0      -130448.0      -127362.0      -124324.0      -121345.0
      -118412.0      -115538.0      -112721.0      -109943.0      -107227.0
      -104568.0      -101971.0      -99437.00      -96964.00      -94571.00
      -92262.00      -90030.00      -87876.00      -85798.00      -83792.00
      -81869.00      -80012.00      -78222.00      -76505.00      -74841.00
      -73246.00      -71710.00      -70221.00      -68784.00      -67403.00
      -66070.00      -64796.00      -63567.00      -62385.00      -61263.00
      -60195.00      -59190.00      -58234.00      -57335.00      -56496.00
      -55711.00      -55004.00      -54358.00      -53778.00      -53270.00
      -52818.00      -52448.00      -52140.00      -51893.00      -51712.00
      -51591.00      -51545.00      -51557.00      -51634.00      -51766.00
      -51953.00      -52197.00      -52488.00      -52824.00      -53207.00
      -53644.00      -54126.00      -54665.00      -55253.00      -55881.00
      -56561.00      -57288.00      -58064.00      -58884.00      -59749.00
      -60659.00      -61615.00      -62623.00      -63673.00      -64772.00
      -65919.00      -67113.00      -68355.00      -69638.00      -70959.00
      -72319.00      -73718.00      -75158.00      -76631.00      -78137.00
      -79678.00      -81262.00      -82892.00      -84547.00      -86223.00
      -87928.00      -89668.00      -91433.00      -93220.00      -95035.00
      -96873.00      -98728.00      -100604.0      -102498.0      -104419.0
      -106368.0      -108321.0      -110292.0      -112282.0      -114272.0
      -116294.0      -118329.0      -120378.0      -122445.0      -124508.0
      -126594.0      -128688.0      -130785.0      -132885.0      -134980.0
      -137075.0      -139152.0      -141214.0      -143254.0      -145271.0
      -147262.0      -149231.0      -151171.0      -153077.0      -154945.0
      -156775.0      -158569.0      -160318.0      -162032.0      -163709.0
      -165354.0      -166954.0      -168492.0      -169982.0      -171415.0
      -172805.0      -174156.0      -175459.0      -176725.0      -177937.0
      -179123.0      -180273.0      -181364.0      -182427.0      -183442.0
      -184420.0      -185357.0      -186235.0      -187080.0      -187872.0
      -188630.0      -189346.0      -189996.0      -190606.0      -191146.0
      -191638.0      -192053.0      -192396.0      -192676.0      -192862.0
      -192993.0      -193029.0      -193000.0      -192882.0      -192671.0
      -192390.0      -191983.0      -191506.0      -190924.0      -190240.0
      -189483.0      -188603.0      -187627.0      -186549.0      -185361.0
      -184080.0      -182691.0      -181188.0      -179576.0      -177857.0
      -176024.0      -174070.0      -171994.0      -169798.0      -167491.0
      -165066.0      -162526.0      -159887.0      -157134.0      -154274.0
      -151309.0      -148235.0      -145072.0      -141817.0      -138474.0
      -135042.0      -131526.0      -127925.0      -124225.0      -120431.0
      -116536.0      -112531.0      -108425.0      -104223.0      -99913.00
      -95500.00      -90993.00      -86389.00      -81707.00      -76936.00
      -72082.00      -67154.00      -62140.00      -57055.00      -51900.00
      -46689.00      -41419.00      -36097.00      -30725.00      -25295.00
      -19824.00      -14289.00      -8704.000      -3066.000       2635.000
       8375.000       14168.00       20023.00       25929.00       31883.00
       37885.00       43914.00       49976.00       56067.00       62179.00
       68322.00       74486.00       80672.00       86886.00       93128.00
       99396.00       105698.0       112038.0       118413.0       124810.0
       131223.0       137660.0       144107.0       150574.0       157044.0
       163516.0       169998.0       176461.0       182912.0       189356.0
       195779.0       202197.0       208605.0       214995.0       221373.0
       227736.0       234085.0       240433.0       246767.0       253092.0
       259414.0       265723.0       272032.0       278331.0       284628.0
       290912.0       297178.0       303444.0       309696.0       315930.0
       322163.0       328381.0       334568.0       340745.0       346882.0
       352973.0       359045.0       365065.0       371047.0       376981.0
       382867.0       388734.0       394568.0       400372.0       406142.0
       411865.0       417543.0       423162.0       428717.0       434216.0
       439651.0       445026.0       450353.0       455623.0       460843.0
       466020.0       471149.0       476226.0       481256.0       486237.0
       491179.0       496080.0       500942.0       505780.0       510578.0
       515336.0       520037.0       524662.0       529216.0       533695.0
       538102.0       542426.0       546653.0       550791.0       554844.0
       558796.0       562647.0       566403.0       570051.0       573594.0
       577028.0       580340.0       583549.0       586648.0       589615.0
       592457.0       595159.0       597727.0       600163.0       602459.0
       604622.0       606645.0       608528.0       610247.0       611803.0
       613213.0       614470.0       615571.0       616527.0       617340.0
       618011.0       618532.0       618899.0       619120.0       619193.0
       619126.0       618907.0       618537.0       618003.0       617302.0
       616436.0       615383.0       614156.0       612752.0       611155.0
       609360.0       607362.0       605162.0       602752.0       600134.0
       597316.0       594290.0       591080.0       587680.0       584075.0
       580281.0       576289.0       572092.0       567697.0       563074.0
       558220.0       553157.0       547857.0       542323.0       536566.0
       530586.0       524380.0       517958.0       511321.0       504459.0
       497385.0       490074.0       482549.0       474815.0       466857.0
       458701.0       450324.0       441737.0       432939.0       423935.0
       414736.0       405321.0       395708.0       385901.0       375905.0
       365719.0       355354.0       344825.0       334125.0       323269.0
       312253.0       301091.0       289787.0       278329.0       266729.0
       254979.0       243081.0       231042.0       218861.0       206543.0
       194095.0       181519.0       168816.0       155979.0       143024.0
       129950.0       116758.0       103463.0       90055.00       76552.00
       62952.00       49265.00       35495.00       21652.00       7760.000
      -6201.000      -20212.00      -34257.00      -48349.00      -62481.00
      -76662.00      -90890.00      -105156.0      -119447.0      -133756.0
      -148085.0      -162411.0      -176737.0      -191065.0      -205376.0
      -219679.0      -233962.0      -248217.0      -262457.0      -276671.0
      -290849.0      -304999.0      -319122.0      -333200.0      -347245.0
      -361261.0      -375229.0      -389160.0      -403038.0      -416854.0
      -430617.0      -444303.0      -457909.0      -471423.0      -484832.0
      -498134.0      -511318.0      -524374.0      -537301.0      -550094.0
      -562750.0      -575273.0      -587645.0      -599858.0      -611914.0
      -623804.0      -635529.0      -647093.0      -658490.0      -669733.0
      -680815.0      -691728.0      -702480.0      -713070.0      -723496.0
      -733747.0      -743822.0      -753725.0      -763439.0      -772968.0
      -782303.0      -791437.0      -800381.0      -809129.0      -817672.0
      -826008.0      -834139.0      -842062.0      -849770.0      -857234.0
      -864453.0      -871430.0      -878155.0      -884643.0      -890898.0
      -896918.0      -902705.0      -908267.0      -913589.0      -918666.0
      -923498.0      -928086.0      -932424.0      -936507.0      -940353.0
      -943934.0      -947268.0      -950365.0      -953192.0      -955796.0
      -958171.0      -960304.0      -962234.0      -963957.0      -965461.0
      -966754.0      -967821.0      -968664.0      -969295.0      -969698.0
      -969861.0      -969785.0      -969460.0      -968893.0      -968082.0
      -967014.0      -965706.0      -964146.0      -962344.0      -960308.0
      -958012.0      -955477.0      -952716.0      -949713.0      -946478.0
      -942991.0      -939268.0      -935329.0      -931158.0      -926764.0
      -922152.0      -917318.0      -912261.0      -906988.0      -901492.0
      -895765.0      -889824.0      -883663.0      -877272.0      -870649.0
      -863789.0      -856707.0      -849403.0      -841859.0      -834076.0
      -826065.0      -817841.0      -809396.0      -800733.0      -791858.0
      -782773.0      -773494.0      -764025.0      -754376.0      -744548.0
      -734548.0      -724387.0      -714063.0      -703590.0      -692958.0
      -682158.0      -671200.0      -660084.0      -648813.0      -637388.0
      -625808.0      -614076.0      -602197.0      -590146.0      -577926.0
      -565547.0      -552996.0      -540287.0      -527426.0      -514410.0
      -501255.0      -487965.0      -474541.0      -460995.0      -447315.0
      -433517.0      -419612.0      -405599.0      -391498.0      -377299.0
      -363008.0      -348637.0      -334175.0      -319614.0      -304971.0
      -290244.0      -275430.0      -260542.0      -245577.0      -230522.0
      -215389.0      -200173.0      -184863.0      -169471.0      -153993.0
      -138431.0      -122808.0      -107122.0      -91376.00      -75586.00
      -59752.00      -43894.00      -28018.00      -12122.00       3795.000
       19736.00       35673.00       51611.00       67545.00       83457.00
       99366.00       115252.0       131105.0       146937.0       162758.0
       178575.0       194378.0       210161.0       225917.0       241642.0
       257334.0       272988.0       288610.0       304196.0       319751.0
       335267.0       350739.0       366162.0       381511.0       396800.0
       412029.0       427182.0       442266.0       457261.0       472171.0
       487001.0       501745.0       516420.0       530998.0       545485.0
       559882.0       574165.0       588347.0       602405.0       616330.0
       630127.0       643787.0       657298.0       670644.0       683825.0
       696843.0       709690.0       722364.0       734851.0       747139.0
       759236.0       771148.0       782879.0       794419.0       805757.0
       816889.0       827829.0       838572.0       849112.0       859463.0
       869618.0       879569.0       889329.0       898887.0       908217.0
       917336.0       926240.0       934917.0       943385.0       951622.0
       959629.0       967424.0       974993.0       982342.0       989463.0
       996330.0       1002955.       1009328.       1015434.       1021287.
       1026865.       1032171.       1037211.       1041981.       1046498.
       1050743.       1054721.       1058441.       1061896.       1065098.
       1068040.       1070709.       1073104.       1075238.       1077107.
       1078696.       1080018.       1081053.       1081796.       1082263.
       1082432.       1082313.       1081909.       1081210.       1080226.
       1078969.       1077418.       1075560.       1073412.       1070964.
       1068216.       1065173.       1061836.       1058215.       1054303.
       1050105.       1045626.       1040867.       1035833.       1030520.
       1024945.       1019110.       1013008.       1006634.       999992.0
       993085.0       985916.0       978485.0       970772.0       962785.0
       954532.0       946002.0       937203.0       928135.0       918782.0
       909154.0       899263.0       889097.0       878672.0       867986.0
       857024.0       845811.0       834346.0       822634.0       810688.0
       798490.0       786043.0       773355.0       760424.0       747246.0
       733836.0       720206.0       706340.0       692254.0       677959.0
       663455.0       648747.0       633846.0       618769.0       603513.0
       588093.0       572507.0       556756.0       540877.0       524861.0
       508716.0       492460.0       476078.0       459580.0       442976.0
       426257.0       409422.0       392480.0       375429.0       358282.0
       341050.0       323736.0       306346.0       288890.0       271376.0
       253797.0       236165.0       218491.0       200773.0       183017.0
       165236.0       147417.0       129573.0       111728.0       93880.00
       76042.00       58227.00       40441.00       22679.00       4935.000
      -12787.00      -30481.00      -48151.00      -65804.00      -83422.00
      -101008.0      -118555.0      -136054.0      -153506.0      -170896.0
      -188221.0      -205470.0      -222631.0      -239696.0      -256646.0
      -273469.0      -290164.0      -306712.0      -323098.0      -339324.0
      -355370.0      -371238.0      -386927.0      -402426.0      -417742.0
      -432862.0      -447793.0      -462524.0      -477064.0      -491429.0
      -505600.0      -519582.0      -533378.0      -546983.0      -560398.0
      -573630.0      -586659.0      -599491.0      -612129.0      -624551.0
      -636772.0      -648784.0      -660566.0      -672138.0      -683485.0
      -694601.0      -705498.0      -716144.0      -726551.0      -736717.0
      -746628.0      -756293.0      -765698.0      -774850.0      -783746.0
      -792382.0      -800770.0      -808898.0      -816773.0      -824392.0
      -831755.0      -838872.0      -845739.0      -852360.0      -858742.0
      -864896.0      -870813.0      -876495.0      -881943.0      -887147.0
      -892105.0      -896815.0      -901277.0      -905485.0      -909440.0
      -913150.0      -916603.0      -919792.0      -922723.0      -925376.0
      -927763.0      -929885.0      -931729.0      -933299.0      -934592.0
      -935607.0      -936348.0      -936817.0      -937014.0      -936953.0
      -936625.0      -936020.0      -935154.0      -934002.0      -932570.0
      -930861.0      -928870.0      -926617.0      -924090.0      -921290.0
      -918219.0      -914875.0      -911260.0      -907366.0      -903192.0
      -898753.0      -894042.0      -889063.0      -883818.0      -878296.0
      -872513.0      -866473.0      -860175.0      -853630.0      -846842.0
      -839808.0      -832532.0      -825023.0      -817288.0      -809343.0
      -801198.0      -792856.0      -784321.0      -775591.0      -766681.0
      -757575.0      -748263.0      -738777.0      -729093.0      -719208.0
      -709139.0      -698864.0      -688385.0      -677703.0      -666813.0
      -655732.0      -644467.0      -633014.0      -621382.0      -609581.0
      -597609.0      -585468.0      -573152.0      -560664.0      -548018.0
      -535213.0      -522252.0      -509160.0      -495935.0      -482583.0
      -469131.0      -455567.0      -441899.0      -428127.0      -414260.0
      -400309.0      -386274.0      -372182.0      -358032.0      -343836.0
      -329605.0      -315330.0      -301028.0      -286697.0      -272332.0
      -257946.0      -243526.0      -229085.0      -214642.0      -200185.0
      -185717.0      -171247.0      -156773.0      -142287.0      -127810.0
      -113353.0      -98912.00      -84508.00      -70132.00      -55797.00
      -41504.00      -27263.00      -13088.00       1024.000       15064.00
       29036.00       42928.00       56739.00       70472.00       84126.00
       97699.00       111187.0       124598.0       137926.0       151168.0
       164321.0       177389.0       190377.0       203281.0       216092.0
       228802.0       241403.0       253893.0       266264.0       278508.0
       290621.0       302594.0       314413.0       326078.0       337594.0
       348962.0       360177.0       371229.0       382125.0       392847.0
       403392.0       413762.0       423947.0       433965.0       443805.0
       453456.0       462917.0       472182.0       481254.0       490113.0
       498771.0       507226.0       515470.0       523496.0       531296.0
       538875.0       546239.0       553391.0       560323.0       567029.0
       573531.0       579820.0       585886.0       591741.0       597377.0
       602801.0       608000.0       612957.0       617677.0       622155.0
       626385.0       630366.0       634101.0       637579.0       640796.0
       643762.0       646465.0       648910.0       651114.0       653080.0
       654811.0       656297.0       657560.0       658593.0       659387.0
       659968.0       660316.0       660441.0       660340.0       659994.0
       659419.0       658589.0       657504.0       656156.0       654548.0
