     0.05000000      -12345.00      -12345.00   8.660710e+08      -12345.00
   0.0009500000       3899.951      -100.0229      -12345.00      -12345.00
      -12345.00      -12345.00      -12345.00      -12345.00      -12345.00
      -12345.00      -12345.00      -12345.00      -12345.00      -12345.00
      -12345.00      -12345.00      -12345.00      -12345.00      -12345.00
      -12345.00      -12345.00      -12345.00      -12345.00      -12345.00
      -12345.00      -21.15900       119.7313       88.00000       102.0000
       3.412500       95.90120      -12345.00       26.10000      -12345.00
      -12345.00      -12345.00      -12345.00      -12345.00      -12345.00
      -12345.00      -12345.00      -12345.00      -12345.00      -12345.00
       3756.805       137.3023       313.5104       33.78725      -12345.00
      -12345.00      -12345.00       0.000000       0.000000      -12345.00
      -12345.00      -12345.00      -12345.00      -12345.00      -12345.00
      -12345.00      -12345.00      -12345.00      -12345.00      -12345.00
      2004       361         1         0        32
        22         6    -12345    -12345     78000
    -12345    -12345    -12345    -12345    -12345
         1    -12345    -12345    -12345    -12345
    -12345    -12345    -12345    -12345    -12345
    -12345    -12345    -12345    -12345    -12345
    -12345    -12345    -12345    -12345    -12345
         1    -12345    -12345    -12345    -12345
MBWA    Off W Coast Of N
00      -12345  -12345  
-12345  -12345  -12345  
-12345  -12345  -12345  
-12345  -12345  -12345  
-12345  -12345  -12345  
-12345  -12345  BHZ     
IU      -12345  Geotech 
[...]
       357549.0       357547.0       357549.0       357548.0       357548.0
       357550.0       357549.0       357548.0       357547.0       357549.0
       357550.0       357547.0       357549.0       357548.0       357549.0
       357550.0       357547.0       357549.0       357550.0       357547.0
       357549.0       357550.0       357548.0       357549.0       357548.0
       357548.0       357549.0       357551.0       357549.0       357548.0
       357551.0       357549.0       357547.0       357549.0       357549.0
       357548.0       357550.0       357550.0       357547.0       357549.0
       357550.0       357548.0       357547.0       357550.0       357548.0
       357547.0       357550.0       357548.0       357548.0       357550.0
       357548.0       357548.0       357550.0       357548.0       357547.0
       357549.0       357550.0       357548.0       357550.0       357549.0
       357548.0       357550.0       357548.0       357549.0       357549.0
       357546.0       357550.0       357550.0       357547.0       357548.0
       357548.0       357550.0       357549.0       357548.0       357549.0
       357549.0       357548.0       357548.0       357549.0       357549.0
       357549.0       357548.0       357550.0       357549.0       357548.0
       357550.0       357548.0       357550.0       357548.0       357547.0
       357550.0       357548.0       357548.0       357549.0       357548.0
       357548.0       357549.0       357548.0       357548.0       357549.0
       357546.0       357548.0       357549.0       357547.0       357549.0
       357549.0       357548.0       357548.0       357549.0       357548.0
       357549.0       357549.0       357548.0       357549.0       357548.0
       357549.0       357549.0       357548.0       357548.0       357549.0
       357548.0       357547.0       357549.0       357549.0       357549.0
       357547.0       357550.0       357550.0       357548.0       357549.0
       357548.0       357549.0       357549.0       357549.0       357548.0
       357547.0       357548.0       357549.0       357550.0       357548.0
       357548.0       357550.0       357548.0       357549.0       357548.0
       357548.0       357549.0       357549.0       357548.0       357549.0
       357549.0       357550.0       357549.0       357548.0       357548.0
       357548.0       357549.0       357548.0       357549.0       357549.0
       357548.0       357548.0       357548.0       357550.0       357549.0
       357549.0       357549.0       357547.0       357548.0       357548.0
       357547.0       357549.0       357548.0       357550.0       357550.0
       357547.0       357549.0       357548.0       357549.0       357550.0
       357550.0       357550.0       357547.0       357548.0       357549.0
       357548.0       357549.0       357548.0       357549.0       357548.0
       357547.0       357548.0       357548.0       357549.0       357548.0
       357548.0       357550.0       357547.0       357547.0       357549.0
       357549.0       357548.0       357549.0       357549.0       357548.0
       357550.0       357548.0       357549.0       357549.0       357547.0
       357549.0       357546.0       357548.0       357549.0       357547.0
       357549.0       357547.0       357548.0       357549.0       357548.0
       357549.0       357549.0       357549.0       357548.0       357547.0
       357549.0       357550.0       357548.0       357548.0       357548.0
       357548.0       357549.0       357548.0       357548.0       357548.0
       357548.0       357550.0       357547.0       357546.0       357548.0
       357548.0       357550.0       357549.0       357548.0       357549.0
       357549.0       357550.0       357548.0       357548.0       357548.0
       357549.0       357548.0       357548.0       357549.0       357548.0
       357550.0       357550.0       357548.0       357549.0       357549.0
       357549.0       357549.0       357549.0       357548.0       357551.0
       357550.0       357547.0       357549.0       357549.0       357547.0
       357549.0       357550.0       357549.0       357549.0       357550.0
       357549.0       357549.0       357549.0       357548.0       357550.0
       357550.0       357548.0       357551.0       357547.0       357547.0
       357550.0       357548.0       357549.0       357549.0       357548.0
       357551.0       357548.0       357548.0       357551.0       357549.0
       357548.0       357550.0       357549.0       357549.0       357548.0
       357549.0       357550.0       357548.0       357548.0       357550.0
       357549.0       357548.0       357550.0       357550.0       357547.0
       357549.0       357549.0       357549.0       357550.0       357548.0
       357549.0       357548.0       357549.0       357548.0       357548.0
       357549.0       357550.0       357551.0       357548.0       357549.0
       357550.0       357550.0       357549.0       357547.0       357551.0
       357550.0       357549.0       357549.0       357548.0       357550.0
       357548.0       357549.0       357548.0       357548.0       357550.0
       357549.0       357549.0       357549.0       357548.0       357550.0
       357548.0       357549.0       357550.0       357547.0       357549.0
       357551.0       357550.0       357550.0       357548.0       357550.0
       357549.0       357548.0       357548.0       357549.0       357548.0
       357547.0       357549.0       357549.0       357548.0       357550.0
       357548.0       357548.0       357551.0       357549.0       357549.0
       357550.0       357547.0       357549.0       357549.0       357548.0
       357551.0       357549.0       357549.0       357549.0       357549.0
       357550.0       357549.0       357549.0       357549.0       357550.0
       357549.0       357550.0       357549.0       357548.0       357549.0
       357548.0       357549.0       357549.0       357548.0       357548.0
       357549.0       357550.0       357547.0       357549.0       357549.0
       357548.0       357549.0       357548.0       357548.0       357549.0
       357549.0       357549.0       357549.0       357547.0       357548.0
       357550.0       357549.0       357548.0       357549.0       357548.0
       357550.0       357549.0       357548.0       357550.0       357548.0
       357549.0       357550.0       357549.0       357552.0       357549.0
       357549.0       357551.0       357548.0       357549.0       357550.0
       357550.0       357548.0       357549.0       357549.0       357547.0
       357547.0       357549.0       357550.0       357549.0       357550.0
       357549.0       357548.0       357549.0       357549.0       357549.0
       357549.0       357549.0       357548.0       357549.0       357549.0
       357548.0       357549.0       357549.0       357548.0       357549.0
       357550.0       357548.0       357548.0       357549.0       357549.0
       357549.0       357549.0       357551.0       357550.0       357548.0
       357549.0       357548.0       357549.0       357550.0       357550.0
       357548.0       357548.0       357548.0       357548.0       357549.0
       357549.0       357549.0       357549.0       357549.0       357549.0
       357549.0       357550.0       357548.0       357550.0       357550.0
       357549.0       357549.0       357549.0       357549.0       357548.0
       357549.0       357550.0       357548.0       357549.0       357551.0
       357550.0       357549.0       357548.0       357550.0       357548.0
       357549.0       357549.0       357549.0       357549.0       357547.0
       357550.0       357550.0       357549.0       357550.0       357550.0
       357549.0       357548.0       357548.0       357551.0       357550.0
       357550.0       357549.0       357547.0       357549.0       357549.0
       357550.0       357551.0       357550.0       357550.0       357548.0
       357549.0       357549.0       357547.0       357549.0       357550.0
       357549.0       357548.0       357549.0       357550.0       357549.0
       357550.0       357548.0       357549.0       357550.0       357547.0
       357549.0       357549.0       357548.0       357548.0       357548.0
       357548.0       357548.0       357548.0       357548.0       357549.0
       357549.0       357548.0       357549.0       357548.0       357551.0
       357551.0       357547.0       357547.0       357549.0       357549.0
       357549.0       357548.0       357548.0       357549.0       357549.0
       357550.0       357548.0       357548.0       357550.0       357548.0
       357548.0       357549.0       357550.0       357549.0       357548.0
       357547.0       357548.0       357549.0       357549.0       357548.0
       357549.0       357550.0       357547.0       357548.0       357550.0
       357549.0       357549.0       357548.0       357548.0       357550.0
       357549.0       357548.0       357549.0       357549.0       357549.0
       357548.0       357548.0       357549.0       357548.0       357549.0
       357549.0       357548.0       357550.0       357548.0       357549.0
       357550.0       357547.0       357549.0       357548.0       357548.0
       357549.0       357549.0       357548.0       357547.0       357550.0
       357548.0       357547.0       357550.0       357548.0       357548.0
       357549.0       357548.0       357548.0       357548.0       357550.0
       357549.0       357548.0       357549.0       357548.0       357549.0
       357548.0       357548.0       357548.0       357548.0       357549.0
       357548.0       357548.0       357549.0       357548.0       357548.0
       357548.0       357550.0       357548.0       357548.0       357550.0
       357548.0       357549.0       357549.0       357549.0       357548.0
       357549.0       357549.0       357547.0       357550.0       357549.0
       357548.0       357549.0       357548.0       357549.0       357548.0
       357548.0       357549.0       357547.0       357550.0       357548.0
       357547.0       357549.0       357548.0       357551.0       357550.0
       357548.0       357549.0       357549.0       357549.0       357547.0
       357547.0       357550.0       357549.0       357547.0       357548.0
       357549.0       357550.0       357548.0       357547.0       357550.0
       357550.0       357548.0       357549.0       357549.0       357549.0
       357548.0       357549.0       357549.0       357547.0       357549.0
       357548.0       357548.0       357549.0       357548.0       357547.0
       357548.0       357549.0       357548.0       357548.0       357549.0
       357547.0       357548.0       357551.0       357549.0       357548.0
       357549.0       357549.0       357548.0       357547.0       357548.0
       357549.0       357548.0       357549.0       357549.0       357547.0
       357548.0       357547.0       357549.0       357551.0       357549.0
       357549.0       357550.0       357549.0       357547.0       357549.0
       357550.0       357547.0       357551.0       357550.0       357548.0
       357549.0       357548.0       357549.0       357549.0       357547.0
       357548.0       357548.0       357549.0       357548.0       357547.0
       357548.0       357548.0       357549.0       357550.0       357548.0
       357548.0       357548.0       357548.0       357548.0       357547.0
       357548.0       357548.0       357548.0       357548.0       357547.0
       357548.0       357550.0       357549.0       357547.0       357548.0
       357548.0       357549.0       357548.0       357547.0       357549.0
       357549.0       357548.0       357548.0       357549.0       357550.0
       357548.0       357549.0       357548.0       357547.0       357549.0
       357549.0       357549.0       357548.0       357549.0       357551.0
       357548.0       357548.0       357548.0       357548.0       357549.0
       357549.0       357548.0       357549.0       357549.0       357547.0
       357549.0       357548.0       357549.0       357549.0       357549.0
       357548.0       357549.0       357550.0       357546.0       357549.0
       357549.0       357547.0       357549.0       357549.0       357547.0
       357548.0       357549.0       357547.0       357550.0       357549.0
       357548.0       357551.0       357548.0       357548.0       357549.0
       357547.0       357549.0       357550.0       357548.0       357547.0
       357548.0       357549.0       357547.0       357548.0       357549.0
       357548.0       357548.0       357547.0       357548.0       357551.0
       357550.0       357548.0       357549.0       357547.0       357551.0
       357548.0       357545.0       357551.0       357548.0       357547.0
       357549.0       357547.0       357550.0       357549.0       357549.0
       357551.0       357550.0       357550.0       357549.0       357549.0
       357547.0       357548.0       357549.0       357551.0       357549.0
       357548.0       357550.0       357549.0       357549.0       357548.0
       357549.0       357548.0       357548.0       357548.0       357550.0
       357548.0       357547.0       357549.0       357548.0       357547.0
       357549.0       357549.0       357547.0       357547.0       357547.0
       357550.0       357548.0       357547.0       357549.0       357548.0
       357548.0       357548.0       357548.0       357548.0       357547.0
       357548.0       357550.0       357548.0       357548.0       357548.0
       357549.0       357549.0       357550.0       357550.0       357548.0
       357548.0       357548.0       357547.0       357549.0       357548.0
       357546.0       357548.0       357547.0       357548.0       357549.0
       357548.0       357547.0       357548.0       357550.0       357549.0
       357549.0       357548.0       357548.0       357548.0       357548.0
       357548.0       357549.0       357548.0       357546.0       357548.0
       357548.0       357549.0       357549.0       357547.0       357549.0
       357548.0       357548.0       357548.0       357547.0       357548.0
       357548.0       357549.0       357548.0       357547.0       357549.0
       357550.0       357551.0       357548.0       357547.0       357548.0
       357549.0       357547.0       357548.0       357550.0       357548.0
       357549.0       357549.0       357547.0       357548.0       357548.0
       357549.0       357548.0       357549.0       357550.0       357549.0
       357548.0       357548.0       357548.0       357547.0       357547.0
       357549.0       357548.0       357550.0       357549.0       357547.0
       357549.0       357549.0       357547.0       357548.0       357549.0
       357547.0       357549.0       357549.0       357547.0       357548.0
       357549.0       357549.0       357547.0       357549.0       357549.0
       357547.0       357549.0       357548.0       357547.0       357549.0
       357548.0       357548.0       357549.0       357550.0       357549.0
       357548.0       357550.0       357548.0       357549.0       357550.0
       357548.0       357547.0       357549.0       357551.0       357548.0
       357548.0       357550.0       357548.0       357548.0       357550.0
       357548.0       357549.0       357549.0       357548.0       357550.0
       357548.0       357549.0       357550.0       357547.0       357549.0
       357549.0       357548.0       357548.0       357549.0       357548.0
       357548.0       357548.0       357549.0       357548.0       357548.0
       357548.0       357547.0       357549.0       357549.0       357547.0
       357548.0       357549.0       357549.0       357548.0       357549.0
       357547.0       357546.0       357550.0       357548.0       357548.0
       357549.0       357547.0       357548.0       357547.0       357547.0
       357550.0       357548.0       357549.0       357550.0       357548.0
       357549.0       357547.0       357547.0       357548.0       357548.0
       357549.0       357547.0       357550.0       357548.0       357547.0
       357549.0       357548.0       357549.0       357549.0       357549.0
       357550.0       357548.0       357549.0       357550.0       357548.0
       357548.0       357549.0       357548.0       357548.0       357550.0
       357550.0       357548.0       357548.0       357549.0       357548.0
       357549.0       357550.0       357549.0       357549.0       357548.0
       357548.0       357549.0       357547.0       357549.0       357549.0
       357548.0       357550.0       357550.0       357548.0       357548.0
       357550.0       357549.0       357548.0       357550.0       357548.0
       357549.0       357550.0       357549.0       357549.0       357549.0
       357549.0       357548.0       357548.0       357548.0       357549.0
       357550.0       357548.0       357548.0       357549.0       357549.0
       357549.0       357549.0       357549.0       357549.0       357548.0
       357549.0       357549.0       357549.0       357549.0       357547.0
       357548.0       357549.0       357550.0       357548.0       357549.0
       357549.0       357548.0       357550.0       357549.0       357549.0
       357549.0       357547.0       357548.0       357550.0       357549.0
       357549.0       357549.0       357549.0       357548.0       357548.0
       357549.0       357550.0       357549.0       357547.0       357549.0
       357550.0       357548.0       357548.0       357549.0       357550.0
       357548.0       357548.0       357549.0       357549.0       357549.0
       357549.0       357548.0       357550.0       357550.0       357548.0
       357549.0       357549.0       357550.0       357549.0       357549.0
       357549.0       357548.0       357549.0       357547.0       357548.0
       357549.0       357548.0       357549.0       357548.0       357548.0
       357548.0       357549.0       357548.0       357547.0       357550.0
       357548.0       357546.0       357550.0       357548.0       357548.0
       357549.0       357550.0       357547.0       357548.0       357550.0
       357548.0       357549.0       357550.0       357548.0       357549.0
