     0.05000000      -12345.00      -12345.00   8.564250e+08      -12345.00
   0.0006800000       3899.951      -165.0237      -12345.00      -12345.00
      -12345.00      -12345.00      -12345.00      -12345.00      -12345.00
      -12345.00      -12345.00      -12345.00      -12345.00      -12345.00
      -12345.00      -12345.00      -12345.00      -12345.00      -12345.00
      -12345.00      -12345.00      -12345.00      -12345.00      -12345.00
      -12345.00      -32.92770       117.2390       275.0000       105.0000
       3.412500       95.90120      -12345.00       26.10000      -12345.00
      -12345.00      -12345.00      -12345.00      -12345.00      -12345.00
      -12345.00      -12345.00      -12345.00      -12345.00      -12345.00
       4604.264       152.4411       326.6907       41.40897      -12345.00
      -12345.00      -12345.00       0.000000       0.000000      -12345.00
      -12345.00      -12345.00      -12345.00      -12345.00      -12345.00
      -12345.00      -12345.00      -12345.00      -12345.00      -12345.00
      2004       361         1         1        37
        23         6    -12345    -12345     78000
    -12345    -12345    -12345    -12345    -12345
         1    -12345    -12345    -12345    -12345
    -12345    -12345    -12345    -12345    -12345
    -12345    -12345    -12345    -12345    -12345
    -12345    -12345    -12345    -12345    -12345
         1    -12345    -12345    -12345    -12345
NWAO    Off W Coast Of N
00      -12345  -12345  
-12345  -12345  -12345  
-12345  -12345  -12345  
-12345  -12345  -12345  
-12345  -12345  -12345  
-12345  -12345  BHZ     
IU      -12345  Geotech 
[...]
       87602.00       94217.00       100897.0       107624.0       114360.0
       121049.0       127650.0       134198.0       140754.0       147359.0
       154036.0       160778.0       167583.0       174450.0       181366.0
       188307.0       195229.0       202091.0       208878.0       215598.0
       222272.0       228911.0       235511.0       242048.0       248491.0
       254809.0       261001.0       267114.0       273192.0       279263.0
       285342.0       291420.0       297480.0       303494.0       309423.0
       315235.0       320922.0       326500.0       332011.0       337516.0
       343058.0       348668.0       354365.0       360147.0       366010.0
       371956.0       377987.0       384075.0       390179.0       396276.0
       402361.0       408447.0       414536.0       420609.0       426639.0
       432599.0       438471.0       444249.0       449937.0       455532.0
       461030.0       466418.0       471671.0       476761.0       481664.0
       486382.0       490927.0       495312.0       499557.0       503689.0
       507730.0       511673.0       515536.0       519343.0       523106.0
       526831.0       530501.0       534077.0       537544.0       540934.0
       544307.0       547712.0       551168.0       554653.0       558118.0
       561521.0       564845.0       568106.0       571312.0       574452.0
       577497.0       580419.0       583223.0       585916.0       588516.0
       591048.0       593521.0       595936.0       598279.0       600523.0
       602633.0       604577.0       606340.0       607948.0       609461.0
       610946.0       612443.0       613944.0       615384.0       616659.0
       617691.0       618451.0       618962.0       619242.0       619303.0
       619179.0       618920.0       618564.0       618136.0       617635.0
       617055.0       616378.0       615574.0       614593.0       613408.0
       612038.0       610533.0       608951.0       607336.0       605705.0
       604065.0       602417.0       600762.0       599091.0       597394.0
       595670.0       593922.0       592143.0       590302.0       588379.0
       586395.0       584387.0       582384.0       580401.0       578422.0
       576410.0       574330.0       572156.0       569847.0       567362.0
       564675.0       561799.0       558802.0       555774.0       552780.0
       549847.0       546954.0       544040.0       541042.0       537926.0
       534680.0       531319.0       527893.0       524438.0       520948.0
       517394.0       513740.0       509975.0       506113.0       502186.0
       498242.0       494319.0       490443.0       486617.0       482815.0
       478993.0       475097.0       471087.0       466933.0       462615.0
       458133.0       453487.0       448692.0       443777.0       438782.0
       433761.0       428769.0       423844.0       419017.0       414314.0
       409737.0       405260.0       400837.0       396430.0       391996.0
       387485.0       382865.0       378135.0       373307.0       368391.0
       363410.0       358383.0       353297.0       348136.0       342883.0
       337532.0       332084.0       326518.0       320816.0       314958.0
       308911.0       302649.0       296172.0       289503.0       282666.0
       275671.0       268512.0       261193.0       253744.0       246187.0
       238522.0       230727.0       222766.0       214603.0       206229.0
       197658.0       188906.0       179983.0       170891.0       161653.0
       152307.0       142882.0       133389.0       123830.0       114208.0
       104534.0       94831.00       85110.00       75369.00       65615.00
       55868.00       46149.00       36458.00       26788.00       17137.00
       7485.000      -2192.000      -11928.00      -21728.00      -31553.00
      -41358.00      -51123.00      -60849.00      -70562.00      -80281.00
      -90014.00      -99757.00      -109498.0      -119221.0      -128904.0
      -138527.0      -148091.0      -157622.0      -167153.0      -176703.0
      -186268.0      -195833.0      -205389.0      -214933.0      -224454.0
      -233937.0      -243392.0      -252842.0      -262266.0      -271635.0
      -280935.0      -290169.0      -299363.0      -308555.0      -317795.0
      -327119.0      -336539.0      -346040.0      -355589.0      -365147.0
      -374666.0      -384111.0      -393465.0      -402746.0      -411991.0
      -421238.0      -430507.0      -439786.0      -449020.0      -458154.0
      -467165.0      -476073.0      -484925.0      -493760.0      -502590.0
      -511413.0      -520205.0      -528933.0      -537566.0      -546101.0
      -554574.0      -563001.0      -571382.0      -579715.0      -588004.0
      -596237.0      -604392.0      -612466.0      -620476.0      -628428.0
      -636321.0      -644151.0      -651908.0      -659582.0      -667167.0
      -674659.0      -682045.0      -689349.0      -696614.0      -703883.0
      -711167.0      -718460.0      -725764.0      -733081.0      -740410.0
      -747727.0      -754967.0      -762067.0      -769004.0      -775803.0
      -782521.0      -789168.0      -795704.0      -802075.0      -808220.0
      -814102.0      -819693.0      -824976.0      -829958.0      -834646.0
      -839044.0      -843155.0      -846988.0      -850543.0      -853802.0
      -856765.0      -859439.0      -861848.0      -864037.0      -866050.0
      -867898.0      -869570.0      -871067.0      -872405.0      -873605.0
      -874690.0      -875688.0      -876602.0      -877413.0      -878096.0
      -878645.0      -879057.0      -879326.0      -879459.0      -879458.0
      -879353.0      -879199.0      -879056.0      -878957.0      -878906.0
      -878884.0      -878873.0      -878855.0      -878802.0      -878668.0
      -878386.0      -877916.0      -877267.0      -876481.0      -875611.0
      -874666.0      -873604.0      -872352.0      -870858.0      -869109.0
      -867131.0      -864960.0      -862620.0      -860110.0      -857425.0
      -854554.0      -851467.0      -848143.0      -844583.0      -840800.0
      -836826.0      -832710.0      -828484.0      -824176.0      -819826.0
      -815464.0      -811083.0      -806666.0      -802177.0      -797571.0
      -792822.0      -787898.0      -782779.0      -777465.0      -771969.0
      -766312.0      -760520.0      -754599.0      -748531.0      -742302.0
      -735900.0      -729327.0      -722618.0      -715816.0      -708940.0
      -701973.0      -694873.0      -687588.0      -680076.0      -672316.0
      -664321.0      -656133.0      -647800.0      -639357.0      -630809.0
      -622164.0      -613445.0      -604666.0      -595827.0      -586920.0
      -577941.0      -568894.0      -559777.0      -550607.0      -541406.0
      -532193.0      -522986.0      -513799.0      -504637.0      -495484.0
      -486315.0      -477085.0      -467745.0      -458252.0      -448582.0
      -438741.0      -428731.0      -418572.0      -408302.0      -397927.0
      -387442.0      -376855.0      -366186.0      -355470.0      -344720.0
      -333933.0      -323102.0      -312228.0      -301305.0      -290333.0
      -279327.0      -268320.0      -257338.0      -246391.0      -235482.0
      -224603.0      -213754.0      -202928.0      -192080.0      -181154.0
      -170117.0      -158976.0      -147771.0      -136534.0      -125264.0
      -113947.0      -102583.0      -91168.00      -79704.00      -68205.00
      -56681.00      -45140.00      -33593.00      -22056.00      -10531.00
       997.0000       12537.00       24096.00       35693.00       47362.00
       59128.00       71007.00       83009.00       95132.00       107342.0
       119600.0       131884.0       144182.0       156468.0       168713.0
       180901.0       193033.0       205127.0       217213.0       229323.0
       241467.0       253625.0       265778.0       277905.0       289989.0
       302002.0       313916.0       325729.0       337452.0       349113.0
       360740.0       372340.0       383909.0       395427.0       406870.0
       418191.0       429330.0       440257.0       450975.0       461490.0
       471817.0       481972.0       491981.0       501868.0       511638.0
       521297.0       530875.0       540408.0       549918.0       559416.0
       568899.0       578344.0       587742.0       597082.0       606359.0
       615588.0       624774.0       633902.0       642941.0       651865.0
       660673.0       669382.0       678009.0       686544.0       694980.0
       703313.0       711534.0       719658.0       727711.0       735694.0
       743575.0       751304.0       758833.0       766130.0       773186.0
       780009.0       786642.0       793149.0       799583.0       805965.0
       812278.0       818483.0       824552.0       830486.0       836306.0
       842041.0       847702.0       853273.0       858737.0       864080.0
       869293.0       874349.0       879238.0       883969.0       888545.0
       892968.0       897259.0       901455.0       905595.0       909698.0
       913740.0       917676.0       921449.0       925015.0       928345.0
       931419.0       934244.0       936860.0       939316.0       941637.0
       943804.0       945793.0       947590.0       949185.0       950571.0
       951750.0       952726.0       953498.0       954050.0       954368.0
       954465.0       954365.0       954072.0       953566.0       952810.0
       951762.0       950422.0       948822.0       946980.0       944913.0
       942639.0       940164.0       937492.0       934622.0       931538.0
       928205.0       924604.0       920757.0       916710.0       912530.0
       908283.0       903990.0       899649.0       895233.0       890711.0
       886060.0       881254.0       876279.0       871118.0       865765.0
       860243.0       854585.0       848804.0       842893.0       836839.0
       830630.0       824265.0       817745.0       811060.0       804181.0
       797083.0       789756.0       782215.0       774478.0       766540.0
       758405.0       750078.0       741551.0       732821.0       723879.0
       714735.0       705403.0       695875.0       686136.0       676172.0
       666001.0       655654.0       645132.0       634427.0       623557.0
       612562.0       601458.0       590245.0       578917.0       567475.0
       555956.0       544395.0       532802.0       521162.0       509444.0
       497654.0       485820.0       473930.0       461960.0       449889.0
       437731.0       425515.0       413266.0       401010.0       388744.0
       376426.0       364018.0       351512.0       338930.0       326299.0
       313637.0       300936.0       288171.0       275307.0       262315.0
       249188.0       235945.0       222615.0       209214.0       195727.0
       182136.0       168454.0       154714.0       140976.0       127309.0
       113753.0       100309.0       86953.00       73675.00       60478.00
       47363.00       34324.00       21341.00       8361.000      -4671.000
      -17775.00      -30956.00      -44212.00      -57535.00      -70913.00
      -84351.00      -97854.00      -111406.0      -124951.0      -138427.0
      -151806.0      -165113.0      -178404.0      -191734.0      -205133.0
      -218605.0      -232133.0      -245692.0      -259268.0      -272863.0
      -286507.0      -300235.0      -314062.0      -327958.0      -341870.0
      -355766.0      -369644.0      -383509.0      -397367.0      -411223.0
      -425079.0      -438913.0      -452706.0      -466460.0      -480170.0
      -493810.0      -507368.0      -520865.0      -534343.0      -547831.0
      -561335.0      -574844.0      -588343.0      -601814.0      -615236.0
      -628593.0      -641891.0      -655149.0      -668380.0      -681577.0
      -694717.0      -707793.0      -720816.0      -733798.0      -746744.0
      -759648.0      -772477.0      -785175.0      -797680.0      -809939.0
      -821935.0      -833668.0      -845137.0      -856317.0      -867189.0
      -877768.0      -888094.0      -898206.0      -908131.0      -917901.0
      -927544.0      -937061.0      -946415.0      -955574.0      -964520.0
      -973243.0      -981739.0      -990012.0      -998084.0      -1005961.
      -1013620.      -1021041.      -1028226.      -1035177.      -1041899.
      -1048401.      -1054682.      -1060747.      -1066602.      -1072265.
      -1077765.      -1083121.      -1088346.      -1093470.      -1098527.
      -1103549.      -1108544.      -1113483.      -1118323.      -1122997.
      -1127443.      -1131625.      -1135533.      -1139158.      -1142489.
      -1145543.      -1148345.      -1150905.      -1153211.      -1155229.
      -1156928.      -1158306.      -1159383.      -1160172.      -1160666.
      -1160847.      -1160702.      -1160253.      -1159533.      -1158566.
      -1157362.      -1155920.      -1154241.      -1152332.      -1150203.
      -1147871.      -1145344.      -1142619.      -1139709.      -1136627.
      -1133379.      -1129954.      -1126362.      -1122635.      -1118797.
      -1114840.      -1110739.      -1106469.      -1102015.      -1097364.
      -1092500.      -1087416.      -1082121.      -1076639.      -1070989.
      -1065180.      -1059218.      -1053109.      -1046864.      -1040499.
      -1034021.      -1027432.      -1020726.      -1013891.      -1006915.
      -999776.0      -992456.0      -984948.0      -977270.0      -969431.0
      -961421.0      -953235.0      -944859.0      -936253.0      -927379.0
      -918229.0      -908831.0      -899229.0      -889481.0      -879646.0
      -869763.0      -859847.0      -849912.0      -839978.0      -830073.0
      -820217.0      -810425.0      -800714.0      -791077.0      -781470.0
      -771842.0      -762167.0      -752436.0      -742669.0      -732899.0
      -723146.0      -713421.0      -703728.0      -694049.0      -684333.0
      -674548.0      -664697.0      -654785.0      -644818.0      -634793.0
      -624713.0      -614569.0      -604312.0      -593891.0      -583296.0
      -572538.0      -561656.0      -550687.0      -539638.0      -528518.0
      -517339.0      -506109.0      -494826.0      -483489.0      -472124.0
      -460770.0      -449457.0      -438193.0      -426968.0      -415764.0
      -404563.0      -393343.0      -382076.0      -370732.0      -359300.0
      -347778.0      -336184.0      -324560.0      -312947.0      -301364.0
      -289791.0      -278172.0      -266464.0      -254668.0      -242812.0
      -230948.0      -219121.0      -207351.0      -195634.0      -183928.0
      -172163.0      -160274.0      -148237.0      -136065.0      -123773.0
      -111370.0      -98875.00      -86322.00      -73750.00      -61188.00
      -48632.00      -36053.00      -23442.00      -10809.00       1831.000
       14479.00       27163.00       39912.00       52722.00       65561.00
       78406.00       91243.00       104087.0       116952.0       129821.0
       142649.0       155383.0       168013.0       180566.0       193056.0
       205489.0       217870.0       230199.0       242477.0       254728.0
       266975.0       279231.0       291492.0       303720.0       315869.0
       327897.0       339785.0       351542.0       363170.0       374673.0
       386082.0       397422.0       408684.0       419843.0       430879.0
       441768.0       452478.0       462998.0       473327.0       483463.0
       493410.0       503201.0       512858.0       522376.0       531713.0
       540844.0       549785.0       558567.0       567213.0       575744.0
       584173.0       592505.0       600720.0       608787.0       616691.0
       624448.0       632085.0       639613.0       647032.0       654337.0
       661519.0       668572.0       675505.0       682330.0       689046.0
       695643.0       702106.0       708409.0       714541.0       720510.0
       726314.0       731938.0       737376.0       742630.0       747689.0
       752568.0       757310.0       761967.0       766578.0       771149.0
       775666.0       780097.0       784416.0       788598.0       792625.0
       796496.0       800207.0       803755.0       807138.0       810374.0
       813493.0       816498.0       819361.0       822038.0       824506.0
       826778.0       828880.0       830837.0       832646.0       834289.0
       835765.0       837081.0       838231.0       839188.0       839943.0
       840519.0       840947.0       841229.0       841351.0       841314.0
       841135.0       840838.0       840437.0       839928.0       839277.0
       838468.0       837513.0       836440.0       835278.0       834023.0
       832660.0       831195.0       829634.0       827967.0       826190.0
       824314.0       822362.0       820384.0       818409.0       816442.0
       814488.0       812539.0       810576.0       808576.0       806515.0
       804378.0       802133.0       799750.0       797216.0       794525.0
       791668.0       788634.0       785420.0       782043.0       778504.0
       774785.0       770881.0       766804.0       762573.0       758187.0
       753623.0       748860.0       743893.0       738735.0       733415.0
       727984.0       722490.0       716971.0       711450.0       705927.0
       700383.0       694775.0       689073.0       683258.0       677321.0
       671281.0       665166.0       658987.0       652748.0       646464.0
       640157.0       633825.0       627458.0       621053.0       614611.0
       608147.0       601673.0       595194.0       588712.0       582212.0
       575680.0       569103.0       562500.0       555903.0       549308.0
       542687.0       536003.0       529238.0       522390.0       515467.0
       508516.0       501587.0       494698.0       487846.0       481019.0
       474205.0       467386.0       460535.0       453618.0       446613.0
       439525.0       432370.0       425151.0       417861.0       410497.0
       403076.0       395629.0       388184.0       380762.0       373399.0
       366121.0       358937.0       351834.0       344780.0       337750.0
       330748.0       323784.0       316862.0       309987.0       303160.0
       296380.0       289667.0       283040.0       276510.0       270075.0
       263715.0       257419.0       251181.0       244991.0       238832.0
