     0.05000000      -12345.00      -12345.00   1.064450e+09      -12345.00
   0.0001450000       3899.950      -196.0231      -12345.00      -12345.00
      -12345.00      -12345.00      -12345.00      -12345.00      -12345.00
      -12345.00      -12345.00      -12345.00      -12345.00      -12345.00
      -12345.00      -12345.00      -12345.00      -12345.00      -12345.00
      -12345.00      -12345.00      -12345.00      -12345.00      -12345.00
      -12345.00       47.86510       107.0532       1610.000       0.000000
       3.412500       95.90120      -12345.00       26.10000      -12345.00
      -12345.00      -12345.00      -12345.00      -12345.00      -12345.00
      -12345.00      -12345.00      -12345.00      -12345.00      -12345.00
       5038.678       10.55462       195.7568       45.31593      -12345.00
      -12345.00      -12345.00       0.000000       0.000000      -12345.00
      -12345.00      -12345.00      -12345.00      -12345.00      -12345.00
      -12345.00      -12345.00      -12345.00      -12345.00      -12345.00
      2004       361         1         2         8
        23         6    -12345    -12345     78000
    -12345    -12345    -12345    -12345    -12345
         1    -12345    -12345    -12345    -12345
    -12345    -12345    -12345    -12345    -12345
    -12345    -12345    -12345    -12345    -12345
    -12345    -12345    -12345    -12345    -12345
         1    -12345    -12345    -12345    -12345
ULN     Off W Coast Of N
00      -12345  -12345  
-12345  -12345  -12345  
-12345  -12345  -12345  
-12345  -12345  -12345  
-12345  -12345  -12345  
-12345  -12345  BHZ     
IU      -12345  Streckei
[...]
       1670413.       1689370.       1708276.       1727135.       1745939.
       1764701.       1783389.       1802017.       1820594.       1839124.
       1857608.       1876034.       1894426.       1912770.       1931047.
       1949266.       1967428.       1985499.       2003472.       2021348.
       2039127.       2056798.       2074323.       2091699.       2108939.
       2126027.       2142963.       2159742.       2176344.       2192761.
       2208966.       2224950.       2240699.       2256188.       2271437.
       2286454.       2301225.       2315726.       2329945.       2343890.
       2357545.       2370916.       2384023.       2396860.       2409422.
       2421703.       2433715.       2445469.       2456957.       2468182.
       2479152.       2489855.       2500281.       2510444.       2520348.
       2529989.       2539353.       2548433.       2557224.       2565728.
       2573934.       2581823.       2589390.       2596625.       2603524.
       2610059.       2616200.       2621957.       2627321.       2632282.
       2636822.       2640905.       2644526.       2647655.       2650283.
       2652434.       2654111.       2655330.       2656068.       2656314.
       2656072.       2655336.       2654115.       2652388.       2650149.
       2647429.       2644232.       2640546.       2636358.       2631669.
       2626480.       2620771.       2614536.       2607769.       2600460.
       2592607.       2584190.       2575205.       2565632.       2555444.
       2544641.       2533231.       2521211.       2508571.       2495318.
       2481446.       2466932.       2451768.       2435954.       2419488.
       2402344.       2384516.       2365997.       2346773.       2326835.
       2306181.       2284803.       2262688.       2239818.       2216182.
       2191795.       2166636.       2140690.       2113989.       2086531.
       2058296.       2029288.       1999516.       1968948.       1937560.
       1905374.       1872393.       1838625.       1804067.       1768693.
       1732520.       1695534.       1657729.       1619123.       1579705.
       1539474.       1498428.       1456576.       1413907.       1370413.
       1326097.       1280951.       1234983.       1188193.       1140598.
       1092199.       1043016.       993040.0       942261.0       890726.0
       838422.0       785359.0       731529.0       676939.0       621624.0
       565574.0       508834.0       451388.0       393243.0       334443.0
       274967.0       214825.0       154009.0       92534.00       30418.00
      -32312.00      -95607.00      -159473.0      -223896.0      -288845.0
      -354306.0      -420264.0      -486724.0      -553648.0      -620991.0
      -688755.0      -756905.0      -825411.0      -894251.0      -963394.0
      -1032817.      -1102499.      -1172412.      -1242557.      -1312909.
      -1383412.      -1454070.      -1524854.      -1595719.      -1666659.
      -1737661.      -1808709.      -1879777.      -1950846.      -2021897.
      -2092880.      -2163778.      -2234581.      -2305289.      -2375890.
      -2446342.      -2516616.      -2586706.      -2656592.      -2726230.
      -2795629.      -2864774.      -2933628.      -3002209.      -3070499.
      -3138473.      -3206100.      -3273373.      -3340303.      -3406839.
      -3472955.      -3538659.      -3603933.      -3668745.      -3733074.
      -3796915.      -3860231.      -3922995.      -3985203.      -4046861.
      -4107968.      -4168490.      -4228413.      -4287725.      -4346424.
      -4404528.      -4462026.      -4518927.      -4575209.      -4630819.
      -4685734.      -4739919.      -4793400.      -4846192.      -4898280.
      -4949665.      -5000315.      -5050209.      -5099359.      -5147787.
      -5195475.      -5242411.      -5288592.      -5334002.      -5378645.
      -5422529.      -5465661.      -5508009.      -5549558.      -5590306.
      -5630260.      -5669398.      -5707662.      -5745057.      -5781601.
      -5817282.      -5852069.      -5885943.      -5918925.      -5951005.
      -5982146.      -6012343.      -6041592.      -6069894.      -6097233.
      -6123590.      -6148985.      -6173398.      -6196807.      -6219205.
      -6240572.      -6260905.      -6280185.      -6298416.      -6315611.
      -6331757.      -6346839.      -6360851.      -6373806.      -6385684.
      -6396490.      -6406250.      -6414954.      -6422593.      -6429132.
      -6434581.      -6438956.      -6442232.      -6444412.      -6445499.
      -6445495.      -6444391.      -6442194.      -6438923.      -6434557.
      -6429080.      -6422495.      -6414799.      -6405986.      -6396057.
      -6385020.      -6372894.      -6359671.      -6345337.      -6329906.
      -6313355.      -6295669.      -6276869.      -6256967.      -6235966.
      -6213865.      -6190671.      -6166405.      -6141063.      -6114639.
      -6087145.      -6058601.      -6029010.      -5998372.      -5966718.
      -5934047.      -5900355.      -5865664.      -5829984.      -5793323.
      -5755690.      -5717112.      -5677610.      -5637180.      -5595826.
      -5553556.      -5510387.      -5466321.      -5421357.      -5375501.
      -5328748.      -5281105.      -5232585.      -5183195.      -5132947.
      -5081848.      -5029896.      -4977102.      -4923469.      -4869005.
      -4813737.      -4757666.      -4700821.      -4643242.      -4584931.
      -4525881.      -4466083.      -4405561.      -4344334.      -4282407.
      -4219826.      -4156626.      -4092815.      -4028408.      -3963411.
      -3897828.      -3831672.      -3764956.      -3697688.      -3629887.
      -3561563.      -3492720.      -3423368.      -3353518.      -3283179.
      -3212363.      -3141090.      -3069378.      -2997255.      -2924743.
      -2851855.      -2778580.      -2704908.      -2630867.      -2556472.
      -2481715.      -2406614.      -2331181.      -2255431.      -2179373.
      -2103018.      -2026399.      -1949515.      -1872356.      -1794945.
      -1717299.      -1639434.      -1561367.      -1483110.      -1404682.
      -1326078.      -1247317.      -1168432.      -1089434.      -1010328.
      -931117.0      -851815.0      -772448.0      -693030.0      -613572.0
      -534093.0      -454599.0      -375106.0      -295633.0      -216199.0
      -136821.0      -57488.00       21788.00       100981.0       180071.0
       259054.0       337914.0       416629.0       495206.0       573626.0
       651874.0       729928.0       807778.0       885425.0       962851.0
       1040050.       1117018.       1193749.       1270218.       1346424.
       1422368.       1498052.       1573477.       1648625.       1723487.
       1798043.       1872293.       1946240.       2019866.       2093143.
       2166059.       2238616.       2310789.       2382564.       2453949.
       2524931.       2595504.       2665669.       2735437.       2804827.
       2873840.       2942453.       3010644.       3078400.       3145706.
       3212564.       3278959.       3344855.       3410234.       3475072.
       3539365.       3603134.       3666358.       3729009.       3791080.
       3852575.       3913503.       3973834.       4033550.       4092642.
       4151069.       4208831.       4265927.       4322344.       4378085.
       4433133.       4487504.       4541196.       4594188.       4646473.
       4698035.       4748869.       4798956.       4848298.       4896900.
       4944761.       4991900.       5038307.       5083986.       5128947.
       5173180.       5216691.       5259478.       5301538.       5342893.
       5383555.       5423526.       5462810.       5501396.       5539295.
       5576516.       5613045.       5648894.       5684068.       5718578.
       5752431.       5785632.       5818207.       5850143.       5881448.
       5912145.       5942224.       5971691.       6000572.       6028888.
       6056672.       6083926.       6110643.       6136838.       6162531.
       6187757.       6212521.       6236815.       6260640.       6284004.
       6306940.       6329480.       6351640.       6373402.       6394748.
       6415675.       6436198.       6456334.       6476080.       6495452.
       6514466.       6533132.       6551469.       6569473.       6587127.
       6604437.       6621433.       6638120.       6654504.       6670587.
       6686377.       6701903.       6717169.       6732164.       6746904.
       6761402.       6775649.       6789645.       6803398.       6816908.
       6830178.       6843210.       6856009.       6868571.       6880880.
       6892925.       6904686.       6916166.       6927356.       6938257.
       6948872.       6959195.       6969233.       6978979.       6988424.
       6997543.       7006316.       7014733.       7022771.       7030428.
       7037696.       7044569.       7051032.       7057059.       7062654.
       7067817.       7072527.       7076754.       7080481.       7083717.
       7086457.       7088680.       7090366.       7091496.       7092058.
       7092025.       7091382.       7090108.       7088151.       7085478.
       7082070.       7077900.       7072940.       7067152.       7060511.
       7053002.       7044601.       7035295.       7025050.       7013827.
       7001568.       6988224.       6973777.       6958190.       6941433.
       6923488.       6904332.       6883926.       6862251.       6839305.
       6815051.       6789455.       6762506.       6734177.       6704445.
       6673293.       6640697.       6606636.       6571088.       6534014.
       6495423.       6455309.       6413626.       6370377.       6325527.
       6279063.       6231001.       6181308.       6129989.       6077034.
       6022424.       5966178.       5908302.       5848784.       5787599.
       5724749.       5660252.       5594128.       5526369.       5456960.
       5385919.       5313257.       5238985.       5163099.       5085593.
       5006479.       4925783.       4843533.       4759714.       4674334.
       4587424.       4498998.       4409049.       4317591.       4224651.
       4130233.       4034373.       3937075.       3838375.       3738306.
       3636868.       3534102.       3430036.       3324686.       3218070.
       3110218.       3001139.       2890843.       2779360.       2666733.
       2553010.       2438178.       2322278.       2205348.       2087395.
       1968444.       1848503.       1727654.       1605897.       1483258.
       1359822.       1235592.       1110617.       984921.0       858504.0
       731439.0       603746.0       475392.0       346427.0       216865.0
       86703.00      -43999.00      -175238.0      -306973.0      -439161.0
      -571789.0      -704794.0      -838186.0      -971907.0      -1105900.
      -1240191.      -1374768.      -1509612.      -1644669.      -1779991.
      -1915487.      -2051117.      -2186976.      -2322962.      -2459043.
      -2595219.      -2731496.      -2867760.      -3003953.      -3140184.
      -3276346.      -3412402.      -3548335.      -3684113.      -3819774.
      -3955199.      -4090302.      -4225077.      -4359575.      -4493781.
      -4627592.      -4760960.      -4893857.      -5026325.      -5158285.
      -5289618.      -5420343.      -5550479.      -5679957.      -5808637.
      -5936586.      -6063846.      -6190339.      -6316042.      -6440834.
      -6564691.      -6687596.      -6809444.      -6930240.      -7049988.
      -7168658.      -7286190.      -7402557.      -7517776.      -7631781.
      -7744478.      -7855848.      -7965889.      -8074584.      -8181906.
      -8287815.      -8392248.      -8495001.      -8595981.      -8695595.
      -8793481.      -8889840.      -8984597.      -9077411.      -9169053.
      -9257818.      -9345821.      -9430937.      -9515145.      -9597286.
      -9677050.      -9757480.      -9794956.      -9792822.      -9794530.
      -9795093.      -9795802.      -9797223.      -9797632.      -9798984.
      -9799132.      -9799838.      -9800196.      -9800637.      -9801107.
      -9801457.      -9801942.      -9802090.      -9802078.      -9802070.
      -9802056.      -9802049.      -9802053.      -9802043.      -9802037.
      -9802033.      -9802026.      -9802018.      -9802010.      -9802005.
      -9801996.      -9801989.      -9801985.      -9801978.      -9801972.
      -9801973.      -9801974.      -9801955.      -9801927.      -9801952.
      -9801928.      -9801950.      -9801947.      -9801979.      -9801006.
      -9794968.      -9795305.      -9796345.      -9791973.      -9799186.
      -9788016.      -9800530.      -9784133.      -9787191.      -9791802.
      -9770072.      -9813076.      -9737477.      -9877112.      -9493642.
      -8628177.      -8581587.      -8587961.      -8475797.      -8464224.
      -8365106.      -8328149.      -8242528.      -8177612.      -8109099.
      -8031025.      -7962454.      -7879599.      -7804624.      -7719189.
      -7631346.      -7545647.      -7457635.      -7367579.      -7275407.
      -7181229.      -7085051.      -6986841.      -6886719.      -6784693.
      -6680782.      -6575047.      -6467521.      -6358207.      -6247117.
      -6134278.      -6019733.      -5903507.      -5785637.      -5666163.
      -5545128.      -5422575.      -5298528.      -5173047.      -5046171.
      -4917909.      -4788314.      -4657419.      -4525278.      -4391925.
      -4257392.      -4121762.      -3985073.      -3847353.      -3708642.
      -3568974.      -3428396.      -3286943.      -3144681.      -3001641.
      -2857853.      -2713378.      -2568255.      -2422520.      -2276209.
      -2129371.      -1982037.      -1834231.      -1686001.      -1537395.
      -1388461.      -1239237.      -1089777.      -940112.0      -790282.0
      -640348.0      -490320.0      -340208.0      -190019.0      -39760.00
       110539.0       260842.0       411102.0       561292.0       711358.0
       861247.0       1010922.       1160345.       1309510.       1458370.
       1606884.       1755028.       1902760.       2050067.       2196900.
       2343192.       2488918.       2634061.       2778608.       2922559.
       3065870.       3208475.       3350371.       3491560.       3632014.
       3771692.       3910559.       4048611.       4185812.       4322142.
       4457571.       4592038.       4725523.       4858014.       4989498.
       5119946.       5249322.       5377615.       5504797.       5630830.
       5755675.       5879311.       6001758.       6122995.       6242986.
       6361703.       6479117.       6595219.       6710002.       6823434.
       6935459.       7046042.       7155167.       7262811.       7368949.
       7473566.       7576673.       7678284.       7778375.       7876881.
       7973764.       8069022.       8162649.       8254612.       8344895.
       8433490.       8520360.       8605313.       8688482.       8770029.
       8849674.       8927783.       9003818.       9078301.       9150686.
       9220961.       9289869.       9356011.       9421793.       9483564.
       9547055.       9598389.       9610936.       9610162.       9612066.
       9611930.       9613199.       9613637.       9614499.       9615081.
       9615363.       9615852.       9616057.       9616485.       9616759.
       9617108.       9617382.       9617423.       9617418.       9617409.
       9617404.       9617401.       9617396.       9617396.       9617392.
       9617387.       9617383.       9617378.       9617374.       9617369.
       9617365.       9617361.       9617357.       9617352.       9617350.
       9617349.       9617345.       9617342.       9617339.       9617335.
       9617333.       9617327.       9617321.       9617322.       9617324.
       9617325.       9617328.       9617332.       9617337.       9617307.
       9617274.       9617312.       9617274.       9617318.       9617302.
       9617377.       9615223.       9605925.       9607742.       9607658.
       9603190.       9612211.       9596579.       9615985.       9587134.
       9599851.       9595632.       9577783.       9626144.       9529373.
       9732430.       9012145.       7753725.       7745058.       7731970.
       7596929.       7582145.       7456329.       7419101.       7310069.
       7241110.       7161359.       7076552.       7003377.       6914340.
       6838325.       6748414.       6658887.       6574540.       6489231.
       6403457.       6317065.       6230187.       6142822.       6054959.
       5966695.       5878044.       5789028.       5699633.       5609921.
       5519889.       5429587.       5339089.       5248391.       5157566.
       5066608.       4975511.       4884322.       4793023.       4701640.
       4610200.       4518728.       4427261.       4335799.       4244394.
       4153103.       4061928.       3970871.       3879963.       3789239.
       3698696.       3608322.       3518150.       3428201.       3338497.
       3249041.       3159837.       3070914.       2982279.       2893954.
       2805964.       2718319.       2631047.       2544180.       2457700.
       2371646.       2286037.       2200853.       2116090.       2031764.
       1947930.       1864609.       1781812.       1699549.       1617835.
       1536703.       1456157.       1376219.       1296891.       1218144.
       1139973.       1062384.       985391.0       909028.0       833326.0
       758294.0       683935.0       610247.0       537239.0       464930.0
       393305.0       322369.0       252146.0       182621.0       113773.0
       45609.00      -21863.00      -88625.00      -154673.0      -220015.0
      -284627.0      -348508.0      -411665.0      -474101.0      -535801.0
      -596733.0      -656912.0      -716340.0      -774998.0      -832887.0
      -889988.0      -946295.0      -1001819.      -1056544.      -1110479.
      -1163637.      -1216013.      -1267625.      -1318488.      -1368603.
      -1417976.      -1466619.      -1514541.      -1561731.      -1608204.
      -1653977.      -1699024.      -1743339.      -1786931.      -1829787.
      -1871904.      -1913273.      -1953916.      -1993844.      -2033049.
