     0.02500000      -12345.00      -12345.00   8.682110e+08      -12345.00
   5.900000e-05       3899.975      -373.0231      -12345.00      -12345.00
      -12345.00      -12345.00      -12345.00      -12345.00      -12345.00
      -12345.00      -12345.00      -12345.00      -12345.00      -12345.00
      -12345.00      -12345.00      -12345.00      -12345.00      -12345.00
      -12345.00      -12345.00      -12345.00      -12345.00      -12345.00
      -12345.00       19.28340       166.6520      -73.70000       81.70000
       3.412500       95.90120      -12345.00       26.10000      -12345.00
      -12345.00      -12345.00      -12345.00      -12345.00      -12345.00
      -12345.00      -12345.00      -12345.00      -12345.00      -12345.00
       7862.762       70.87263       266.8307       70.71465      -12345.00
      -12345.00      -12345.00       0.000000       0.000000      -12345.00
      -12345.00      -12345.00      -12345.00      -12345.00      -12345.00
      -12345.00      -12345.00      -12345.00      -12345.00      -12345.00
      2004       361         1         5         5
        23         6    -12345    -12345    156000
    -12345    -12345    -12345    -12345    -12345
         1    -12345    -12345    -12345    -12345
    -12345    -12345    -12345    -12345    -12345
    -12345    -12345    -12345    -12345    -12345
    -12345    -12345    -12345    -12345    -12345
         1    -12345    -12345    -12345    -12345
WAKE    Off W Coast Of N
01      -12345  -12345  
-12345  -12345  -12345  
-12345  -12345  -12345  
-12345  -12345  -12345  
-12345  -12345  -12345  
-12345  -12345  BHZ     
IU      -12345  Geotech 
[...]
      -7472389.      -7472521.      -7472728.      -7470835.      -7469934.
      -7470585.      -7471558.      -7472765.      -7472855.      -7472058.
      -7470854.      -7471532.      -7472888.      -7474148.      -7475527.
      -7475137.      -7475246.      -7474108.      -7472114.      -7472281.
      -7472799.      -7474127.      -7473740.      -7472328.      -7471676.
      -7471027.      -7471841.      -7472458.      -7473528.      -7474482.
      -7474665.      -7476044.      -7477270.      -7477253.      -7477818.
      -7478265.      -7477720.      -7477541.      -7477564.      -7478141.
      -7478548.      -7478365.      -7477908.      -7478172.      -7478289.
      -7476156.      -7476455.      -7477313.      -7476057.      -7476117.
      -7476646.      -7478158.      -7478818.      -7478180.      -7477869.
      -7478784.      -7479003.      -7479281.      -7478997.      -7474995.
      -7476840.      -7479687.      -7478292.      -7477079.      -7474116.
      -7473952.      -7474998.      -7474959.      -7474927.      -7473839.
      -7475177.      -7476947.      -7475538.      -7474662.      -7476643.
      -7478119.      -7478070.      -7478463.      -7475505.      -7473775.
      -7475258.      -7474687.      -7475642.      -7476240.      -7475958.
      -7476942.      -7477200.      -7476730.      -7476768.      -7476430.
      -7475869.      -7476117.      -7476397.      -7477629.      -7478247.
      -7479354.      -7480309.      -7479754.      -7480031.      -7478251.
      -7477853.      -7478759.      -7478386.      -7479205.      -7479423.
      -7479570.      -7479284.      -7479067.      -7478439.      -7477909.
      -7478256.      -7477970.      -7477980.      -7476934.      -7476395.
      -7476862.      -7477406.      -7478299.      -7479625.      -7480291.
      -7479886.      -7481299.      -7481930.      -7481354.      -7481236.
      -7481406.      -7480880.      -7479776.      -7480951.      -7481447.
      -7480944.      -7480703.      -7481014.      -7481975.      -7481224.
      -7480957.      -7481653.      -7482041.      -7481973.      -7480965.
      -7481219.      -7482581.      -7483369.      -7484032.      -7483982.
      -7484164.      -7484675.      -7484699.      -7485629.      -7484644.
      -7482863.      -7485264.      -7485924.      -7481740.      -7481473.
      -7484362.      -7485359.      -7485498.      -7485579.      -7486192.
      -7485351.      -7485288.      -7486134.      -7485561.      -7485184.
      -7485296.      -7486228.      -7486912.      -7487141.      -7487097.
      -7485556.      -7485754.      -7487901.      -7488731.      -7489569.
      -7487886.      -7485421.      -7485328.      -7484612.      -7483284.
      -7484158.      -7487504.      -7488833.      -7489010.      -7489628.
      -7490189.      -7491019.      -7490928.      -7490576.      -7490990.
      -7490573.      -7489522.      -7489802.      -7489630.      -7489095.
      -7489673.      -7490717.      -7491911.      -7493187.      -7492989.
      -7493234.      -7493626.      -7489161.      -7483767.      -7483352.
      -7484084.      -7484118.      -7485432.      -7485079.      -7487135.
      -7488629.      -7487739.      -7489255.      -7487163.      -7485956.
      -7486752.      -7487376.      -7488492.      -7488725.      -7489091.
      -7485429.      -7482513.      -7484660.      -7484383.      -7483005.
      -7483756.      -7483312.      -7484869.      -7485425.      -7485494.
      -7488026.      -7487404.      -7487769.      -7488352.      -7485142.
      -7482415.      -7479557.      -7477370.      -7477667.      -7476913.
      -7477113.      -7477991.      -7478086.      -7478093.      -7478861.
      -7479936.      -7478749.      -7478896.      -7480007.      -7479896.
      -7480184.      -7480373.      -7480741.      -7481921.      -7482441.
      -7481963.      -7482885.      -7484263.      -7484411.      -7484821.
      -7485370.      -7485242.      -7484604.      -7484346.      -7482974.
      -7482745.      -7483751.      -7483897.      -7484428.      -7483654.
      -7483484.      -7483200.      -7483178.      -7483866.      -7483559.
      -7483585.      -7482721.      -7483581.      -7484549.      -7483435.
      -7484242.      -7483937.      -7484477.      -7487040.      -7486204.
      -7485571.      -7485398.      -7484995.      -7485745.      -7485000.
      -7484647.      -7484547.      -7484826.      -7485356.      -7484368.
      -7485557.      -7485094.      -7484559.      -7487532.      -7487677.
      -7487296.      -7487875.      -7487125.      -7485727.      -7485201.
      -7485008.      -7484969.      -7486180.      -7486605.      -7487088.
      -7488197.      -7488351.      -7487860.      -7487347.      -7487127.
      -7487834.      -7488540.      -7487248.      -7487183.      -7487861.
      -7487270.      -7487265.      -7485847.      -7484282.      -7485116.
      -7484969.      -7484322.      -7484909.      -7483178.      -7483169.
      -7484299.      -7484018.      -7484988.      -7483973.      -7484043.
      -7484150.      -7483205.      -7484016.      -7483050.      -7483246.
      -7484153.      -7484565.      -7486395.      -7486445.      -7485967.
      -7486297.      -7486916.      -7488179.      -7489610.      -7489558.
      -7489090.      -7489395.      -7488008.      -7487041.      -7486691.
      -7486642.      -7486538.      -7484881.      -7484283.      -7484651.
      -7485471.      -7485773.      -7485889.      -7486722.      -7487332.
      -7487453.      -7485227.      -7483892.      -7484709.      -7484568.
      -7484840.      -7486702.      -7488949.      -7489476.      -7489718.
      -7490991.      -7492521.      -7493652.      -7492399.      -7491606.
      -7491733.      -7490950.      -7490904.      -7489663.      -7489754.
      -7490736.      -7489673.      -7489251.      -7489101.      -7489391.
      -7489452.      -7489273.      -7489743.      -7489680.      -7489222.
      -7488847.      -7488423.      -7488586.      -7489465.      -7489230.
      -7489772.      -7491099.      -7491107.      -7492315.      -7493612.
      -7493118.      -7493564.      -7494307.      -7492361.      -7490736.
      -7489439.      -7488532.      -7490015.      -7490146.      -7490422.
      -7491485.      -7491436.      -7490870.      -7490928.      -7492089.
      -7490721.      -7491060.      -7492243.      -7490926.      -7491929.
      -7491898.      -7491878.      -7492702.      -7492973.      -7494027.
      -7494195.      -7494073.      -7492812.      -7492227.      -7493598.
      -7494510.      -7493803.      -7493144.      -7493776.      -7494774.
      -7496451.      -7495659.      -7494588.      -7495561.      -7496107.
      -7497007.      -7496428.      -7496643.      -7497245.      -7493730.
      -7493659.      -7496087.      -7495399.      -7495149.      -7494484.
      -7493947.      -7493984.      -7494048.      -7493545.      -7492086.
      -7491904.      -7493025.      -7493915.      -7493730.      -7494172.
      -7494511.      -7493920.      -7494544.      -7494394.      -7493835.
      -7494591.      -7495129.      -7496569.      -7496563.      -7496205.
      -7498186.      -7498387.      -7497520.      -7497180.      -7496478.
      -7497010.      -7498534.      -7498197.      -7497731.      -7496901.
      -7495458.      -7496447.      -7496710.      -7496270.      -7497690.
      -7497606.      -7496970.      -7498375.      -7498971.      -7497420.
      -7496393.      -7497383.      -7498056.      -7499545.      -7498879.
      -7495842.      -7496144.      -7496993.      -7497784.      -7498357.
      -7498097.      -7498491.      -7498138.      -7497310.      -7498769.
      -7500869.      -7501339.      -7500238.      -7497219.      -7496538.
      -7497685.      -7498607.      -7499594.      -7499225.      -7499324.
      -7498201.      -7497886.      -7497815.      -7497482.      -7500057.
      -7499918.      -7498662.      -7498196.      -7498109.      -7499315.
      -7499692.      -7499827.      -7500799.      -7500673.      -7499405.
      -7499653.      -7499689.      -7499195.      -7498516.      -7498521.
      -7499093.      -7499258.      -7500368.      -7500499.      -7500445.
      -7500788.      -7501091.      -7501428.      -7499948.      -7499065.
      -7499106.      -7499447.      -7499366.      -7498347.      -7499499.
      -7499660.      -7498563.      -7498983.      -7498544.      -7497933.
      -7498418.      -7499404.      -7500118.      -7500538.      -7501071.
      -7501638.      -7502530.      -7502702.      -7501914.      -7501390.
      -7502349.      -7504193.      -7504222.      -7503729.      -7504304.
      -7504873.      -7504854.      -7504611.      -7504942.      -7505559.
      -7505378.      -7503800.      -7503958.      -7504991.      -7505436.
      -7506164.      -7505727.      -7506046.      -7503557.      -7500295.
      -7502673.      -7503948.      -7503217.      -7503491.      -7503811.
      -7504930.      -7504855.      -7503858.      -7503418.      -7503389.
      -7503605.      -7504387.      -7505138.      -7504555.      -7505373.
      -7506119.      -7505868.      -7506747.      -7507900.      -7506737.
      -7503469.      -7503535.      -7504150.      -7503719.      -7503940.
      -7503001.      -7503011.      -7503738.      -7504400.      -7504359.
      -7503635.      -7503901.      -7504498.      -7504458.      -7503076.
      -7502328.      -7502317.      -7502034.      -7503093.      -7502818.
      -7501284.      -7501470.      -7501950.      -7502356.      -7502770.
      -7503020.      -7503341.      -7502663.      -7501397.      -7502523.
      -7504026.      -7504162.      -7504807.      -7504696.      -7505258.
      -7505176.      -7503731.      -7504449.      -7505125.      -7505373.
      -7506504.      -7506192.      -7505936.      -7506730.      -7506272.
      -7506514.      -7506259.      -7504083.      -7503799.      -7504878.
      -7504117.      -7505566.      -7507456.      -7506076.      -7508663.
      -7507078.      -7509868.      -7507510.      -7511246.      -7512548.
      -7507158.      -7519279.      -7426129.      -7340473.      -7361129.
      -7359417.      -7364817.      -7367929.      -7365307.      -7370017.
      -7367030.      -7370002.      -7369581.      -7369453.      -7369669.
      -7369503.      -7370469.      -7369415.      -7369210.      -7370417.
      -7371612.      -7372084.      -7373443.      -7373216.      -7369066.
      -7367595.      -7367250.      -7367018.      -7367778.      -7367796.
      -7368020.      -7368623.      -7369985.      -7369990.      -7370558.
      -7369499.      -7368991.      -7371919.      -7370848.      -7369945.
      -7367788.      -7365193.      -7367221.      -7367457.      -7366924.
      -7367917.      -7368328.      -7367985.      -7368841.      -7368599.
      -7367054.      -7367642.      -7368578.      -7366842.      -7363431.
      -7363967.      -7364980.      -7365730.      -7367555.      -7366075.
      -7365795.      -7365170.      -7365407.      -7367260.      -7366136.
      -7366586.      -7367211.      -7368358.      -7368406.      -7364468.
      -7362901.      -7363342.      -7364788.      -7366358.      -7366419.
      -7367779.      -7367215.      -7365040.      -7364419.      -7363758.
      -7363794.      -7362466.      -7361662.      -7362851.      -7363131.
      -7363389.      -7363361.      -7363378.      -7363451.      -7363561.
      -7364145.      -7365012.      -7366660.      -7366506.      -7366252.
      -7368846.      -7369177.      -7368591.      -7369496.      -7370505.
      -7369724.      -7366708.      -7365213.      -7365706.      -7366276.
      -7365560.      -7367511.      -7367275.      -7363689.      -7363364.
      -7362593.      -7361782.      -7360832.      -7361204.      -7362513.
      -7361541.      -7362960.      -7364450.      -7363576.      -7363479.
      -7365286.      -7366256.      -7364215.      -7363610.      -7363998.
      -7363753.      -7363653.      -7364124.      -7365830.      -7366509.
      -7366288.      -7365778.      -7366445.      -7367911.      -7368936.
      -7368645.      -7368307.      -7366902.      -7357436.      -7352156.
      -7353316.      -7352175.      -7352832.      -7352305.      -7354143.
      -7355610.      -7352056.      -7351325.      -7352784.      -7353839.
      -7354665.      -7354381.      -7353641.      -7354046.      -7354510.
      -7355220.      -7356231.      -7355871.      -7355936.      -7356826.
      -7358424.      -7359980.      -7359998.      -7361101.      -7360672.
      -7360523.      -7360107.      -7356939.      -7360101.      -7356741.
      -7358719.      -7354737.      -7324042.      -7318626.      -7325858.
      -7323927.      -7328833.      -7330041.      -7330361.      -7330745.
      -7329618.      -7330818.      -7332410.      -7332087.      -7332498.
      -7332912.      -7332087.      -7332565.      -7332814.      -7332873.
      -7333651.      -7333609.      -7333445.      -7334159.      -7334326.
      -7333882.      -7334253.      -7335467.      -7335490.      -7335414.
      -7337173.      -7337932.      -7337097.      -7336450.      -7336659.
      -7335681.      -7334033.      -7334113.      -7334207.      -7335084.
      -7336081.      -7335738.      -7335996.      -7335399.      -7334510.
      -7333828.      -7333657.      -7335227.      -7335540.      -7335674.
      -7336543.      -7337106.      -7337447.      -7338112.      -7339585.
      -7340302.      -7340427.      -7340569.      -7340535.      -7340192.
      -7340828.      -7340443.      -7338741.      -7339433.      -7339828.
      -7340188.      -7340615.      -7340721.      -7342075.      -7342198.
      -7342229.      -7342357.      -7342594.      -7343627.      -7344402.
      -7345133.      -7344770.      -7345041.      -7344474.      -7342552.
      -7341692.      -7340383.      -7339819.      -7339915.      -7340489.
      -7340254.      -7339905.      -7341024.      -7340966.      -7341126.
      -7341948.      -7342433.      -7342617.      -7342750.      -7343103.
      -7343726.      -7345468.      -7345728.      -7345073.      -7344690.
      -7342071.      -7341644.      -7342909.      -7342213.      -7342861.
      -7343461.      -7343888.      -7344611.      -7344533.      -7344872.
      -7344634.      -7344322.      -7344250.      -7344699.      -7344609.
      -7343764.      -7343912.      -7343734.      -7345049.      -7345930.
      -7344940.      -7345040.      -7345120.      -7345450.      -7345725.
      -7346799.      -7347946.      -7347460.      -7347124.      -7347018.
      -7346590.      -7345572.      -7344725.      -7345134.      -7345902.
      -7345012.      -7344412.      -7346091.      -7347127.      -7347427.
      -7348198.      -7348500.      -7348938.      -7348651.      -7349017.
      -7348150.      -7345954.      -7347610.      -7347377.      -7346678.
      -7347917.      -7347505.      -7347326.      -7345210.      -7345899.
      -7348885.      -7348417.      -7348172.      -7347168.      -7347309.
      -7348011.      -7346691.      -7346686.      -7347010.      -7347730.
      -7348907.      -7349942.      -7350013.      -7349621.      -7350730.
      -7352275.      -7353269.      -7353331.      -7353014.      -7351915.
      -7350490.      -7349793.      -7349562.      -7349767.      -7349778.
      -7348741.      -7348642.      -7349365.      -7348177.      -7346750.
      -7346346.      -7347476.      -7348862.      -7349824.      -7350773.
      -7349774.      -7350483.      -7351721.      -7352153.      -7353607.
      -7353233.      -7353228.      -7353602.      -7353577.      -7353457.
      -7353207.      -7354463.      -7355435.      -7355116.      -7354871.
      -7354452.      -7353619.      -7353960.      -7355355.      -7355988.
      -7355469.      -7355236.      -7355873.      -7355836.      -7355402.
      -7356271.      -7356220.      -7355530.      -7355852.      -7355555.
      -7356135.      -7356806.      -7357257.      -7358415.      -7357864.
      -7357294.      -7357952.      -7358044.      -7358381.      -7358634.
      -7358708.      -7359185.      -7358760.      -7359213.      -7360095.
      -7360261.      -7360663.      -7361520.      -7362155.      -7361719.
      -7361653.      -7362318.      -7362474.      -7360554.      -7359605.
      -7359671.      -7359360.      -7360679.      -7361744.      -7361627.
      -7361362.      -7361470.      -7360474.      -7360533.      -7361988.
      -7361731.      -7361731.      -7361375.      -7359747.      -7359635.
      -7360301.      -7359561.      -7359043.      -7359490.      -7359443.
      -7358517.      -7356773.      -7356637.      -7358248.      -7358053.
      -7358257.      -7359246.      -7359117.      -7359353.      -7358683.
      -7358337.      -7359313.      -7360074.      -7360073.      -7360051.
      -7361378.      -7360130.      -7357504.      -7357764.      -7358295.
      -7357946.      -7358070.      -7358284.      -7357866.      -7357135.
      -7356170.      -7356180.      -7356450.      -7357199.      -7357614.
      -7356475.      -7357013.      -7357632.      -7357667.      -7358565.
      -7359115.      -7358902.      -7358050.      -7357881.      -7357481.
      -7357120.      -7357616.      -7357858.      -7359666.      -7360965.
      -7360884.      -7361158.      -7360824.      -7360654.      -7361059.
      -7361366.      -7361540.      -7361472.      -7361378.      -7361843.
      -7362183.      -7362626.      -7363128.      -7363552.      -7363536.
      -7362562.      -7362008.      -7362511.      -7361283.      -7359068.
      -7360172.      -7361989.      -7361574.      -7360640.      -7361250.
      -7361824.      -7362134.      -7362226.      -7360653.      -7360938.
      -7361945.      -7361952.      -7362358.      -7362264.      -7361869.
      -7361515.      -7362506.      -7363412.      -7362931.      -7363026.
      -7363628.      -7364921.      -7365845.      -7366070.      -7366356.
      -7365399.      -7365815.      -7367287.      -7368039.      -7369244.
      -7368982.      -7368041.      -7366910.      -7366545.      -7367283.
