     0.05000000      -12345.00      -12345.00   1.070320e+09      -12345.00
   0.0001080000       3899.950      -329.0481      -12345.00      -12345.00
      -12345.00      -12345.00      -12345.00      -12345.00      -12345.00
      -12345.00      -12345.00      -12345.00      -12345.00      -12345.00
      -12345.00      -12345.00      -12345.00      -12345.00      -12345.00
      -12345.00      -12345.00      -12345.00      -12345.00      -12345.00
      -12345.00       62.03100       129.6805       96.00000       14.00000
       3.412500       95.90120      -12345.00       26.10000      -12345.00
      -12345.00      -12345.00      -12345.00      -12345.00      -12345.00
      -12345.00      -12345.00      -12345.00      -12345.00      -12345.00
       7081.009       17.00370       218.2574       63.68386      -12345.00
      -12345.00      -12345.00       0.000000       0.000000      -12345.00
      -12345.00      -12345.00      -12345.00      -12345.00      -12345.00
      -12345.00      -12345.00      -12345.00      -12345.00      -12345.00
      2004       361         1         4        21
        48         6    -12345    -12345     78000
    -12345    -12345    -12345    -12345    -12345
         1    -12345    -12345    -12345    -12345
    -12345    -12345    -12345    -12345    -12345
    -12345    -12345    -12345    -12345    -12345
    -12345    -12345    -12345    -12345    -12345
         1    -12345    -12345    -12345    -12345
YAK     Off W Coast Of N
00      -12345  -12345  
-12345  -12345  -12345  
-12345  -12345  -12345  
-12345  -12345  -12345  
-12345  -12345  -12345  
-12345  -12345  BHZ     
IU      -12345  Streckei
[...]
       2423036.       2362146.       2300811.       2238996.       2176780.
       2114131.       2051063.       1987604.       1923649.       1859208.
       1794300.       1728956.       1663161.       1596972.       1530482.
       1463685.       1396546.       1329020.       1261188.       1193137.
       1124895.       1056417.       987660.0       918690.0       849574.0
       780278.0       710713.0       640940.0       571011.0       500981.0
       430902.0       360738.0       290556.0       220446.0       150396.0
       80292.00       10139.00      -60046.00      -130244.0      -200355.0
      -270455.0      -340632.0      -410783.0      -480877.0      -550869.0
      -620660.0      -690321.0      -759724.0      -828839.0      -897709.0
      -966295.0      -1034684.      -1102749.      -1170438.      -1237738.
      -1304614.      -1371094.      -1437124.      -1502730.      -1568010.
      -1632907.      -1697213.      -1760925.      -1824146.      -1886842.
      -1948987.      -2010626.      -2071702.      -2132201.      -2192176.
      -2251535.      -2310299.      -2368556.      -2426264.      -2483373.
      -2539848.      -2595739.      -2651041.      -2705705.      -2759811.
      -2813358.      -2866317.      -2918624.      -2970177.      -3020903.
      -3070796.      -3119783.      -3167871.      -3215210.      -3261762.
      -3307597.      -3352666.      -3396783.      -3439967.      -3482262.
      -3523690.      -3564261.      -3604021.      -3642826.      -3680674.
      -3717626.      -3753555.      -3788551.      -3822590.      -3855661.
      -3887812.      -3918972.      -3949149.      -3978346.      -4006568.
      -4033817.      -4060113.      -4085437.      -4109825.      -4133286.
      -4155813.      -4177495.      -4198328.      -4218189.      -4236969.
      -4254726.      -4271453.      -4287183.      -4301942.      -4315625.
      -4328355.      -4340117.      -4350853.      -4360607.      -4369342.
      -4377036.      -4383627.      -4389244.      -4393925.      -4397531.
      -4400021.      -4401411.      -4401730.      -4400923.      -4398993.
      -4395955.      -4391873.      -4386860.      -4380799.      -4373595.
      -4365324.      -4356017.      -4345762.      -4334591.      -4322429.
      -4309300.      -4295175.      -4279980.      -4263778.      -4246585.
      -4228351.      -4209137.      -4188971.      -4167862.      -4145881.
      -4122991.      -4099132.      -4074319.      -4048556.      -4021909.
      -3994389.      -3965977.      -3936722.      -3906538.      -3875491.
      -3843648.      -3810836.      -3777043.      -3742317.      -3706691.
      -3670208.      -3632915.      -3594840.      -3555932.      -3516246.
      -3475760.      -3434467.      -3392491.      -3349866.      -3306610.
      -3262716.      -3218199.      -3172996.      -3127028.      -3080450.
      -3033292.      -2985513.      -2937271.      -2888601.      -2839424.
      -2789748.      -2739523.      -2688752.      -2637475.      -2585673.
      -2533374.      -2480560.      -2427311.      -2373680.      -2319611.
      -2265198.      -2210349.      -2155121.      -2099687.      -2043945.
      -1987930.      -1931618.      -1875029.      -1818243.      -1761281.
      -1704060.      -1646535.      -1588882.      -1531070.      -1473057.
      -1414860.      -1356482.      -1297910.      -1239115.      -1180161.
      -1121036.      -1061816.      -1002564.      -943327.0      -884166.0
      -825043.0      -765938.0      -706793.0      -647590.0      -588349.0
      -529105.0      -469858.0      -410583.0      -351314.0      -292066.0
      -232754.0      -173363.0      -114025.0      -54728.00       4580.000
       63760.00       122625.0       181123.0       239306.0       297264.0
       355112.0       412774.0       470184.0       527375.0       584263.0
       640900.0       697327.0       753549.0       809580.0       865286.0
       920749.0       976100.0       1031301.       1086271.       1140921.
       1195218.       1249152.       1302657.       1355680.       1408301.
       1460545.       1512308.       1563598.       1614451.       1664847.
       1714861.       1764494.       1813730.       1862587.       1910988.
       1958973.       2006490.       2053412.       2099769.       2145569.
       2190775.       2235446.       2279570.       2323016.       2365816.
       2408027.       2449604.       2490495.       2530706.       2570311.
       2609421.       2648040.       2686121.       2723673.       2760581.
       2796860.       2832515.       2867456.       2901734.       2935325.
       2968219.       3000446.       3031949.       3062706.       3092654.
       3121735.       3149955.       3177392.       3204068.       3230012.
       3255203.       3279516.       3303043.       3325826.       3347881.
       3369156.       3389576.       3409211.       3427929.       3445707.
       3462627.       3478673.       3493853.       3508110.       3521459.
       3533955.       3545586.       3556372.       3566299.       3575348.
       3583519.       3590926.       3597581.       3603424.       3608550.
       3612950.       3616555.       3619388.       3621550.       3623021.
       3623785.       3623887.       3623336.       3622153.       3620195.
       3617503.       3614191.       3610203.       3605453.       3599874.
       3593537.       3586392.       3578454.       3569786.       3560323.
       3550013.       3538939.       3527184.       3514631.       3501302.
       3487258.       3472600.       3457285.       3441321.       3424813.
       3407707.       3390098.       3371972.       3353249.       3333887.
       3313899.       3293393.       3272441.       3251062.       3229264.
       3206999.       3184242.       3161072.       3137582.       3113761.
       3089469.       3064574.       3039155.       3013204.       2986677.
       2959731.       2932370.       2904534.       2876148.       2847203.
       2817774.       2787856.       2757470.       2726631.       2695339.
       2663723.       2631888.       2599709.       2567182.       2534370.
       2501318.       2468145.       2434921.       2401670.       2368273.
       2334594.       2300645.       2266515.       2232196.       2197600.
       2162770.       2127687.       2092361.       2056906.       2021268.
       1985433.       1949438.       1913281.       1876900.       1840281.
       1803527.       1766766.       1730043.       1693184.       1656284.
       1619493.       1582653.       1545624.       1508495.       1471389.
       1434241.       1397149.       1360079.       1322931.       1285789.
       1248658.       1211570.       1174498.       1137433.       1100404.
       1063422.       1026472.       989557.0       952698.0       915870.0
       879060.0       842234.0       805348.0       768434.0       731581.0
       694764.0       657921.0       621068.0       584267.0       547491.0
       510691.0       473972.0       437315.0       400765.0       364455.0
       328281.0       292247.0       256377.0       220675.0       185159.0
       149736.0       114384.0       79081.00       43877.00       8770.000
      -26318.00      -61354.00      -96286.00      -131211.0      -166087.0
      -200772.0      -235344.0      -269825.0      -304181.0      -338380.0
      -372376.0      -406251.0      -440024.0      -473628.0      -507057.0
      -540296.0      -573458.0      -606557.0      -639475.0      -672231.0
      -704839.0      -737336.0      -769745.0      -802021.0      -834145.0
      -866101.0      -897954.0      -929803.0      -961651.0      -993495.0
      -1025281.      -1056922.      -1088386.      -1119639.      -1150719.
      -1181650.      -1212427.      -1243090.      -1273583.      -1303782.
      -1333687.      -1363286.      -1392609.      -1421735.      -1450622.
      -1479336.      -1507867.      -1536173.      -1564296.      -1592216.
      -1619922.      -1647377.      -1674588.      -1701537.      -1728170.
      -1754477.      -1780477.      -1806239.      -1831761.      -1856985.
      -1881938.      -1906687.      -1931292.      -1955730.      -1979943.
      -2003897.      -2027516.      -2050807.      -2073752.      -2096317.
      -2118625.      -2140787.      -2162749.      -2184499.      -2206164.
      -2227737.      -2249220.      -2270618.      -2291782.      -2312730.
      -2333577.      -2354303.      -2374789.      -2394898.      -2414584.
      -2433903.      -2452913.      -2471685.      -2490166.      -2508364.
      -2526355.      -2544119.      -2561689.      -2579023.      -2596110.
      -2612933.      -2629506.      -2645871.      -2661919.      -2677634.
      -2693015.      -2708119.      -2723002.      -2737728.      -2752361.
      -2766862.      -2781252.      -2795481.      -2809641.      -2823818.
      -2837955.      -2852078.      -2866196.      -2880259.      -2894205.
      -2908101.      -2921906.      -2935544.      -2949076.      -2962523.
      -2975788.      -2988645.      -3001146.      -3013523.      -3025706.
      -3037607.      -3049188.      -3060425.      -3071425.      -3082316.
      -3093023.      -3103389.      -3113507.      -3123382.      -3133028.
      -3142460.      -3151592.      -3160543.      -3169323.      -3177931.
      -3186319.      -3194356.      -3202143.      -3209716.      -3217030.
      -3224157.      -3231073.      -3237714.      -3244082.      -3250151.
      -3255890.      -3261292.      -3266374.      -3271118.      -3275519.
      -3279585.      -3283246.      -3286501.      -3289431.      -3291995.
      -3294200.      -3296084.      -3297543.      -3298666.      -3299403.
      -3299727.      -3299723.      -3299288.      -3298420.      -3297081.
      -3295348.      -3293153.      -3290277.      -3286838.      -3282922.
      -3278369.      -3273105.      -3267238.      -3260699.      -3253379.
      -3245347.      -3236609.      -3227019.      -3216562.      -3205371.
      -3193411.      -3180648.      -3167105.      -3152741.      -3137574.
      -3121588.      -3104748.      -3087177.      -3068999.      -3050193.
      -3030607.      -3010207.      -2989025.      -2967023.      -2944237.
      -2920552.      -2895958.      -2870556.      -2844348.      -2817374.
      -2789611.      -2761125.      -2731966.      -2702016.      -2671135.
      -2639399.      -2606860.      -2573438.      -2539130.      -2503854.
      -2467705.      -2430808.      -2393101.      -2354616.      -2315256.
      -2274946.      -2233811.      -2191833.      -2148952.      -2105157.
      -2060381.      -2014748.      -1968302.      -1920889.      -1872532.
      -1823343.      -1773445.      -1722897.      -1671677.      -1619678.
      -1566944.      -1513549.      -1459420.      -1404677.      -1349357.
      -1293489.      -1237033.      -1179919.      -1122249.      -1063957.
      -1005043.      -945568.0      -885540.0      -824992.0      -763874.0
      -702193.0      -639922.0      -577073.0      -513721.0      -449777.0
      -385311.0      -320423.0      -255026.0      -189084.0      -122693.0
      -55849.00       11469.00       79272.00       147515.0       216071.0
       284935.0       354036.0       423367.0       492873.0       562486.0
       632278.0       702219.0       772357.0       842638.0       912966.0
       983344.0       1053694.       1124070.       1194476.       1264885.
       1335286.       1405548.       1475612.       1545553.       1615389.
       1685140.       1754938.       1824674.       1894226.       1963528.
       2032628.       2101655.       2170501.       2239075.       2307296.
       2375179.       2442832.       2510150.       2577078.       2643726.
       2710010.       2775872.       2841311.       2906203.       2970583.
       3034412.       3097655.       3160406.       3222558.       3284016.
       3344863.       3405124.       3464745.       3523723.       3582035.
       3639657.       3696593.       3752769.       3808148.       3862750.
       3916566.       3969552.       4021714.       4073014.       4123354.
       4172753.       4221170.       4268587.       4315054.       4360512.
       4404866.       4448123.       4490365.       4531547.       4571625.
       4610586.       4648425.       4685109.       4720635.       4755114.
       4788526.       4820765.       4851830.       4881709.       4910379.
       4937814.       4963960.       4988811.       5012367.       5034694.
       5055851.       5075778.       5094464.       5111878.       5128024.
       5142907.       5156534.       5168900.       5179898.       5189589.
       5197981.       5205063.       5210880.       5215367.       5218573.
       5220546.       5221397.       5221169.       5219722.       5217116.
       5213384.       5208479.       5202414.       5195151.       5186706.
       5177093.       5166267.       5154211.       5140953.       5126418.
       5110606.       5093553.       5075200.       5055483.       5034434.
       5012208.       4988751.       4964130.       4938376.       4911424.
       4883401.       4854193.       4823843.       4792445.       4759918.
       4726282.       4691517.       4655712.       4618861.       4580888.
       4541849.       4501739.       4460423.       4417929.       4374520.
       4330117.       4284682.       4238300.       4191068.       4143065.
       4094197.       4044370.       3993627.       3942182.       3889917.
       3836858.       3782978.       3728099.       3672359.       3615893.
       3558756.       3500824.       3442076.       3382562.       3322484.
       3262009.       3200804.       3138501.       3075179.       3011183.
       2946559.       2881138.       2814782.       2747507.       2679584.
       2611261.       2542523.       2473196.       2403258.       2332782.
       2261960.       2190874.       2119086.       2046472.       1973374.
       1900029.       1826511.       1752494.       1677687.       1602351.
       1526903.       1451458.       1375802.       1299698.       1223127.
       1146332.       1069410.       992140.0       914449.0       836470.0
       758429.0       680440.0       602418.0       524121.0       445461.0
       366743.0       288241.0       209981.0       131821.0       53693.00
      -24360.00      -102336.0      -180321.0      -258305.0      -336325.0
      -414417.0      -492305.0      -569935.0      -647379.0      -724709.0
      -802033.0      -879077.0      -955660.0      -1031948.      -1108065.
      -1183992.      -1259668.      -1334941.      -1409760.      -1484274.
      -1558472.      -1632365.      -1705806.      -1778606.      -1850826.
      -1922492.      -1993821.      -2064860.      -2135283.      -2205043.
      -2274272.      -2343033.      -2411322.      -2478941.      -2545756.
      -2611956.      -2677669.      -2742758.      -2807065.      -2870648.
      -2933564.      -2995764.      -3057226.      -3117861.      -3177546.
      -3236375.      -3294608.      -3351915.      -3408074.      -3463323.
      -3517644.      -3571122.      -3623565.      -3674959.      -3725381.
      -3774848.      -3823469.      -3871021.      -3917651.      -3963372.
      -4008268.      -4052397.      -4095644.      -4138123.      -4179689.
      -4220382.      -4260144.      -4299067.      -4337267.      -4374473.
      -4410613.      -4445652.      -4479615.      -4512521.      -4544324.
      -4575085.      -4604768.      -4633394.      -4661025.      -4687637.
      -4713234.      -4737658.      -4760937.      -4783028.      -4803918.
      -4823765.      -4842381.      -4859864.      -4876206.      -4891343.
      -4905528.      -4918560.      -4930331.      -4940911.      -4950366.
      -4958925.      -4966332.      -4972461.      -4977317.      -4981068.
      -4984079.      -4986016.      -4986786.      -4986468.      -4985089.
      -4982628.      -4979010.      -4974251.      -4968162.      -4961070.
      -4953036.      -4943889.      -4933740.      -4922532.      -4910310.
      -4897003.      -4882610.      -4867036.      -4850142.      -4832115.
      -4813008.      -4792824.      -4771586.      -4749182.      -4725517.
      -4700769.      -4675185.      -4648729.      -4621235.      -4592651.
      -4563014.      -4532311.      -4500569.      -4467757.      -4433855.
      -4399061.      -4363446.      -4326907.      -4289413.      -4250983.
      -4211608.      -4171308.      -4130024.      -4087695.      -4044397.
      -4000212.      -3955235.      -3909276.      -3862260.      -3814351.
      -3765567.      -3715938.      -3665360.      -3613737.      -3561037.
      -3507498.      -3453376.      -3398526.      -3342804.      -3286218.
      -3228939.      -3170908.      -3112103.      -3052642.      -2992411.
      -2931519.      -2870102.      -2808170.      -2745667.      -2682304.
      -2618220.      -2553616.      -2488292.      -2422265.      -2355504.
      -2288110.      -2220129.      -2151486.      -2082254.      -2012482.
      -1942411.      -1871933.      -1800948.      -1729547.      -1657542.
      -1585132.      -1512352.      -1439219.      -1365848.      -1292022.
      -1218012.      -1143742.      -1069197.      -994597.0      -919851.0
      -845073.0      -770134.0      -695108.0      -620017.0      -544787.0
      -469349.0      -393685.0      -318105.0      -242439.0      -166549.0
      -90571.00      -14636.00       61227.00       137218.0       213410.0
       289541.0       365302.0       440855.0       516242.0       591378.0
       666392.0       741267.0       816009.0       890600.0       964958.0
       1039058.       1112764.       1186045.       1258975.       1331664.
       1404062.       1475847.       1547007.       1617605.       1687743.
       1757498.       1826630.       1895186.       1963185.       2030598.
       2097489.       2163682.       2229212.       2294064.       2358207.
       2421788.       2484785.       2547154.       2608741.       2669517.
       2729580.       2788918.       2847477.       2905131.       2961918.
       3017832.       3072673.       3126454.       3179276.       3231253.
       3282393.       3332439.       3381382.       3429269.       3476138.
